{"type":"FeatureCollection","metadata":{"source":"https://earthquake.usgs.gov/arcgis/rest/services/ls/pwfdf/MapServer/0","fetched_at":"2026-09-26T21:34:56Z"},"features":[{"type":"Feature","geometry":{"type":"Point","coordinates":[-118.31,34.23]},"properties":{"fire":"La Tuna","fire_id":"ltn2017","start_date":1504224000000,"assessment_date":1505174400000,"url":" https://www.sciencebase.gov/catalog/item/68bb42efd4be025329aa1c02"}},{"type":"Feature","geometry":{"type":"Point","coordinates":[-118.35,34.3]},"properties":{"fire":"Creek","fire_id":"crk2017","start_date":1512432000000,"assessment_date":1513123200000,"url":" https://www.sciencebase.gov/catalog/item/68bb42efd4be025329aa1c02"}},{"type":"Feature","geometry":{"type":"Point","coordinates":[-118.0931,34.2006]},"properties":{"fire":"Eaton","fire_id":"eat2025","start_date":1736208000000,"assessment_date":1737244800000,"url":" https://www.sciencebase.gov/catalog/item/6838d149d4be025925747189"}}]}