{"type":"FeatureCollection","metadata":{"source":"https://earthquake.usgs.gov/arcgis/rest/services/ls/pwfdf/MapServer/4","fetched_at":"2026-09-26T21:34:56Z","note":"Basins exist only for assessments since 2020-08. Conditions right after the fire."},"features":[{"type":"Feature","geometry":{"type":"Polygon","coordinates":[[[-118.0608,34.2242],[-118.0608,34.224],[-118.0616,34.224],[-118.0617,34.2237],[-118.0623,34.2233],[-118.0623,34.2231],[-118.0626,34.2229],[-118.0625,34.2223],[-118.0627,34.2222],[-118.0627,34.2219],[-118.0622,34.2216],[-118.0624,34.2208],[-118.0622,34.2206],[-118.0626,34.2202],[-118.0625,34.2193],[-118.0627,34.2192],[-118.0628,34.2186],[-118.0616,34.2186],[-118.0611,34.2182],[-118.0607,34.2182],[-118.0603,34.2177],[-118.0593,34.2177],[-118.0591,34.2175],[-118.0591,34.2177],[-118.0585,34.2182],[-118.0584,34.2185],[-118.0569,34.22],[-118.0569,34.2208],[-118.0578,34.2219],[-118.058,34.2231],[-118.0583,34.2234],[-118.0584,34.2238],[-118.0608,34.2242]]]},"properties":{"fire_id":"eat2025","hazard":"Moderate","likelihood":"20-40%","volume_m3":"1,000-10,000"}},{"type":"Feature","geometry":{"type":"Polygon","coordinates":[[[-118.063,34.2186],[-118.0633,34.2182],[-118.0638,34.2181],[-118.0639,34.2178],[-118.0635,34.2165],[-118.0636,34.2161],[-118.0633,34.2158],[-118.0633,34.2152],[-118.0632,34.2155],[-118.0629,34.2156],[-118.0624,34.2161],[-118.0613,34.2164],[-118.0612,34.2166],[-118.0607,34.2167],[-118.0604,34.2169],[-118.0597,34.217],[-118.0594,34.2175],[-118.0592,34.2175],[-118.0593,34.2177],[-118.0603,34.2177],[-118.0607,34.2182],[-118.0611,34.2182],[-118.0616,34.2186],[-118.063,34.2186]]]},"properties":{"fire_id":"eat2025","hazard":"Moderate","likelihood":"20-40%","volume_m3":"1,000-10,000"}},{"type":"Feature","geometry":{"type":"Polygon","coordinates":[[[-118.1408,34.2364],[-118.141,34.236],[-118.1423,34.2357],[-118.1432,34.2353],[-118.1432,34.235],[-118.1425,34.2343],[-118.1425,34.2328],[-118.1421,34.2324],[-118.1421,34.2322],[-118.1417,34.2319],[-118.1416,34.2315],[-118.1414,34.2314],[-118.1417,34.2307],[-118.1414,34.2304],[-118.1413,34.2298],[-118.1416,34.2295],[-118.1418,34.229],[-118.1431,34.2285],[-118.1431,34.2283],[-118.1444,34.227],[-118.1452,34.2266],[-118.1455,34.2257],[-118.146,34.2255],[-118.1472,34.2242],[-118.1472,34.224],[-118.1474,34.2239],[-118.1473,34.2231],[-118.1479,34.2227],[-118.1481,34.222],[-118.1479,34.2217],[-118.1485,34.2207],[-118.1504,34.2207],[-118.1514,34.2204],[-118.1515,34.2202],[-118.1518,34.2202],[-118.152,34.22],[-118.1533,34.2201],[-118.1543,34.2193],[-118.1553,34.2192],[-118.1557,34.2194],[-118.1559,34.2194],[-118.157,34.2192],[-118.1572,34.2194],[-118.1575,34.2194],[-118.1578,34.2185],[-118.1585,34.2177],[-118.1592,34.2177],[-118.1595,34.2174],[-118.1604,34.2175],[-118.1604,34.2168],[-118.1598,34.2162],[-118.1594,34.216],[-118.1594,34.2157],[-118.1591,34.2151],[-118.1592,34.2146],[-118.1589,34.2144],[-118.1588,34.2138],[-118.1578,34.2137],[-118.1576,34.2134],[-118.1566,34.2137],[-118.1556,34.2137],[-118.1551,34.2141],[-118.155,34.2144],[-118.1546,34.2145],[-118.1542,34.2145],[-118.1535,34.2141],[-118.1517,34.2141],[-118.151,34.2145],[-118.1503,34.2145],[-118.15,34.2147],[-118.148,34.2146],[-118.1478,34.2144],[-118.1468,34.2147],[-118.1464,34.2144],[-118.1458,34.2144],[-118.1452,34.2147],[-118.1448,34.2144],[-118.1437,34.2144],[-118.1435,34.2146],[-118.143,34.2146],[-118.1425,34.215],[-118.1421,34.215],[-118.1421,34.2152],[-118.1419,34.2152],[-118.1417,34.2155],[-118.1417,34.2163],[-118.1413,34.2165],[-118.1412,34.2168],[-118.141,34.2168],[-118.1409,34.2169],[-118.1405,34.2169],[-118.1402,34.2172],[-118.138,34.2171],[-118.1373,34.2174],[-118.1371,34.2177],[-118.1363,34.2175],[-118.1358,34.2177],[-118.1345,34.2167],[-118.1326,34.217],[-118.1314,34.217],[-118.1313,34.2172],[-118.1307,34.2171],[-118.1304,34.2169],[-118.1293,34.217],[-118.1286,34.2169],[-118.1277,34.2173],[-118.1272,34.2173],[-118.127,34.2176],[-118.1268,34.2182],[-118.1264,34.2186],[-118.1261,34.2186],[-118.1254,34.2202],[-118.1255,34.221],[-118.1253,34.2217],[-118.1246,34.2218],[-118.124,34.2221],[-118.1226,34.2219],[-118.1217,34.2222],[-118.1208,34.2221],[-118.1203,34.2229],[-118.1203,34.2232],[-118.1196,34.2237],[-118.1195,34.2241],[-118.1162,34.2241],[-118.1155,34.2234],[-118.1134,34.2233],[-118.1133,34.2232],[-118.1129,34.2231],[-118.1125,34.2224],[-118.1114,34.2225],[-118.1115,34.2231],[-118.1112,34.2233],[-118.1106,34.2235],[-118.11,34.2244],[-118.11,34.2254],[-118.1097,34.2256],[-118.1093,34.2256],[-118.1092,34.2257],[-118.1083,34.2261],[-118.108,34.2267],[-118.1067,34.2274],[-118.1067,34.2276],[-118.1064,34.2277],[-118.1058,34.2284],[-118.1056,34.2284],[-118.1056,34.2287],[-118.1045,34.2296],[-118.1045,34.23],[-118.1048,34.2301],[-118.1048,34.2307],[-118.1054,34.2313],[-118.1059,34.2316],[-118.1062,34.2321],[-118.1069,34.2323],[-118.107,34.2326],[-118.1083,34.2327],[-118.1086,34.233],[-118.1095,34.2332],[-118.1097,34.2333],[-118.1108,34.2333],[-118.1108,34.2335],[-118.111,34.2336],[-118.1119,34.2335],[-118.1124,34.2337],[-118.1126,34.234],[-118.1133,34.234],[-118.114,34.2343],[-118.1146,34.2341],[-118.1158,34.2341],[-118.1168,34.2344],[-118.1183,34.2343],[-118.119,34.2345],[-118.1192,34.2348],[-118.1195,34.2348],[-118.1196,34.2351],[-118.1204,34.2352],[-118.1212,34.2357],[-118.1231,34.2356],[-118.1234,34.2358],[-118.124,34.2358],[-118.1241,34.2357],[-118.1253,34.2356],[-118.1263,34.2358],[-118.1293,34.2357],[-118.1296,34.2359],[-118.1298,34.2357],[-118.1308,34.2351],[-118.1313,34.2352],[-118.1314,34.235],[-118.1325,34.235],[-118.1329,34.2354],[-118.1332,34.2354],[-118.1334,34.2357],[-118.1345,34.2361],[-118.1345,34.2363],[-118.1349,34.2361],[-118.1359,34.2361],[-118.1364,34.2357],[-118.1369,34.2355],[-118.1376,34.2358],[-118.1384,34.2357],[-118.139,34.2361],[-118.1395,34.236],[-118.1398,34.2361],[-118.14,34.2364],[-118.1408,34.2364]]]},"properties":{"fire_id":"eat2025","hazard":"Moderate","likelihood":"40-60%","volume_m3":"10,000-100,000"}},{"type":"Feature","geometry":{"type":"Polygon","coordinates":[[[-118.1294,34.211],[-118.1296,34.2107],[-118.13,34.2107],[-118.1301,34.2105],[-118.1312,34.2102],[-118.1319,34.2095],[-118.1315,34.2087],[-118.1318,34.208],[-118.1315,34.208],[-118.1313,34.2075],[-118.131,34.2075],[-118.1308,34.2072],[-118.1301,34.2072],[-118.1297,34.2069],[-118.1294,34.2069],[-118.1291,34.2072],[-118.1286,34.2073],[-118.1282,34.2079],[-118.1279,34.2079],[-118.1275,34.2086],[-118.1276,34.209],[-118.128,34.2093],[-118.128,34.2094],[-118.1283,34.2095],[-118.1286,34.2098],[-118.1286,34.2101],[-118.129,34.2105],[-118.129,34.2107],[-118.1294,34.211]]]},"properties":{"fire_id":"eat2025","hazard":"High","likelihood":"80-100%","volume_m3":"1,000-10,000"}},{"type":"Feature","geometry":{"type":"Polygon","coordinates":[[[-118.1371,34.2177],[-118.1373,34.2174],[-118.138,34.2171],[-118.1402,34.2172],[-118.1405,34.2169],[-118.1409,34.2169],[-118.141,34.2168],[-118.1412,34.2168],[-118.1413,34.2165],[-118.1417,34.2163],[-118.1418,34.2153],[-118.1421,34.2152],[-118.1421,34.215],[-118.1425,34.215],[-118.143,34.2146],[-118.1448,34.2144],[-118.1452,34.2147],[-118.1454,34.2147],[-118.1459,34.2144],[-118.1458,34.2134],[-118.1454,34.2132],[-118.1453,34.2128],[-118.1454,34.2117],[-118.1457,34.2114],[-118.1458,34.2107],[-118.146,34.2106],[-118.1458,34.2095],[-118.1463,34.2086],[-118.1467,34.2084],[-118.1468,34.2081],[-118.147,34.2081],[-118.1476,34.2073],[-118.1482,34.207],[-118.1481,34.2066],[-118.1483,34.2063],[-118.1483,34.2058],[-118.1485,34.2053],[-118.1483,34.205],[-118.1481,34.205],[-118.1478,34.2047],[-118.1472,34.2054],[-118.1466,34.2056],[-118.146,34.2063],[-118.1456,34.2065],[-118.1451,34.2069],[-118.1449,34.2076],[-118.1445,34.2077],[-118.1442,34.2081],[-118.1434,34.2084],[-118.1431,34.2093],[-118.1431,34.2096],[-118.1427,34.2098],[-118.1427,34.2106],[-118.1424,34.2107],[-118.1421,34.2111],[-118.1415,34.2112],[-118.1413,34.2114],[-118.141,34.2111],[-118.1403,34.2112],[-118.1403,34.211],[-118.1396,34.211],[-118.1393,34.2112],[-118.1386,34.2111],[-118.1387,34.2125],[-118.1374,34.2131],[-118.1372,34.2133],[-118.1369,34.2134],[-118.1365,34.2138],[-118.1362,34.2147],[-118.1358,34.215],[-118.1356,34.2157],[-118.1347,34.2163],[-118.1346,34.2166],[-118.1346,34.2169],[-118.1351,34.217],[-118.1358,34.2177],[-118.1367,34.2175],[-118.1368,34.2177],[-118.1371,34.2177]]]},"properties":{"fire_id":"eat2025","hazard":"High","likelihood":"80-100%","volume_m3":"1,000-10,000"}},{"type":"Feature","geometry":{"type":"Polygon","coordinates":[[[-118.1375,34.21],[-118.1376,34.2098],[-118.1378,34.2098],[-118.1378,34.2096],[-118.1381,34.2095],[-118.1386,34.2094],[-118.1387,34.2096],[-118.1395,34.2096],[-118.1401,34.2095],[-118.1401,34.2094],[-118.1403,34.2093],[-118.1408,34.2092],[-118.1408,34.2082],[-118.141,34.208],[-118.1411,34.2068],[-118.1409,34.2059],[-118.1411,34.2048],[-118.1413,34.2043],[-118.1415,34.2042],[-118.1415,34.2038],[-118.1412,34.2038],[-118.141,34.2036],[-118.1405,34.2042],[-118.1398,34.2043],[-118.1397,34.2044],[-118.1393,34.2044],[-118.1391,34.2045],[-118.1383,34.2047],[-118.137,34.2046],[-118.1366,34.2048],[-118.1359,34.2048],[-118.1357,34.2052],[-118.1351,34.2055],[-118.1351,34.2057],[-118.1336,34.2057],[-118.1335,34.2059],[-118.1332,34.2059],[-118.1331,34.2064],[-118.1327,34.2067],[-118.1326,34.207],[-118.1324,34.207],[-118.1324,34.2077],[-118.1319,34.2079],[-118.1318,34.2082],[-118.1315,34.2084],[-118.1317,34.2093],[-118.1319,34.2094],[-118.1322,34.2094],[-118.1328,34.2092],[-118.1335,34.2092],[-118.1337,34.209],[-118.1354,34.209],[-118.1359,34.2091],[-118.1369,34.2099],[-118.1375,34.21]]]},"properties":{"fire_id":"eat2025","hazard":"Moderate","likelihood":"60-80%","volume_m3":"1,000-10,000"}},{"type":"Feature","geometry":{"type":"Polygon","coordinates":[[[-118.1313,34.2172],[-118.1314,34.217],[-118.1326,34.217],[-118.1342,34.2167],[-118.1346,34.2168],[-118.1347,34.2163],[-118.1356,34.2157],[-118.1358,34.215],[-118.1362,34.2147],[-118.1365,34.2138],[-118.1369,34.2134],[-118.1372,34.2133],[-118.1374,34.2131],[-118.1387,34.2125],[-118.1386,34.2111],[-118.1393,34.2112],[-118.1396,34.211],[-118.1403,34.211],[-118.1403,34.2112],[-118.141,34.2111],[-118.1413,34.2114],[-118.1415,34.2112],[-118.1421,34.2111],[-118.1424,34.2107],[-118.1427,34.2106],[-118.1427,34.2098],[-118.1431,34.2096],[-118.1431,34.2093],[-118.1434,34.2084],[-118.1442,34.2081],[-118.1445,34.2077],[-118.1449,34.2076],[-118.1451,34.2069],[-118.1456,34.2065],[-118.146,34.2063],[-118.1466,34.2056],[-118.1472,34.2054],[-118.1478,34.2047],[-118.1483,34.2046],[-118.1483,34.2044],[-118.1485,34.2044],[-118.1486,34.2042],[-118.1486,34.2037],[-118.1483,34.2037],[-118.1483,34.2034],[-118.1481,34.2034],[-118.1479,34.2037],[-118.1471,34.204],[-118.1468,34.2044],[-118.1464,34.2044],[-118.1464,34.2048],[-118.1458,34.2048],[-118.1452,34.2054],[-118.1448,34.2052],[-118.1442,34.2062],[-118.1439,34.2063],[-118.1437,34.2069],[-118.1432,34.2073],[-118.1432,34.2076],[-118.1422,34.2086],[-118.1418,34.2086],[-118.1416,34.2089],[-118.1411,34.2089],[-118.1408,34.2093],[-118.1401,34.2094],[-118.1401,34.2095],[-118.1387,34.2096],[-118.1385,34.2094],[-118.1378,34.2096],[-118.1378,34.2098],[-118.1373,34.21],[-118.1367,34.2098],[-118.1366,34.2095],[-118.1362,34.2094],[-118.1359,34.2091],[-118.1337,34.209],[-118.1335,34.2092],[-118.1328,34.2092],[-118.1322,34.2094],[-118.1319,34.2094],[-118.1312,34.2102],[-118.1301,34.2105],[-118.13,34.2107],[-118.1296,34.2107],[-118.1294,34.2109],[-118.1293,34.2121],[-118.1294,34.2126],[-118.1295,34.2126],[-118.1297,34.213],[-118.1295,34.2132],[-118.1295,34.2135],[-118.1293,34.2138],[-118.1293,34.215],[-118.1285,34.2157],[-118.1285,34.2159],[-118.1288,34.2161],[-118.1287,34.2169],[-118.1293,34.217],[-118.1304,34.2169],[-118.1307,34.2171],[-118.1313,34.2172]]]},"properties":{"fire_id":"eat2025","hazard":"High","likelihood":"80-100%","volume_m3":"10,000-100,000"}},{"type":"Feature","geometry":{"type":"MultiPolygon","coordinates":[[[[-118.1567,34.2032],[-118.1565,34.2035],[-118.1559,34.2035],[-118.1558,34.2041],[-118.1554,34.2044],[-118.1554,34.2045],[-118.1547,34.205],[-118.1545,34.205],[-118.1544,34.2048],[-118.1538,34.205],[-118.1535,34.2049],[-118.1532,34.2054],[-118.1527,34.2054],[-118.1525,34.2056],[-118.152,34.2057],[-118.1518,34.2059],[-118.1513,34.206],[-118.1509,34.2064],[-118.1503,34.2066],[-118.1496,34.2065],[-118.1493,34.2071],[-118.149,34.2071],[-118.1488,34.2074],[-118.1485,34.2075],[-118.1485,34.2077],[-118.1483,34.2078],[-118.1482,34.2081],[-118.148,34.2081],[-118.148,34.2082],[-118.1477,34.2082],[-118.1475,34.2086],[-118.1471,34.2087],[-118.1471,34.2091],[-118.1469,34.2094],[-118.147,34.2097],[-118.1464,34.21],[-118.1461,34.2106],[-118.1458,34.2107],[-118.1457,34.2114],[-118.1454,34.2117],[-118.1454,34.2132],[-118.1458,34.2134],[-118.1459,34.2144],[-118.1464,34.2144],[-118.1467,34.2147],[-118.1478,34.2144],[-118.148,34.2146],[-118.15,34.2147],[-118.1503,34.2145],[-118.151,34.2145],[-118.1517,34.2141],[-118.1535,34.2141],[-118.1542,34.2145],[-118.1546,34.2145],[-118.1551,34.2143],[-118.1554,34.2138],[-118.1557,34.2137],[-118.1558,34.2131],[-118.1556,34.2131],[-118.1554,34.2127],[-118.1554,34.2119],[-118.1558,34.2118],[-118.1567,34.2122],[-118.1568,34.212],[-118.157,34.212],[-118.157,34.2118],[-118.1575,34.2115],[-118.1574,34.2104],[-118.157,34.2101],[-118.1572,34.2098],[-118.157,34.2096],[-118.1569,34.2089],[-118.1563,34.2086],[-118.1565,34.2082],[-118.1572,34.2079],[-118.1574,34.2071],[-118.1576,34.2071],[-118.1575,34.2064],[-118.1577,34.2062],[-118.1577,34.2057],[-118.1575,34.2058],[-118.1572,34.2057],[-118.1563,34.2057],[-118.1563,34.2052],[-118.1566,34.2049],[-118.1565,34.2044],[-118.1567,34.2043],[-118.1567,34.2032]]],[[[-118.1568,34.2032],[-118.1567,34.2032],[-118.1568,34.2032],[-118.1568,34.2032]]]]},"properties":{"fire_id":"eat2025","hazard":"High","likelihood":"80-100%","volume_m3":"1,000-10,000"}},{"type":"Feature","geometry":{"type":"Polygon","coordinates":[[[-118.1461,34.2106],[-118.1463,34.2101],[-118.147,34.2097],[-118.1469,34.2094],[-118.1471,34.2091],[-118.1471,34.2087],[-118.1475,34.2086],[-118.1477,34.2082],[-118.148,34.2082],[-118.148,34.2081],[-118.1482,34.2081],[-118.1483,34.2078],[-118.1485,34.2077],[-118.1485,34.2075],[-118.1488,34.2074],[-118.149,34.2071],[-118.1493,34.2071],[-118.1496,34.2065],[-118.1503,34.2066],[-118.1509,34.2064],[-118.1513,34.206],[-118.1518,34.2059],[-118.152,34.2057],[-118.1525,34.2056],[-118.1527,34.2054],[-118.1532,34.2054],[-118.1535,34.2049],[-118.1549,34.2049],[-118.1558,34.2041],[-118.1559,34.2035],[-118.1563,34.2032],[-118.157,34.2031],[-118.1568,34.2029],[-118.1568,34.2025],[-118.1552,34.2024],[-118.1548,34.2028],[-118.1546,34.2027],[-118.1541,34.2028],[-118.154,34.203],[-118.1532,34.2031],[-118.1529,34.203],[-118.1528,34.2032],[-118.152,34.2033],[-118.152,34.2035],[-118.1518,34.2036],[-118.1513,34.2041],[-118.1513,34.2043],[-118.1509,34.2044],[-118.1508,34.2047],[-118.1505,34.2047],[-118.1503,34.2051],[-118.1497,34.2056],[-118.1497,34.2057],[-118.1492,34.2059],[-118.1489,34.2063],[-118.1487,34.2063],[-118.1485,34.2068],[-118.1476,34.2073],[-118.147,34.2081],[-118.1468,34.2081],[-118.1467,34.2084],[-118.1463,34.2086],[-118.1458,34.2095],[-118.1459,34.2104],[-118.1461,34.2106]]]},"properties":{"fire_id":"eat2025","hazard":"High","likelihood":"80-100%","volume_m3":"1,000-10,000"}},{"type":"Feature","geometry":{"type":"Polygon","coordinates":[[[-118.1217,34.2222],[-118.1226,34.2219],[-118.124,34.2221],[-118.1246,34.2218],[-118.1253,34.2217],[-118.1255,34.221],[-118.1254,34.2202],[-118.1261,34.2186],[-118.1264,34.2186],[-118.1268,34.2182],[-118.127,34.2176],[-118.1272,34.2173],[-118.1277,34.2173],[-118.1287,34.2169],[-118.1288,34.2161],[-118.1285,34.2159],[-118.1285,34.2157],[-118.1293,34.215],[-118.1293,34.2138],[-118.1295,34.2135],[-118.1295,34.2132],[-118.1297,34.213],[-118.1295,34.2126],[-118.1294,34.2126],[-118.1293,34.2121],[-118.1294,34.211],[-118.129,34.2107],[-118.129,34.2105],[-118.1286,34.2101],[-118.1286,34.2098],[-118.1283,34.2095],[-118.128,34.2094],[-118.128,34.2093],[-118.1276,34.209],[-118.1275,34.2086],[-118.1279,34.2079],[-118.127,34.2068],[-118.127,34.2064],[-118.1272,34.2061],[-118.1273,34.2056],[-118.1286,34.2044],[-118.1287,34.203],[-118.1278,34.2023],[-118.1274,34.2024],[-118.1269,34.2018],[-118.1263,34.2025],[-118.1264,34.2034],[-118.1261,34.2034],[-118.126,34.2039],[-118.1254,34.2042],[-118.1254,34.2048],[-118.1251,34.2051],[-118.125,34.2057],[-118.1238,34.2068],[-118.1227,34.2069],[-118.1223,34.207],[-118.1221,34.2074],[-118.1221,34.208],[-118.121,34.2093],[-118.1209,34.21],[-118.1208,34.2101],[-118.1208,34.211],[-118.1207,34.2112],[-118.1215,34.2119],[-118.1218,34.2124],[-118.1215,34.2138],[-118.1217,34.2143],[-118.1216,34.2152],[-118.1218,34.2155],[-118.1209,34.2163],[-118.1207,34.2164],[-118.1207,34.2173],[-118.121,34.2176],[-118.1211,34.2187],[-118.1215,34.219],[-118.1214,34.2201],[-118.121,34.2208],[-118.1208,34.2209],[-118.1207,34.2219],[-118.121,34.2222],[-118.1217,34.2222]]]},"properties":{"fire_id":"eat2025","hazard":"High","likelihood":"80-100%","volume_m3":"10,000-100,000"}},{"type":"Feature","geometry":{"type":"Polygon","coordinates":[[[-118.1195,34.2241],[-118.1196,34.2237],[-118.1203,34.2232],[-118.1204,34.2227],[-118.1208,34.2222],[-118.1207,34.2219],[-118.1208,34.2209],[-118.1213,34.2204],[-118.1215,34.2194],[-118.1215,34.219],[-118.1211,34.2187],[-118.1211,34.2178],[-118.1207,34.2173],[-118.1207,34.2164],[-118.1209,34.2163],[-118.1218,34.2155],[-118.1216,34.2152],[-118.1217,34.2143],[-118.1215,34.2135],[-118.1218,34.2124],[-118.1215,34.2119],[-118.1207,34.2112],[-118.1208,34.211],[-118.1208,34.2101],[-118.1209,34.21],[-118.121,34.2093],[-118.1221,34.208],[-118.1221,34.2074],[-118.1223,34.207],[-118.1227,34.2069],[-118.1238,34.2068],[-118.1242,34.2063],[-118.1245,34.2063],[-118.1251,34.2055],[-118.1251,34.2051],[-118.1254,34.2048],[-118.1254,34.2042],[-118.126,34.2039],[-118.1261,34.2034],[-118.1264,34.2034],[-118.1263,34.2026],[-118.126,34.2024],[-118.1258,34.2019],[-118.1255,34.2015],[-118.1253,34.2016],[-118.1249,34.201],[-118.1242,34.2007],[-118.124,34.2005],[-118.1234,34.2005],[-118.1232,34.2002],[-118.1232,34.1998],[-118.1228,34.1995],[-118.1228,34.1991],[-118.1222,34.1998],[-118.122,34.1998],[-118.1219,34.1994],[-118.1218,34.1995],[-118.1215,34.1995],[-118.1211,34.1992],[-118.1208,34.1992],[-118.1208,34.1989],[-118.1207,34.1988],[-118.1203,34.1991],[-118.1203,34.1994],[-118.12,34.1994],[-118.12,34.1996],[-118.1197,34.1997],[-118.1197,34.2005],[-118.1195,34.2006],[-118.1195,34.2009],[-118.118,34.2009],[-118.1179,34.2014],[-118.1177,34.2014],[-118.1176,34.2018],[-118.1172,34.2021],[-118.117,34.2028],[-118.1165,34.2032],[-118.1164,34.2034],[-118.1158,34.2036],[-118.1151,34.2041],[-118.1145,34.2042],[-118.114,34.2047],[-118.1136,34.2047],[-118.1131,34.2055],[-118.1122,34.2057],[-118.1112,34.2057],[-118.1108,34.2061],[-118.1104,34.2061],[-118.1096,34.2068],[-118.1094,34.2068],[-118.1085,34.2072],[-118.1083,34.2076],[-118.1074,34.2078],[-118.1074,34.2082],[-118.1072,34.2082],[-118.1072,34.2084],[-118.1064,34.2089],[-118.1057,34.2098],[-118.1054,34.2099],[-118.1053,34.2102],[-118.1049,34.2105],[-118.1048,34.2108],[-118.1036,34.2114],[-118.1033,34.2117],[-118.1031,34.212],[-118.1027,34.2121],[-118.1027,34.2132],[-118.103,34.214],[-118.1023,34.2145],[-118.1024,34.2154],[-118.1026,34.2155],[-118.1026,34.216],[-118.1033,34.2166],[-118.104,34.2167],[-118.1046,34.2173],[-118.1053,34.2174],[-118.1055,34.2177],[-118.1061,34.2179],[-118.1062,34.2181],[-118.1068,34.2182],[-118.107,34.2184],[-118.1082,34.2188],[-118.1079,34.2192],[-118.1077,34.2202],[-118.1094,34.2216],[-118.1095,34.2221],[-118.1103,34.2221],[-118.1105,34.2223],[-118.1113,34.2225],[-118.1125,34.2224],[-118.1129,34.2231],[-118.1133,34.2232],[-118.1134,34.2233],[-118.1155,34.2234],[-118.1162,34.2241],[-118.1195,34.2241]]]},"properties":{"fire_id":"eat2025","hazard":"High","likelihood":"80-100%","volume_m3":"10,000-100,000"}},{"type":"Feature","geometry":{"type":"Polygon","coordinates":[[[-118.1195,34.2009],[-118.1195,34.2006],[-118.1197,34.2005],[-118.1197,34.1997],[-118.12,34.1996],[-118.12,34.1994],[-118.1203,34.1994],[-118.1203,34.1991],[-118.1206,34.1989],[-118.1206,34.1976],[-118.1203,34.1976],[-118.1203,34.1974],[-118.1201,34.1977],[-118.1199,34.1977],[-118.1198,34.1981],[-118.1191,34.1982],[-118.1189,34.1987],[-118.1186,34.1988],[-118.1183,34.1995],[-118.1183,34.2004],[-118.118,34.2007],[-118.118,34.2009],[-118.1195,34.2009]]]},"properties":{"fire_id":"eat2025","hazard":"Moderate","likelihood":"60-80%","volume_m3":"1,000-10,000"}},{"type":"Feature","geometry":{"type":"Polygon","coordinates":[[[-118.1112,34.2018],[-118.112,34.2017],[-118.1126,34.2009],[-118.1128,34.2009],[-118.1133,34.2004],[-118.1138,34.2003],[-118.1142,34.1999],[-118.1142,34.1997],[-118.1145,34.1996],[-118.1145,34.1994],[-118.1149,34.1993],[-118.1149,34.1988],[-118.1145,34.1984],[-118.1149,34.1967],[-118.1149,34.1959],[-118.1146,34.1958],[-118.1146,34.1957],[-118.1143,34.1957],[-118.1142,34.1959],[-118.1135,34.196],[-118.113,34.1973],[-118.1126,34.1976],[-118.1126,34.1979],[-118.112,34.1982],[-118.1114,34.1988],[-118.1116,34.199],[-118.1116,34.1996],[-118.1114,34.1997],[-118.1114,34.2002],[-118.1111,34.2007],[-118.111,34.2018],[-118.1112,34.2018]]]},"properties":{"fire_id":"eat2025","hazard":"High","likelihood":"80-100%","volume_m3":"1,000-10,000"}},{"type":"Feature","geometry":{"type":"Polygon","coordinates":[[[-118.1124,34.1981],[-118.1126,34.1979],[-118.1126,34.1976],[-118.113,34.1973],[-118.1132,34.1967],[-118.1133,34.1966],[-118.1134,34.1955],[-118.1131,34.1951],[-118.1127,34.195],[-118.1126,34.1941],[-118.1121,34.194],[-118.1121,34.1946],[-118.1117,34.1951],[-118.1117,34.1955],[-118.1114,34.1957],[-118.1113,34.1964],[-118.1114,34.1969],[-118.1119,34.1978],[-118.1121,34.1981],[-118.1124,34.1981]]]},"properties":{"fire_id":"eat2025","hazard":"Moderate","likelihood":"40-60%","volume_m3":"<1,000"}},{"type":"Feature","geometry":{"type":"Polygon","coordinates":[[[-118.1077,34.2078],[-118.1083,34.2076],[-118.109,34.2069],[-118.1096,34.2068],[-118.1102,34.2062],[-118.1108,34.2061],[-118.1112,34.2057],[-118.1122,34.2057],[-118.1131,34.2055],[-118.1136,34.2047],[-118.114,34.2047],[-118.1145,34.2042],[-118.1151,34.2041],[-118.1158,34.2036],[-118.1164,34.2034],[-118.1165,34.2032],[-118.117,34.2028],[-118.1173,34.2019],[-118.1176,34.2018],[-118.1177,34.2014],[-118.1179,34.2014],[-118.118,34.2007],[-118.1182,34.2006],[-118.1183,34.2001],[-118.1184,34.1992],[-118.1186,34.1991],[-118.1186,34.1988],[-118.1189,34.1987],[-118.1191,34.1982],[-118.1193,34.1982],[-118.1192,34.1975],[-118.1195,34.1971],[-118.1196,34.1964],[-118.12,34.1961],[-118.1199,34.1957],[-118.1209,34.1957],[-118.1209,34.1956],[-118.1212,34.1954],[-118.1209,34.195],[-118.1209,34.1947],[-118.1203,34.1946],[-118.1196,34.1942],[-118.1196,34.1938],[-118.1199,34.1934],[-118.1195,34.1934],[-118.1194,34.1937],[-118.1187,34.1942],[-118.1186,34.1946],[-118.1182,34.195],[-118.1178,34.1959],[-118.1179,34.1961],[-118.1177,34.1965],[-118.1176,34.1976],[-118.1172,34.1981],[-118.1169,34.1982],[-118.1166,34.1984],[-118.116,34.1985],[-118.1159,34.1987],[-118.1149,34.1992],[-118.1147,34.1994],[-118.1145,34.1994],[-118.1145,34.1996],[-118.1142,34.1997],[-118.1142,34.1999],[-118.1138,34.2003],[-118.1133,34.2004],[-118.1128,34.2009],[-118.1126,34.2009],[-118.112,34.2017],[-118.1112,34.2017],[-118.1105,34.2019],[-118.1104,34.202],[-118.1098,34.202],[-118.1095,34.2028],[-118.1094,34.2028],[-118.1087,34.2033],[-118.1083,34.2033],[-118.1082,34.2035],[-118.1082,34.2039],[-118.1076,34.2042],[-118.1071,34.2046],[-118.1071,34.2051],[-118.1067,34.2053],[-118.1064,34.2063],[-118.1069,34.2066],[-118.1069,34.2069],[-118.1072,34.2073],[-118.1072,34.2077],[-118.1077,34.2078]]]},"properties":{"fire_id":"eat2025","hazard":"High","likelihood":"80-100%","volume_m3":"10,000-100,000"}},{"type":"Feature","geometry":{"type":"Polygon","coordinates":[[[-118.1104,34.202],[-118.1105,34.2019],[-118.111,34.2018],[-118.1111,34.2007],[-118.1114,34.2002],[-118.1114,34.1997],[-118.1116,34.1996],[-118.1116,34.199],[-118.1114,34.1988],[-118.1122,34.1981],[-118.1119,34.1978],[-118.1114,34.1969],[-118.1114,34.1958],[-118.111,34.1955],[-118.1108,34.1955],[-118.1107,34.1948],[-118.1103,34.1945],[-118.1103,34.1944],[-118.1101,34.1944],[-118.1097,34.1939],[-118.1095,34.1938],[-118.1095,34.1936],[-118.1092,34.1932],[-118.1092,34.1934],[-118.1087,34.1934],[-118.1085,34.1936],[-118.1086,34.1943],[-118.1083,34.1944],[-118.1083,34.1951],[-118.1077,34.1956],[-118.1072,34.1965],[-118.1074,34.1966],[-118.1075,34.1972],[-118.108,34.1975],[-118.1081,34.198],[-118.1085,34.1985],[-118.1088,34.2006],[-118.1092,34.2009],[-118.1095,34.201],[-118.1096,34.2014],[-118.1098,34.2015],[-118.1098,34.202],[-118.1104,34.202]]]},"properties":{"fire_id":"eat2025","hazard":"High","likelihood":"80-100%","volume_m3":"1,000-10,000"}},{"type":"Feature","geometry":{"type":"Polygon","coordinates":[[[-118.1072,34.1964],[-118.1077,34.1956],[-118.1083,34.1951],[-118.1083,34.1946],[-118.1083,34.1944],[-118.1086,34.1943],[-118.1086,34.1939],[-118.1083,34.1936],[-118.1077,34.1936],[-118.1075,34.1933],[-118.1066,34.1931],[-118.1065,34.1929],[-118.106,34.1929],[-118.1059,34.1932],[-118.1067,34.1936],[-118.107,34.1943],[-118.107,34.1946],[-118.1065,34.1952],[-118.1065,34.196],[-118.1072,34.1964]]]},"properties":{"fire_id":"eat2025","hazard":"High","likelihood":"80-100%","volume_m3":"1,000-10,000"}},{"type":"Feature","geometry":{"type":"Polygon","coordinates":[[[-118.0984,34.2432],[-118.0984,34.243],[-118.0992,34.2424],[-118.0995,34.2417],[-118.1002,34.241],[-118.1002,34.2407],[-118.0995,34.2403],[-118.0996,34.2399],[-118.0995,34.2398],[-118.0994,34.2393],[-118.0992,34.2391],[-118.0992,34.2383],[-118.0989,34.238],[-118.0988,34.2371],[-118.0997,34.2362],[-118.1011,34.2361],[-118.1025,34.2351],[-118.104,34.2349],[-118.1042,34.2347],[-118.1042,34.2345],[-118.1044,34.2344],[-118.1044,34.234],[-118.105,34.2334],[-118.1052,34.2328],[-118.1059,34.2321],[-118.1061,34.2321],[-118.1059,34.2316],[-118.1054,34.2313],[-118.1048,34.2307],[-118.1048,34.2301],[-118.1045,34.23],[-118.1045,34.2296],[-118.1056,34.2287],[-118.1056,34.2284],[-118.1058,34.2284],[-118.1064,34.2277],[-118.1067,34.2276],[-118.1067,34.2274],[-118.108,34.2267],[-118.1083,34.2261],[-118.1092,34.2257],[-118.1093,34.2256],[-118.1099,34.2255],[-118.11,34.2244],[-118.1103,34.2242],[-118.1105,34.2236],[-118.1112,34.2233],[-118.1115,34.2231],[-118.1113,34.2224],[-118.1105,34.2223],[-118.1103,34.2221],[-118.1095,34.2221],[-118.1094,34.2216],[-118.1077,34.2202],[-118.1079,34.2192],[-118.1082,34.2188],[-118.107,34.2184],[-118.1068,34.2182],[-118.1062,34.2181],[-118.1061,34.2179],[-118.1055,34.2177],[-118.1053,34.2174],[-118.1046,34.2173],[-118.104,34.2167],[-118.1033,34.2166],[-118.1026,34.216],[-118.1026,34.2155],[-118.1024,34.2154],[-118.1023,34.2145],[-118.103,34.214],[-118.1027,34.2132],[-118.1027,34.2121],[-118.1031,34.212],[-118.1033,34.2117],[-118.1036,34.2114],[-118.1048,34.2108],[-118.1049,34.2105],[-118.1053,34.2102],[-118.1054,34.2099],[-118.1057,34.2098],[-118.1064,34.2089],[-118.1072,34.2084],[-118.1072,34.2082],[-118.1074,34.2082],[-118.1074,34.2078],[-118.1072,34.2077],[-118.1071,34.2071],[-118.1069,34.2069],[-118.1069,34.2066],[-118.1064,34.2063],[-118.1065,34.2057],[-118.1067,34.2053],[-118.1071,34.2051],[-118.1071,34.2046],[-118.1076,34.2042],[-118.1082,34.2039],[-118.1082,34.2035],[-118.1083,34.2033],[-118.1087,34.2033],[-118.1092,34.2031],[-118.1098,34.2023],[-118.1098,34.2015],[-118.1096,34.2014],[-118.1095,34.2009],[-118.1092,34.2009],[-118.1088,34.2006],[-118.1085,34.1985],[-118.1081,34.198],[-118.108,34.1975],[-118.1075,34.1972],[-118.1074,34.1966],[-118.107,34.1962],[-118.1068,34.1962],[-118.1066,34.196],[-118.1056,34.1962],[-118.105,34.1961],[-118.1048,34.1959],[-118.1042,34.196],[-118.1039,34.1958],[-118.1034,34.1958],[-118.103,34.1943],[-118.1027,34.1941],[-118.1026,34.1934],[-118.1023,34.1932],[-118.1019,34.1931],[-118.1015,34.1927],[-118.1008,34.1929],[-118.0995,34.1929],[-118.0992,34.1931],[-118.0974,34.1931],[-118.0965,34.1939],[-118.096,34.1941],[-118.0956,34.1949],[-118.0932,34.1952],[-118.0928,34.1956],[-118.0919,34.1958],[-118.0912,34.1965],[-118.0906,34.1966],[-118.0904,34.1964],[-118.0896,34.1964],[-118.0887,34.1969],[-118.0874,34.1972],[-118.0861,34.1971],[-118.0856,34.1969],[-118.0852,34.1966],[-118.0845,34.1964],[-118.0842,34.196],[-118.0834,34.1957],[-118.0832,34.1957],[-118.0826,34.1956],[-118.0812,34.1956],[-118.0808,34.1957],[-118.0803,34.1957],[-118.0799,34.196],[-118.0786,34.196],[-118.0783,34.1957],[-118.0781,34.1957],[-118.0779,34.1961],[-118.0777,34.1961],[-118.0771,34.1968],[-118.0769,34.1969],[-118.0769,34.197],[-118.0764,34.1973],[-118.0763,34.1986],[-118.0758,34.199],[-118.0754,34.1999],[-118.0749,34.2003],[-118.0749,34.2011],[-118.0745,34.2012],[-118.0743,34.2018],[-118.0739,34.2019],[-118.0736,34.2021],[-118.0728,34.2023],[-118.0723,34.2023],[-118.0716,34.2019],[-118.0692,34.2021],[-118.0677,34.202],[-118.0671,34.2023],[-118.0668,34.2023],[-118.0666,34.2026],[-118.0659,34.203],[-118.0658,34.2032],[-118.0656,34.2032],[-118.0654,34.2035],[-118.0648,34.2037],[-118.0645,34.2041],[-118.0644,34.2041],[-118.064,34.2044],[-118.0639,34.2048],[-118.0634,34.205],[-118.0634,34.2054],[-118.0645,34.2064],[-118.0645,34.207],[-118.0646,34.2071],[-118.0646,34.2085],[-118.0651,34.2095],[-118.0652,34.2103],[-118.0645,34.2108],[-118.0645,34.211],[-118.064,34.2115],[-118.0637,34.2115],[-118.0635,34.2119],[-118.0633,34.2119],[-118.0631,34.2123],[-118.0627,34.2125],[-118.0626,34.2128],[-118.0623,34.213],[-118.0623,34.2139],[-118.0626,34.2142],[-118.0628,34.2148],[-118.063,34.2148],[-118.0633,34.2153],[-118.0633,34.2158],[-118.0636,34.2161],[-118.0635,34.2165],[-118.0639,34.2178],[-118.0638,34.2181],[-118.0633,34.2182],[-118.063,34.2186],[-118.0628,34.2186],[-118.0627,34.2192],[-118.0625,34.2193],[-118.0626,34.2202],[-118.0622,34.2206],[-118.0624,34.221],[-118.0622,34.2216],[-118.0627,34.2219],[-118.0627,34.2222],[-118.0625,34.2223],[-118.0626,34.2229],[-118.062,34.2236],[-118.0623,34.2237],[-118.0623,34.2239],[-118.0635,34.2241],[-118.0635,34.2244],[-118.0639,34.2245],[-118.0642,34.2248],[-118.0642,34.2251],[-118.0645,34.2251],[-118.0645,34.2254],[-118.0658,34.2258],[-118.066,34.2262],[-118.0662,34.2262],[-118.0662,34.2264],[-118.0666,34.2264],[-118.0668,34.2266],[-118.0671,34.2266],[-118.0672,34.2268],[-118.0675,34.2268],[-118.0677,34.2269],[-118.0676,34.228],[-118.0678,34.2281],[-118.068,34.2287],[-118.0687,34.2289],[-118.0695,34.23],[-118.0707,34.2301],[-118.0709,34.2304],[-118.0709,34.2307],[-118.0711,34.2308],[-118.0713,34.2314],[-118.0718,34.2319],[-118.0723,34.2319],[-118.0726,34.2322],[-118.0731,34.2319],[-118.0733,34.2319],[-118.0733,34.232],[-118.0743,34.232],[-118.0744,34.2324],[-118.075,34.233],[-118.0753,34.233],[-118.0755,34.2332],[-118.0757,34.2332],[-118.0759,34.2338],[-118.0764,34.2338],[-118.0766,34.2341],[-118.0768,34.2341],[-118.0768,34.2343],[-118.0773,34.2345],[-118.0784,34.2345],[-118.0787,34.2348],[-118.0792,34.2349],[-118.0793,34.2351],[-118.0803,34.2353],[-118.0823,34.2354],[-118.0824,34.2352],[-118.0838,34.235],[-118.0839,34.2353],[-118.0843,34.2354],[-118.0843,34.2356],[-118.0847,34.236],[-118.0847,34.2363],[-118.085,34.2364],[-118.0851,34.2367],[-118.0857,34.2367],[-118.086,34.237],[-118.087,34.2373],[-118.0877,34.2373],[-118.0885,34.2378],[-118.0895,34.2381],[-118.0909,34.2382],[-118.0911,34.238],[-118.0914,34.238],[-118.092,34.2383],[-118.0923,34.2389],[-118.0931,34.2392],[-118.0932,34.2394],[-118.0938,34.2394],[-118.0936,34.2402],[-118.0937,34.2407],[-118.0941,34.2412],[-118.0953,34.2419],[-118.0954,34.2421],[-118.0961,34.2422],[-118.0966,34.2424],[-118.0969,34.2428],[-118.0984,34.2432]]]},"properties":{"fire_id":"eat2025","hazard":"High","likelihood":"80-100%","volume_m3":">100,000"}},{"type":"Feature","geometry":{"type":"Polygon","coordinates":[[[-118.1027,34.1937],[-118.1027,34.1927],[-118.1021,34.1925],[-118.102,34.1922],[-118.1015,34.192],[-118.0994,34.192],[-118.099,34.1923],[-118.0987,34.1923],[-118.0986,34.1926],[-118.098,34.193],[-118.0992,34.1931],[-118.0995,34.1929],[-118.1008,34.1929],[-118.1015,34.1927],[-118.1019,34.1931],[-118.1023,34.1932],[-118.1027,34.1937]]]},"properties":{"fire_id":"eat2025","hazard":"High","likelihood":"80-100%","volume_m3":"1,000-10,000"}},{"type":"Feature","geometry":{"type":"MultiPolygon","coordinates":[[[[-118.1017,34.1871],[-118.1013,34.1872],[-118.1012,34.1874],[-118.1008,34.1874],[-118.1006,34.1877],[-118.1005,34.1882],[-118.0998,34.1883],[-118.0993,34.1891],[-118.0983,34.1893],[-118.0983,34.1894],[-118.097,34.1894],[-118.0956,34.1898],[-118.0955,34.19],[-118.095,34.1902],[-118.0949,34.1905],[-118.0943,34.1904],[-118.0943,34.1906],[-118.0938,34.1908],[-118.0936,34.1913],[-118.0934,34.1914],[-118.0934,34.1918],[-118.0931,34.1921],[-118.0923,34.1923],[-118.0918,34.1931],[-118.0918,34.1935],[-118.092,34.1936],[-118.092,34.1938],[-118.0917,34.1944],[-118.0918,34.1957],[-118.092,34.1958],[-118.0921,34.1957],[-118.0928,34.1956],[-118.0932,34.1952],[-118.0956,34.1949],[-118.096,34.1941],[-118.0965,34.1939],[-118.0974,34.1931],[-118.0982,34.193],[-118.0984,34.1926],[-118.0987,34.1925],[-118.0987,34.1923],[-118.099,34.1923],[-118.0994,34.192],[-118.1005,34.1919],[-118.1011,34.1908],[-118.1011,34.1897],[-118.1014,34.1894],[-118.1017,34.1893],[-118.1019,34.1888],[-118.1019,34.188],[-118.1021,34.1874],[-118.1019,34.1874],[-118.1017,34.1871]]],[[[-118.1024,34.1869],[-118.1021,34.1874],[-118.1023,34.1874],[-118.1025,34.1871],[-118.1024,34.1869]]]]},"properties":{"fire_id":"eat2025","hazard":"High","likelihood":"80-100%","volume_m3":"10,000-100,000"}},{"type":"Feature","geometry":{"type":"Polygon","coordinates":[[[-118.0938,34.1909],[-118.0943,34.1906],[-118.0943,34.1904],[-118.0949,34.1905],[-118.0951,34.1901],[-118.0955,34.19],[-118.0958,34.1897],[-118.0961,34.1897],[-118.097,34.1894],[-118.0983,34.1894],[-118.0983,34.1893],[-118.0993,34.1891],[-118.0998,34.1883],[-118.1005,34.1882],[-118.1006,34.1876],[-118.1002,34.1872],[-118.1002,34.1861],[-118.1,34.1857],[-118.1002,34.1855],[-118.1002,34.185],[-118.0998,34.1853],[-118.0998,34.1857],[-118.0979,34.1864],[-118.0978,34.1869],[-118.097,34.1872],[-118.0968,34.1878],[-118.0963,34.188],[-118.0959,34.1883],[-118.0958,34.1888],[-118.0945,34.1893],[-118.0943,34.1896],[-118.0939,34.1899],[-118.0939,34.1902],[-118.0937,34.1902],[-118.0936,34.1908],[-118.0938,34.1909]]]},"properties":{"fire_id":"eat2025","hazard":"High","likelihood":"80-100%","volume_m3":"1,000-10,000"}},{"type":"Feature","geometry":{"type":"Polygon","coordinates":[[[-118.0823,34.1957],[-118.0828,34.1956],[-118.0834,34.1948],[-118.0852,34.1942],[-118.0857,34.1936],[-118.0863,34.1932],[-118.0863,34.193],[-118.0866,34.193],[-118.0865,34.1926],[-118.0868,34.1924],[-118.0868,34.192],[-118.0871,34.1919],[-118.087,34.1903],[-118.0869,34.1902],[-118.0867,34.1894],[-118.0864,34.1893],[-118.0862,34.1888],[-118.0862,34.1882],[-118.0865,34.188],[-118.0865,34.1868],[-118.087,34.1861],[-118.087,34.1852],[-118.0872,34.185],[-118.0871,34.1845],[-118.0867,34.1841],[-118.086,34.1841],[-118.0857,34.1838],[-118.0854,34.1843],[-118.0851,34.1843],[-118.0846,34.1847],[-118.0839,34.185],[-118.0839,34.1854],[-118.0835,34.1856],[-118.0835,34.1859],[-118.0832,34.1862],[-118.0828,34.1873],[-118.0824,34.1877],[-118.0823,34.1886],[-118.082,34.1889],[-118.0819,34.1894],[-118.0817,34.1895],[-118.0819,34.1907],[-118.0816,34.1916],[-118.0816,34.1923],[-118.0819,34.193],[-118.0816,34.1931],[-118.0813,34.1934],[-118.0811,34.1949],[-118.0813,34.1956],[-118.0823,34.1957]]]},"properties":{"fire_id":"eat2025","hazard":"High","likelihood":"80-100%","volume_m3":"10,000-100,000"}},{"type":"Feature","geometry":{"type":"MultiPolygon","coordinates":[[[[-118.0985,34.1835],[-118.0981,34.184],[-118.0976,34.1841],[-118.097,34.1847],[-118.0968,34.1847],[-118.0967,34.1851],[-118.0962,34.1855],[-118.0962,34.1858],[-118.0958,34.1862],[-118.096,34.1869],[-118.0959,34.1883],[-118.0963,34.188],[-118.0967,34.1879],[-118.0971,34.1871],[-118.0978,34.1869],[-118.0979,34.1863],[-118.0977,34.1859],[-118.0975,34.1859],[-118.0977,34.1852],[-118.0975,34.1849],[-118.0978,34.1847],[-118.0979,34.1843],[-118.0985,34.1837],[-118.0985,34.1835]]],[[[-118.0986,34.1834],[-118.0985,34.1834],[-118.0985,34.1835],[-118.0986,34.1834]]],[[[-118.0987,34.1833],[-118.0986,34.1833],[-118.0986,34.1834],[-118.0987,34.1833]]]]},"properties":{"fire_id":"eat2025","hazard":"High","likelihood":"80-100%","volume_m3":"1,000-10,000"}},{"type":"Feature","geometry":{"type":"Polygon","coordinates":[[[-118.0981,34.1864],[-118.0982,34.1862],[-118.0995,34.1858],[-118.0997,34.1854],[-118.0997,34.1846],[-118.0995,34.1844],[-118.0995,34.1838],[-118.0991,34.1837],[-118.0991,34.1835],[-118.0989,34.1835],[-118.0988,34.1833],[-118.0979,34.1843],[-118.0978,34.1847],[-118.0975,34.1849],[-118.0977,34.1854],[-118.0975,34.1859],[-118.0978,34.186],[-118.0979,34.1864],[-118.0981,34.1864]]]},"properties":{"fire_id":"eat2025","hazard":"Moderate","likelihood":"80-100%","volume_m3":"<1,000"}},{"type":"Feature","geometry":{"type":"Polygon","coordinates":[[[-118.0874,34.1972],[-118.0887,34.1969],[-118.0896,34.1964],[-118.0904,34.1964],[-118.0906,34.1966],[-118.0912,34.1965],[-118.0919,34.1959],[-118.0917,34.1944],[-118.092,34.1936],[-118.0918,34.1935],[-118.0918,34.1931],[-118.0923,34.1923],[-118.0931,34.1921],[-118.0934,34.1918],[-118.0934,34.1914],[-118.0937,34.1911],[-118.0937,34.1902],[-118.0939,34.1902],[-118.0939,34.1899],[-118.0943,34.1896],[-118.0943,34.1894],[-118.0945,34.1893],[-118.0958,34.1888],[-118.096,34.1869],[-118.0958,34.1862],[-118.0962,34.1858],[-118.0962,34.1855],[-118.0967,34.1851],[-118.0967,34.1848],[-118.097,34.1847],[-118.0982,34.1835],[-118.0981,34.183],[-118.0978,34.1832],[-118.0976,34.1839],[-118.0974,34.1841],[-118.0968,34.1839],[-118.0967,34.1837],[-118.0962,34.1837],[-118.096,34.1839],[-118.0957,34.1839],[-118.0954,34.1842],[-118.0949,34.1842],[-118.0948,34.1844],[-118.0946,34.1844],[-118.0942,34.1853],[-118.094,34.1854],[-118.094,34.1858],[-118.0933,34.1862],[-118.0929,34.1869],[-118.0925,34.187],[-118.092,34.1875],[-118.0913,34.1876],[-118.0913,34.1878],[-118.091,34.1878],[-118.0907,34.1881],[-118.0901,34.1881],[-118.09,34.1882],[-118.0895,34.1884],[-118.0895,34.1886],[-118.0887,34.1894],[-118.0881,34.1895],[-118.087,34.1906],[-118.0871,34.1919],[-118.0868,34.192],[-118.0868,34.1924],[-118.0865,34.1926],[-118.0866,34.193],[-118.0863,34.193],[-118.0863,34.1932],[-118.0857,34.1936],[-118.0852,34.1942],[-118.0834,34.1948],[-118.0828,34.1956],[-118.0826,34.1956],[-118.0837,34.1957],[-118.0845,34.1964],[-118.0852,34.1966],[-118.0856,34.1969],[-118.0861,34.1971],[-118.0874,34.1972]]]},"properties":{"fire_id":"eat2025","hazard":"High","likelihood":"80-100%","volume_m3":"10,000-100,000"}},{"type":"Feature","geometry":{"type":"Polygon","coordinates":[[[-118.0799,34.196],[-118.0803,34.1957],[-118.0813,34.1956],[-118.0811,34.1949],[-118.0812,34.1938],[-118.0814,34.1932],[-118.0819,34.193],[-118.0816,34.1923],[-118.0816,34.1916],[-118.0819,34.1907],[-118.0817,34.1895],[-118.0819,34.1894],[-118.082,34.1889],[-118.0823,34.1886],[-118.0824,34.1877],[-118.0828,34.1873],[-118.0832,34.1862],[-118.0835,34.1859],[-118.0835,34.1856],[-118.0839,34.1854],[-118.0839,34.1847],[-118.0841,34.1843],[-118.0843,34.1842],[-118.0842,34.1836],[-118.0838,34.1834],[-118.0837,34.1832],[-118.0834,34.1832],[-118.0833,34.1828],[-118.0829,34.1828],[-118.0828,34.183],[-118.0821,34.183],[-118.0816,34.1834],[-118.0811,34.1834],[-118.0803,34.184],[-118.0798,34.184],[-118.0796,34.1843],[-118.0796,34.1847],[-118.0793,34.1851],[-118.0793,34.1854],[-118.079,34.1857],[-118.079,34.1866],[-118.0786,34.1869],[-118.0787,34.1875],[-118.0784,34.1879],[-118.0783,34.1891],[-118.0783,34.1903],[-118.0786,34.1909],[-118.0782,34.1922],[-118.0781,34.1937],[-118.0778,34.1939],[-118.0777,34.1954],[-118.0786,34.196],[-118.0799,34.196]]]},"properties":{"fire_id":"eat2025","hazard":"High","likelihood":"80-100%","volume_m3":"10,000-100,000"}},{"type":"Feature","geometry":{"type":"Polygon","coordinates":[[[-118.0882,34.1851],[-118.0888,34.1845],[-118.0889,34.1843],[-118.0885,34.1834],[-118.0885,34.1829],[-118.0888,34.1826],[-118.0884,34.1826],[-118.0882,34.183],[-118.087,34.183],[-118.087,34.1835],[-118.0873,34.1836],[-118.0871,34.1848],[-118.0882,34.1851]]]},"properties":{"fire_id":"eat2025","hazard":"Moderate","likelihood":"80-100%","volume_m3":"<1,000"}},{"type":"Feature","geometry":{"type":"Polygon","coordinates":[[[-118.0974,34.1841],[-118.0974,34.1832],[-118.097,34.1823],[-118.0971,34.1819],[-118.0966,34.1815],[-118.0959,34.1824],[-118.0958,34.1833],[-118.0961,34.1837],[-118.0967,34.1837],[-118.0968,34.1839],[-118.0974,34.1841]]]},"properties":{"fire_id":"eat2025","hazard":"Moderate","likelihood":"80-100%","volume_m3":"<1,000"}},{"type":"Feature","geometry":{"type":"Polygon","coordinates":[[[-118.0934,34.1862],[-118.0935,34.186],[-118.094,34.1858],[-118.094,34.1854],[-118.0942,34.1853],[-118.0946,34.1844],[-118.0962,34.1838],[-118.0958,34.1833],[-118.0958,34.183],[-118.096,34.1819],[-118.0964,34.1816],[-118.0963,34.1811],[-118.0958,34.1818],[-118.0954,34.1819],[-118.0953,34.1825],[-118.0949,34.1825],[-118.0943,34.183],[-118.0938,34.183],[-118.0938,34.1834],[-118.0936,34.1835],[-118.0933,34.185],[-118.0932,34.1853],[-118.0933,34.1861],[-118.0934,34.1862]]]},"properties":{"fire_id":"eat2025","hazard":"High","likelihood":"80-100%","volume_m3":"1,000-10,000"}},{"type":"Feature","geometry":{"type":"Polygon","coordinates":[[[-118.0943,34.183],[-118.0949,34.1825],[-118.0953,34.1825],[-118.0954,34.1819],[-118.0959,34.1817],[-118.0959,34.1797],[-118.095,34.1798],[-118.0949,34.1801],[-118.095,34.1803],[-118.0952,34.1803],[-118.0951,34.1807],[-118.0938,34.1822],[-118.0938,34.183],[-118.0943,34.183]]]},"properties":{"fire_id":"eat2025","hazard":"Moderate","likelihood":"80-100%","volume_m3":"<1,000"}},{"type":"Feature","geometry":{"type":"Polygon","coordinates":[[[-118.091,34.1819],[-118.0911,34.1817],[-118.0913,34.1817],[-118.0914,34.1814],[-118.092,34.1813],[-118.0924,34.1807],[-118.0923,34.1802],[-118.092,34.1797],[-118.0914,34.1798],[-118.0911,34.1795],[-118.0909,34.1799],[-118.0909,34.1808],[-118.0906,34.1817],[-118.091,34.1819]]]},"properties":{"fire_id":"eat2025","hazard":"Low","likelihood":"20-40%","volume_m3":"<1,000"}},{"type":"Feature","geometry":{"type":"Polygon","coordinates":[[[-118.0924,34.1809],[-118.0927,34.1806],[-118.0931,34.1805],[-118.0931,34.1803],[-118.0933,34.1801],[-118.0933,34.1798],[-118.0938,34.1794],[-118.0939,34.1788],[-118.0937,34.1786],[-118.0942,34.1782],[-118.0942,34.178],[-118.0944,34.178],[-118.0944,34.1778],[-118.0939,34.1779],[-118.0935,34.1782],[-118.0928,34.1781],[-118.0928,34.1791],[-118.0923,34.18],[-118.0924,34.1809]]]},"properties":{"fire_id":"eat2025","hazard":"Moderate","likelihood":"80-100%","volume_m3":"<1,000"}},{"type":"Feature","geometry":{"type":"MultiPolygon","coordinates":[[[[-118.0953,34.1776],[-118.0949,34.1778],[-118.0949,34.1781],[-118.0947,34.1782],[-118.0943,34.1782],[-118.0941,34.1784],[-118.0941,34.1787],[-118.0938,34.179],[-118.0938,34.1794],[-118.0933,34.1798],[-118.0933,34.1801],[-118.0931,34.1803],[-118.093,34.1806],[-118.0927,34.1806],[-118.0924,34.1809],[-118.0922,34.1809],[-118.092,34.1813],[-118.0914,34.1814],[-118.0913,34.1817],[-118.0911,34.1817],[-118.091,34.1819],[-118.0906,34.1818],[-118.0905,34.1819],[-118.0892,34.1822],[-118.089,34.1824],[-118.089,34.1828],[-118.0887,34.1833],[-118.0887,34.1837],[-118.0889,34.1837],[-118.0889,34.1843],[-118.0885,34.1848],[-118.0883,34.1848],[-118.0882,34.1851],[-118.0877,34.1849],[-118.0871,34.185],[-118.087,34.1861],[-118.0865,34.1868],[-118.0865,34.188],[-118.0862,34.1882],[-118.0863,34.1891],[-118.0867,34.1894],[-118.087,34.1906],[-118.0881,34.1895],[-118.0887,34.1894],[-118.0895,34.1886],[-118.0895,34.1884],[-118.09,34.1882],[-118.0901,34.1881],[-118.0907,34.1881],[-118.091,34.1878],[-118.0913,34.1878],[-118.0913,34.1876],[-118.0923,34.1873],[-118.0932,34.1866],[-118.0933,34.1861],[-118.0932,34.1853],[-118.0933,34.185],[-118.0936,34.1835],[-118.0938,34.1834],[-118.0938,34.1822],[-118.0941,34.1818],[-118.0944,34.1817],[-118.0944,34.1815],[-118.0949,34.181],[-118.0949,34.1807],[-118.0952,34.1805],[-118.0949,34.18],[-118.0952,34.1795],[-118.0953,34.1776]]],[[[-118.0955,34.1775],[-118.0953,34.1775],[-118.0953,34.1776],[-118.0955,34.1775]]]]},"properties":{"fire_id":"eat2025","hazard":"High","likelihood":"80-100%","volume_m3":"1,000-10,000"}},{"type":"Feature","geometry":{"type":"Polygon","coordinates":[[[-118.0923,34.1802],[-118.0925,34.1794],[-118.0928,34.1791],[-118.0928,34.178],[-118.0926,34.1779],[-118.0926,34.1777],[-118.0929,34.1776],[-118.0928,34.1771],[-118.0924,34.1769],[-118.0921,34.177],[-118.0921,34.1773],[-118.0919,34.1774],[-118.0918,34.1777],[-118.0914,34.1778],[-118.0913,34.1783],[-118.0909,34.1784],[-118.0909,34.1791],[-118.0913,34.1791],[-118.0913,34.1793],[-118.0915,34.1793],[-118.0916,34.1794],[-118.0916,34.1797],[-118.092,34.1797],[-118.0923,34.1802]]]},"properties":{"fire_id":"eat2025","hazard":"Moderate","likelihood":"60-80%","volume_m3":"<1,000"}},{"type":"Feature","geometry":{"type":"Polygon","coordinates":[[[-118.0623,34.2131],[-118.0633,34.2119],[-118.0635,34.2119],[-118.0637,34.2115],[-118.064,34.2115],[-118.0645,34.211],[-118.0645,34.2108],[-118.0652,34.2103],[-118.0651,34.2095],[-118.0646,34.2085],[-118.0646,34.2071],[-118.0645,34.207],[-118.0645,34.2064],[-118.0641,34.2059],[-118.0636,34.2057],[-118.0636,34.2055],[-118.0634,34.2054],[-118.0634,34.205],[-118.0638,34.2049],[-118.064,34.2044],[-118.0648,34.2037],[-118.0654,34.2035],[-118.0656,34.2032],[-118.0658,34.2032],[-118.066,34.2029],[-118.0667,34.2025],[-118.0663,34.2012],[-118.0658,34.2007],[-118.0658,34.2003],[-118.0656,34.1997],[-118.0655,34.1982],[-118.0646,34.1972],[-118.0643,34.1965],[-118.0635,34.1961],[-118.0632,34.1953],[-118.0629,34.1952],[-118.0626,34.1947],[-118.0624,34.1947],[-118.0624,34.1945],[-118.0614,34.1946],[-118.0608,34.1944],[-118.0596,34.1944],[-118.0591,34.194],[-118.059,34.1937],[-118.0576,34.1932],[-118.0571,34.1923],[-118.0565,34.1918],[-118.0563,34.1914],[-118.0553,34.191],[-118.0549,34.1907],[-118.0546,34.1907],[-118.0545,34.1904],[-118.0538,34.1903],[-118.0537,34.1901],[-118.0527,34.19],[-118.0525,34.1898],[-118.0525,34.1889],[-118.053,34.1873],[-118.053,34.1868],[-118.0528,34.1866],[-118.0529,34.1857],[-118.0523,34.1853],[-118.0523,34.185],[-118.0521,34.1848],[-118.0521,34.1843],[-118.0519,34.184],[-118.0518,34.1829],[-118.051,34.1826],[-118.0508,34.1824],[-118.0508,34.1821],[-118.0505,34.1818],[-118.0496,34.1815],[-118.0489,34.1807],[-118.0487,34.1799],[-118.0483,34.1796],[-118.0483,34.1794],[-118.0472,34.1782],[-118.0467,34.1781],[-118.0458,34.1771],[-118.0455,34.1769],[-118.0445,34.1769],[-118.0436,34.1773],[-118.043,34.1767],[-118.0428,34.1762],[-118.0426,34.1764],[-118.042,34.1764],[-118.0418,34.1761],[-118.0414,34.1761],[-118.0411,34.1757],[-118.0408,34.1757],[-118.0394,34.1771],[-118.0382,34.1777],[-118.0374,34.1786],[-118.0372,34.1794],[-118.0372,34.1804],[-118.0369,34.1807],[-118.0369,34.1814],[-118.0371,34.1816],[-118.0371,34.1819],[-118.0363,34.1826],[-118.0363,34.1845],[-118.036,34.1849],[-118.036,34.1854],[-118.0358,34.1857],[-118.0358,34.186],[-118.0356,34.1861],[-118.0355,34.1866],[-118.0352,34.1868],[-118.0353,34.1872],[-118.035,34.1874],[-118.035,34.1877],[-118.0347,34.1878],[-118.0345,34.1889],[-118.0341,34.1897],[-118.0341,34.1914],[-118.0344,34.1915],[-118.0345,34.1918],[-118.0349,34.1921],[-118.0349,34.1923],[-118.0358,34.1931],[-118.0358,34.1936],[-118.0367,34.194],[-118.037,34.1946],[-118.0373,34.1947],[-118.0374,34.1952],[-118.0378,34.1956],[-118.0387,34.1959],[-118.0392,34.1959],[-118.0396,34.1965],[-118.0396,34.1973],[-118.0399,34.1977],[-118.0399,34.1986],[-118.0397,34.1988],[-118.0398,34.1992],[-118.0395,34.1995],[-118.0393,34.2004],[-118.0391,34.2005],[-118.0391,34.2007],[-118.0389,34.2009],[-118.0389,34.2013],[-118.0395,34.2014],[-118.04,34.2018],[-118.0405,34.2018],[-118.0409,34.2019],[-118.041,34.2021],[-118.0415,34.2021],[-118.042,34.2024],[-118.0433,34.2024],[-118.0435,34.2029],[-118.0443,34.2032],[-118.0445,34.2034],[-118.0458,34.2036],[-118.0464,34.204],[-118.0474,34.2042],[-118.0477,34.2045],[-118.0483,34.2047],[-118.0484,34.205],[-118.049,34.205],[-118.0495,34.2055],[-118.0499,34.2057],[-118.0499,34.2058],[-118.0505,34.2063],[-118.0505,34.2066],[-118.0514,34.2075],[-118.0516,34.2075],[-118.0516,34.2077],[-118.0522,34.2083],[-118.0528,34.2084],[-118.0534,34.2091],[-118.054,34.2093],[-118.0544,34.2096],[-118.0544,34.2098],[-118.0549,34.2101],[-118.0552,34.2105],[-118.0558,34.2105],[-118.0558,34.2107],[-118.0563,34.2107],[-118.0566,34.2111],[-118.0572,34.2112],[-118.0576,34.2116],[-118.0583,34.2119],[-118.0587,34.2119],[-118.0591,34.2123],[-118.0598,34.2125],[-118.0599,34.2128],[-118.0606,34.2129],[-118.0607,34.2131],[-118.0623,34.2131]]]},"properties":{"fire_id":"eat2025","hazard":"High","likelihood":"80-100%","volume_m3":">100,000"}},{"type":"Feature","geometry":{"type":"Polygon","coordinates":[[[-118.066,34.1798],[-118.0667,34.1793],[-118.0674,34.179],[-118.0679,34.1784],[-118.0681,34.1784],[-118.0686,34.1779],[-118.0693,34.1775],[-118.0695,34.1769],[-118.0692,34.1764],[-118.0692,34.1759],[-118.0695,34.1759],[-118.0694,34.1757],[-118.0689,34.1757],[-118.0685,34.1761],[-118.0682,34.1762],[-118.0675,34.1769],[-118.0671,34.1769],[-118.067,34.1773],[-118.0668,34.1776],[-118.0655,34.1786],[-118.0654,34.1793],[-118.066,34.1798]]]},"properties":{"fire_id":"eat2025","hazard":"High","likelihood":"80-100%","volume_m3":"1,000-10,000"}},{"type":"Feature","geometry":{"type":"Polygon","coordinates":[[[-118.0654,34.1792],[-118.0655,34.1786],[-118.0658,34.1782],[-118.0662,34.1782],[-118.0671,34.1771],[-118.0671,34.1769],[-118.0666,34.1765],[-118.0665,34.1759],[-118.0659,34.1755],[-118.0658,34.1751],[-118.0648,34.1759],[-118.0648,34.1764],[-118.0652,34.1774],[-118.065,34.1786],[-118.0652,34.1787],[-118.0654,34.1792]]]},"properties":{"fire_id":"eat2025","hazard":"High","likelihood":"80-100%","volume_m3":"1,000-10,000"}},{"type":"Feature","geometry":{"type":"Polygon","coordinates":[[[-118.056,34.1848],[-118.0564,34.1845],[-118.0564,34.1843],[-118.0566,34.1841],[-118.0568,34.1841],[-118.0574,34.1833],[-118.0576,34.1833],[-118.0578,34.182],[-118.0581,34.1814],[-118.0585,34.1808],[-118.0583,34.1794],[-118.0585,34.179],[-118.0585,34.1785],[-118.0588,34.1783],[-118.0589,34.1779],[-118.0591,34.1778],[-118.0591,34.177],[-118.0593,34.1766],[-118.0595,34.1765],[-118.0595,34.1758],[-118.0594,34.1756],[-118.0586,34.1755],[-118.0583,34.1744],[-118.0582,34.1749],[-118.0577,34.1749],[-118.0575,34.1751],[-118.0577,34.1761],[-118.0572,34.1774],[-118.0572,34.178],[-118.0574,34.1783],[-118.0572,34.1786],[-118.0572,34.1793],[-118.057,34.1796],[-118.057,34.181],[-118.0568,34.1811],[-118.0567,34.1816],[-118.0565,34.1817],[-118.0565,34.1819],[-118.0563,34.1819],[-118.056,34.1824],[-118.056,34.1829],[-118.0558,34.183],[-118.0558,34.1832],[-118.0554,34.1839],[-118.0554,34.1844],[-118.0552,34.1847],[-118.056,34.1848]]]},"properties":{"fire_id":"eat2025","hazard":"High","likelihood":"80-100%","volume_m3":"1,000-10,000"}},{"type":"Feature","geometry":{"type":"Polygon","coordinates":[[[-118.053,34.186],[-118.0531,34.1857],[-118.0538,34.1856],[-118.0539,34.1854],[-118.0544,34.1853],[-118.0553,34.1847],[-118.0554,34.1839],[-118.0558,34.1832],[-118.0558,34.183],[-118.056,34.1829],[-118.056,34.1824],[-118.0563,34.182],[-118.0563,34.1818],[-118.0558,34.1815],[-118.0558,34.181],[-118.0554,34.1809],[-118.0551,34.1803],[-118.0548,34.1802],[-118.0551,34.1791],[-118.0557,34.1783],[-118.0558,34.1764],[-118.0563,34.1754],[-118.0562,34.1744],[-118.0554,34.1743],[-118.055,34.1745],[-118.0549,34.1748],[-118.054,34.1752],[-118.0535,34.1757],[-118.0535,34.1758],[-118.0528,34.1763],[-118.0521,34.177],[-118.0522,34.1782],[-118.0518,34.1787],[-118.0517,34.1797],[-118.0517,34.1806],[-118.052,34.1809],[-118.052,34.1814],[-118.0516,34.1828],[-118.0518,34.1829],[-118.0519,34.184],[-118.0521,34.1843],[-118.0523,34.1853],[-118.0529,34.1857],[-118.053,34.186]]]},"properties":{"fire_id":"eat2025","hazard":"High","likelihood":"80-100%","volume_m3":"10,000-100,000"}},{"type":"Feature","geometry":{"type":"Polygon","coordinates":[[[-118.0565,34.1819],[-118.0568,34.1811],[-118.057,34.181],[-118.057,34.1796],[-118.0572,34.1793],[-118.0572,34.1786],[-118.0574,34.1783],[-118.0572,34.178],[-118.0572,34.1774],[-118.0573,34.1769],[-118.0576,34.1766],[-118.0577,34.1759],[-118.057,34.1755],[-118.0569,34.1747],[-118.0564,34.1742],[-118.0565,34.1749],[-118.0563,34.175],[-118.0563,34.1754],[-118.0558,34.1764],[-118.0557,34.1783],[-118.0551,34.1791],[-118.0548,34.1802],[-118.0551,34.1803],[-118.0554,34.1809],[-118.0558,34.181],[-118.0558,34.1815],[-118.0565,34.1819]]]},"properties":{"fire_id":"eat2025","hazard":"High","likelihood":"80-100%","volume_m3":"1,000-10,000"}},{"type":"Feature","geometry":{"type":"Polygon","coordinates":[[[-118.0516,34.1828],[-118.052,34.1814],[-118.052,34.1809],[-118.0517,34.1806],[-118.0518,34.1787],[-118.0522,34.1782],[-118.0521,34.177],[-118.0523,34.1768],[-118.0525,34.1768],[-118.0527,34.1764],[-118.0523,34.1761],[-118.0519,34.176],[-118.0519,34.1755],[-118.0514,34.175],[-118.0507,34.1748],[-118.05,34.1744],[-118.05,34.1742],[-118.0498,34.1742],[-118.0495,34.1737],[-118.0486,34.1737],[-118.0483,34.1742],[-118.0483,34.1752],[-118.0479,34.1753],[-118.0471,34.1759],[-118.0472,34.1765],[-118.0481,34.1766],[-118.0487,34.1769],[-118.0486,34.1772],[-118.0479,34.1781],[-118.0477,34.1789],[-118.0487,34.1799],[-118.0487,34.1803],[-118.049,34.1808],[-118.0496,34.1815],[-118.0505,34.1818],[-118.0508,34.1821],[-118.0508,34.1824],[-118.051,34.1826],[-118.0516,34.1828]]]},"properties":{"fire_id":"eat2025","hazard":"High","likelihood":"80-100%","volume_m3":"1,000-10,000"}},{"type":"Feature","geometry":{"type":"Polygon","coordinates":[[[-118.0619,34.1946],[-118.0623,34.1945],[-118.0626,34.1934],[-118.0628,34.1932],[-118.0628,34.1928],[-118.064,34.1915],[-118.0637,34.1907],[-118.0629,34.1902],[-118.0628,34.1895],[-118.063,34.1886],[-118.063,34.1875],[-118.0632,34.1872],[-118.063,34.1853],[-118.0632,34.1851],[-118.0632,34.1843],[-118.0633,34.1841],[-118.0636,34.1829],[-118.0638,34.1827],[-118.0642,34.1827],[-118.0643,34.1825],[-118.0645,34.1825],[-118.0645,34.1823],[-118.0647,34.1822],[-118.0646,34.1818],[-118.0658,34.1807],[-118.0659,34.1797],[-118.0653,34.1792],[-118.0653,34.1789],[-118.065,34.1786],[-118.0652,34.1774],[-118.0648,34.1764],[-118.0648,34.1759],[-118.0638,34.1751],[-118.0629,34.1748],[-118.0621,34.1748],[-118.0621,34.1744],[-118.062,34.1744],[-118.0619,34.173],[-118.0615,34.1727],[-118.0614,34.1723],[-118.0611,34.1727],[-118.0605,34.173],[-118.0605,34.1732],[-118.0603,34.1732],[-118.0603,34.1736],[-118.0596,34.1742],[-118.0599,34.1751],[-118.0595,34.1754],[-118.0595,34.1762],[-118.0591,34.177],[-118.0591,34.1778],[-118.0589,34.1779],[-118.0588,34.1783],[-118.0585,34.1785],[-118.0585,34.179],[-118.0583,34.1794],[-118.0585,34.1808],[-118.0581,34.1814],[-118.0578,34.182],[-118.0576,34.1833],[-118.0574,34.1833],[-118.0568,34.1841],[-118.0566,34.1841],[-118.0562,34.1847],[-118.0551,34.1848],[-118.0544,34.1853],[-118.0539,34.1854],[-118.0538,34.1856],[-118.053,34.1858],[-118.0528,34.1866],[-118.053,34.1868],[-118.053,34.1873],[-118.0528,34.1881],[-118.0526,34.1882],[-118.0525,34.1898],[-118.0527,34.19],[-118.0537,34.1901],[-118.0538,34.1903],[-118.0545,34.1904],[-118.0546,34.1907],[-118.0549,34.1907],[-118.0553,34.191],[-118.0563,34.1914],[-118.0565,34.1918],[-118.0571,34.1923],[-118.0576,34.1932],[-118.059,34.1937],[-118.0595,34.1944],[-118.0619,34.1946]]]},"properties":{"fire_id":"eat2025","hazard":"High","likelihood":"80-100%","volume_m3":"10,000-100,000"}},{"type":"Feature","geometry":{"type":"Polygon","coordinates":[[[-118.0631,34.1749],[-118.0631,34.1747],[-118.0629,34.1746],[-118.0629,34.1732],[-118.0625,34.173],[-118.0624,34.1722],[-118.062,34.1719],[-118.0618,34.1719],[-118.0618,34.1721],[-118.0615,34.1723],[-118.0615,34.1727],[-118.0619,34.173],[-118.062,34.1744],[-118.0621,34.1744],[-118.0621,34.1748],[-118.0631,34.1749]]]},"properties":{"fire_id":"eat2025","hazard":"Low","likelihood":"20-40%","volume_m3":"<1,000"}},{"type":"Feature","geometry":{"type":"Polygon","coordinates":[[[-118.0528,34.1764],[-118.0533,34.176],[-118.0533,34.1746],[-118.0534,34.1741],[-118.0537,34.174],[-118.0537,34.1732],[-118.0533,34.173],[-118.0533,34.1726],[-118.0531,34.1725],[-118.0529,34.1719],[-118.0527,34.172],[-118.0527,34.1722],[-118.0524,34.1722],[-118.0516,34.1714],[-118.0515,34.1719],[-118.052,34.1728],[-118.052,34.1738],[-118.0521,34.1739],[-118.052,34.1751],[-118.0518,34.1754],[-118.0519,34.176],[-118.0528,34.1764]]]},"properties":{"fire_id":"eat2025","hazard":"High","likelihood":"80-100%","volume_m3":"1,000-10,000"}},{"type":"Feature","geometry":{"type":"Polygon","coordinates":[[[-118.0668,34.2024],[-118.0677,34.202],[-118.0692,34.2021],[-118.0716,34.2019],[-118.0723,34.2023],[-118.0728,34.2023],[-118.0738,34.202],[-118.0739,34.2019],[-118.0744,34.2017],[-118.0745,34.2012],[-118.0749,34.2011],[-118.0749,34.2003],[-118.0754,34.1999],[-118.0758,34.199],[-118.0763,34.1986],[-118.0764,34.1973],[-118.0781,34.1959],[-118.0781,34.1957],[-118.0777,34.1954],[-118.0777,34.1945],[-118.0778,34.1939],[-118.0781,34.1937],[-118.0782,34.1922],[-118.0786,34.1909],[-118.0783,34.1903],[-118.0784,34.1879],[-118.0787,34.1875],[-118.0786,34.1869],[-118.079,34.1866],[-118.0791,34.1855],[-118.0796,34.1847],[-118.0796,34.1843],[-118.0799,34.184],[-118.0797,34.1832],[-118.0799,34.1828],[-118.0799,34.182],[-118.0801,34.1819],[-118.0802,34.1807],[-118.08,34.1807],[-118.0799,34.1801],[-118.08,34.1795],[-118.0798,34.1788],[-118.0798,34.1775],[-118.0796,34.1772],[-118.0796,34.1767],[-118.0795,34.1766],[-118.0795,34.176],[-118.0792,34.1757],[-118.079,34.175],[-118.0787,34.1748],[-118.0787,34.1745],[-118.0784,34.1744],[-118.0782,34.1739],[-118.0782,34.1735],[-118.0786,34.1731],[-118.0786,34.1727],[-118.0789,34.1727],[-118.0789,34.1721],[-118.0784,34.1715],[-118.0779,34.1711],[-118.077,34.1711],[-118.0768,34.1708],[-118.0762,34.1707],[-118.0757,34.1716],[-118.0752,34.1718],[-118.0752,34.1719],[-118.0748,34.1723],[-118.0747,34.1729],[-118.0745,34.173],[-118.0738,34.1736],[-118.0737,34.1739],[-118.0724,34.1744],[-118.0729,34.1753],[-118.0724,34.1753],[-118.0711,34.1764],[-118.0708,34.1763],[-118.0703,34.1768],[-118.0695,34.1769],[-118.0691,34.1777],[-118.0679,34.1784],[-118.0674,34.179],[-118.0661,34.1796],[-118.0659,34.1798],[-118.0659,34.1801],[-118.0658,34.1802],[-118.0658,34.1807],[-118.0646,34.1818],[-118.0647,34.1822],[-118.0645,34.1823],[-118.0645,34.1825],[-118.0638,34.1827],[-118.0635,34.1831],[-118.0633,34.1841],[-118.0632,34.1843],[-118.0632,34.1851],[-118.063,34.1853],[-118.0632,34.1872],[-118.063,34.1875],[-118.063,34.1886],[-118.0628,34.1895],[-118.0629,34.1902],[-118.0637,34.1907],[-118.064,34.1915],[-118.0628,34.1928],[-118.0628,34.1932],[-118.0626,34.1934],[-118.0623,34.1945],[-118.063,34.1953],[-118.0632,34.1953],[-118.0636,34.1962],[-118.0643,34.1965],[-118.0646,34.1972],[-118.0655,34.1982],[-118.0656,34.1997],[-118.0658,34.2003],[-118.0658,34.2007],[-118.0663,34.2012],[-118.0666,34.2023],[-118.0668,34.2024]]]},"properties":{"fire_id":"eat2025","hazard":"High","likelihood":"80-100%","volume_m3":"10,000-100,000"}}]}