{"type":"FeatureCollection","features":[{"type":"Feature","geometry":{"type":"Polygon","coordinates":[[[-118.25092,34.24483],[-118.26977,34.25002],[-118.25092,34.25],[-118.25092,34.24483]]]},"properties":{"QUAD_NAME":"Burbank"}},{"type":"Feature","geometry":{"type":"Polygon","coordinates":[[[-118.27164,34.11718],[-118.26589,34.11726],[-118.26194,34.11707],[-118.25706,34.11657],[-118.2527,34.11671],[-118.25267,34.11794],[-118.25089,34.11924],[-118.2509,34.11391],[-118.25684,34.1138],[-118.26353,34.1145],[-118.2721,34.11449],[-118.2766,34.11263],[-118.27661,34.11264],[-118.27662,34.11265],[-118.27663,34.11266],[-118.27664,34.11267],[-118.27665,34.11268],[-118.27665,34.11269],[-118.27666,34.1127],[-118.27667,34.11271],[-118.27668,34.11272],[-118.27669,34.11272],[-118.2767,34.11274],[-118.27671,34.11275],[-118.27672,34.11276],[-118.27673,34.11277],[-118.27674,34.11278],[-118.27675,34.11279],[-118.27675,34.1128],[-118.27676,34.11281],[-118.27677,34.11282],[-118.27678,34.11283],[-118.27679,34.11284],[-118.2768,34.11285],[-118.2768,34.11286],[-118.27681,34.11287],[-118.27682,34.11288],[-118.27683,34.11289],[-118.27684,34.1129],[-118.27685,34.11292],[-118.27686,34.11292],[-118.27687,34.11293],[-118.27688,34.11294],[-118.27689,34.11295],[-118.27689,34.11296],[-118.2769,34.11297],[-118.27691,34.11298],[-118.27692,34.11299],[-118.27693,34.113],[-118.27694,34.11301],[-118.27694,34.11302],[-118.27695,34.11303],[-118.27696,34.11304],[-118.27697,34.11305],[-118.27698,34.11306],[-118.27698,34.11307],[-118.27699,34.11308],[-118.277,34.11309],[-118.27701,34.1131],[-118.27702,34.1131],[-118.27703,34.11312],[-118.27704,34.11312],[-118.27704,34.11313],[-118.27705,34.11314],[-118.27706,34.11315],[-118.27707,34.11316],[-118.27708,34.11317],[-118.27708,34.11318],[-118.27709,34.11319],[-118.2771,34.1132],[-118.27711,34.11321],[-118.27712,34.11322],[-118.27713,34.11323],[-118.27713,34.11324],[-118.27714,34.11325],[-118.27715,34.11326],[-118.27716,34.11327],[-118.27717,34.11328],[-118.27717,34.11329],[-118.27718,34.1133],[-118.27719,34.11331],[-118.2772,34.11332],[-118.27721,34.11332],[-118.27722,34.11333],[-118.27722,34.11335],[-118.27723,34.11335],[-118.27724,34.11336],[-118.27725,34.11337],[-118.27726,34.11338],[-118.27726,34.11339],[-118.27727,34.1134],[-118.27728,34.11341],[-118.27729,34.11342],[-118.2773,34.11343],[-118.27731,34.11344],[-118.27731,34.11345],[-118.27732,34.11346],[-118.27733,34.11347],[-118.27734,34.11348],[-118.27735,34.11349],[-118.27736,34.1135],[-118.27736,34.11351],[-118.27737,34.11352],[-118.27738,34.11353],[-118.27739,34.11354],[-118.2774,34.11355],[-118.27741,34.11357],[-118.27742,34.11357],[-118.27743,34.11358],[-118.27744,34.11359],[-118.27744,34.1136],[-118.27745,34.11361],[-118.27746,34.11362],[-118.27747,34.11363],[-118.27748,34.11364],[-118.27748,34.11365],[-118.27749,34.11366],[-118.2775,34.11367],[-118.27751,34.11368],[-118.27752,34.11369],[-118.27752,34.1137],[-118.27753,34.11371],[-118.27754,34.11372],[-118.27755,34.11373],[-118.27756,34.11374],[-118.27757,34.11375],[-118.27757,34.11376],[-118.27758,34.11377],[-118.27759,34.11378],[-118.2776,34.11379],[-118.27761,34.1138],[-118.27761,34.11381],[-118.27762,34.11382],[-118.27763,34.11382],[-118.27764,34.11384],[-118.27765,34.11384],[-118.27765,34.11385],[-118.27766,34.11386],[-118.27767,34.11387],[-118.27768,34.11388],[-118.27769,34.11389],[-118.27769,34.1139],[-118.2777,34.11391],[-118.27771,34.11392],[-118.27772,34.11393],[-118.27773,34.11394],[-118.27773,34.11395],[-118.27774,34.11396],[-118.27775,34.11397],[-118.27776,34.11398],[-118.27777,34.11399],[-118.27777,34.114],[-118.27778,34.11401],[-118.27779,34.11402],[-118.2778,34.11403],[-118.27781,34.11404],[-118.27781,34.11405],[-118.27782,34.11406],[-118.27783,34.11407],[-118.27784,34.11408],[-118.27785,34.11409],[-118.27785,34.1141],[-118.27786,34.11411],[-118.27787,34.11411],[-118.27788,34.11413],[-118.27789,34.11413],[-118.27789,34.11414],[-118.2779,34.11415],[-118.27791,34.11416],[-118.27792,34.11417],[-118.27793,34.11418],[-118.27793,34.11419],[-118.27794,34.1142],[-118.27795,34.11421],[-118.27796,34.11422],[-118.27796,34.11423],[-118.27797,34.11424],[-118.27798,34.11425],[-118.27799,34.11426],[-118.278,34.11427],[-118.278,34.11428],[-118.27801,34.11429],[-118.27802,34.1143],[-118.27803,34.11431],[-118.27804,34.11432],[-118.27804,34.11433],[-118.27805,34.11434],[-118.27806,34.11435],[-118.27807,34.11436],[-118.27808,34.11437],[-118.27808,34.11438],[-118.27809,34.11439],[-118.2781,34.1144],[-118.27811,34.11441],[-118.27811,34.11442],[-118.27812,34.11443],[-118.27813,34.11444],[-118.27814,34.11445],[-118.27815,34.11446],[-118.27815,34.11447],[-118.27816,34.11448],[-118.27817,34.11449],[-118.27818,34.11449],[-118.27819,34.11451],[-118.2782,34.11453],[-118.27821,34.11453],[-118.27822,34.11454],[-118.27823,34.11455],[-118.27823,34.11456],[-118.27824,34.11457],[-118.27825,34.11458],[-118.27826,34.11459],[-118.27826,34.1146],[-118.27827,34.11461],[-118.27828,34.11462],[-118.27829,34.11463],[-118.2783,34.11464],[-118.2783,34.11465],[-118.27831,34.11466],[-118.27832,34.11467],[-118.27833,34.11468],[-118.27833,34.11469],[-118.27834,34.1147],[-118.27835,34.11471],[-118.27836,34.11472],[-118.27837,34.11473],[-118.27837,34.11474],[-118.27838,34.11475],[-118.27839,34.11476],[-118.2784,34.11477],[-118.27841,34.11478],[-118.27841,34.11479],[-118.27842,34.1148],[-118.27843,34.11481],[-118.27844,34.11482],[-118.27844,34.11483],[-118.27845,34.11484],[-118.27846,34.11485],[-118.27847,34.11486],[-118.27848,34.11487],[-118.27848,34.11488],[-118.27849,34.11489],[-118.2785,34.1149],[-118.27851,34.11491],[-118.27851,34.11492],[-118.27852,34.11493],[-118.27853,34.11494],[-118.27854,34.11495],[-118.27854,34.11496],[-118.27855,34.11497],[-118.27856,34.11498],[-118.27857,34.11499],[-118.27858,34.115],[-118.27859,34.11502],[-118.2786,34.11502],[-118.27861,34.11503],[-118.27861,34.11505],[-118.27862,34.11505],[-118.27863,34.11507],[-118.27864,34.11507],[-118.27864,34.11508],[-118.27865,34.11509],[-118.27866,34.1151],[-118.27867,34.11511],[-118.27868,34.11512],[-118.27868,34.11513],[-118.27869,34.11514],[-118.2787,34.11515],[-118.27871,34.11516],[-118.27871,34.11517],[-118.27872,34.11518],[-118.27873,34.11519],[-118.27874,34.1152],[-118.27874,34.11521],[-118.27875,34.11522],[-118.27876,34.11523],[-118.27877,34.11524],[-118.27886,34.11536],[-118.27912,34.11571],[-118.27706,34.11598],[-118.27164,34.11718]]]},"properties":{"QUAD_NAME":"Hollywood"}},{"type":"Feature","geometry":{"type":"Polygon","coordinates":[[[-118.21649,34.12083],[-118.21933,34.12067],[-118.2334,34.11673],[-118.23451,34.11536],[-118.24504,34.11402],[-118.25092,34.11387],[-118.25091,34.11927],[-118.24365,34.11913],[-118.23775,34.1187],[-118.23482,34.11922],[-118.22783,34.1212],[-118.21989,34.12378],[-118.21763,34.12378],[-118.21252,34.12293],[-118.2127,34.12277],[-118.21428,34.12161],[-118.21446,34.1215],[-118.21465,34.12096],[-118.21493,34.12037],[-118.215,34.12056],[-118.21649,34.12083]]]},"properties":{"QUAD_NAME":"Los Angeles"}},{"type":"Feature","geometry":{"type":"Polygon","coordinates":[[[-118.2707,34.25408],[-118.25766,34.25215],[-118.25092,34.25],[-118.26977,34.25002],[-118.27706,34.25314],[-118.28558,34.25964],[-118.28554,34.25971],[-118.28439,34.2612],[-118.28356,34.26207],[-118.2832,34.26255],[-118.28191,34.26395],[-118.28121,34.26457],[-118.27809,34.25974],[-118.2707,34.25408]]]},"properties":{"QUAD_NAME":"Sunland"}},{"type":"Feature","geometry":{"type":"MultiPolygon","coordinates":[[[[-118.20763,34.2212],[-118.21244,34.22425],[-118.21129,34.22414],[-118.20918,34.22375],[-118.20713,34.22318],[-118.20515,34.22245],[-118.20327,34.22156],[-118.20151,34.22053],[-118.19988,34.21935],[-118.1991,34.21865],[-118.20035,34.21888],[-118.20495,34.22114],[-118.20763,34.2212]]],[[[-118.23348,34.24018],[-118.23008,34.24168],[-118.22848,34.24141],[-118.22737,34.23828],[-118.22604,34.2381],[-118.22504,34.23759],[-118.22489,34.23736],[-118.22543,34.23662],[-118.22669,34.23522],[-118.22675,34.23516],[-118.22689,34.235],[-118.2269,34.23398],[-118.22691,34.2322],[-118.22691,34.23214],[-118.22654,34.23192],[-118.22607,34.23161],[-118.2245,34.23049],[-118.22307,34.22926],[-118.22179,34.22791],[-118.22168,34.22777],[-118.22221,34.22785],[-118.22464,34.22953],[-118.22614,34.23127],[-118.22815,34.23213],[-118.22913,34.23441],[-118.23066,34.23624],[-118.23067,34.2381],[-118.23204,34.23769],[-118.23426,34.23585],[-118.23838,34.23584],[-118.24105,34.23756],[-118.24207,34.24029],[-118.24513,34.24338],[-118.24728,34.24304],[-118.25092,34.24421],[-118.25092,34.2469],[-118.25092,34.24926],[-118.25092,34.25],[-118.24721,34.24589],[-118.24462,34.24661],[-118.24053,34.24395],[-118.23499,34.2435],[-118.23348,34.24018]]]]},"properties":{"QUAD_NAME":"Pasadena"}}]}