{"type":"FeatureCollection","features":[{"type":"Feature","geometry":{"type":"Polygon","coordinates":[[[-118.25656,34.25669],[-118.25663,34.26245],[-118.25669,34.26723],[-118.25333,34.2672],[-118.2476,34.26715],[-118.24174,34.26709],[-118.2385,34.26706],[-118.23854,34.26494],[-118.23856,34.26331],[-118.23862,34.26013],[-118.23866,34.25758],[-118.23871,34.25492],[-118.23875,34.25226],[-118.24343,34.25231],[-118.24343,34.2514],[-118.24344,34.24967],[-118.24346,34.24892],[-118.24346,34.24797],[-118.24347,34.24701],[-118.24348,34.24665],[-118.24368,34.2467],[-118.2438,34.24667],[-118.24378,34.2465],[-118.24414,34.24604],[-118.24417,34.24591],[-118.24455,34.24596],[-118.24537,34.24638],[-118.24563,34.246],[-118.24598,34.24535],[-118.24598,34.24534],[-118.24599,34.24534],[-118.24599,34.24533],[-118.24599,34.24532],[-118.24599,34.24531],[-118.246,34.24531],[-118.246,34.2453],[-118.246,34.24529],[-118.24601,34.24529],[-118.24601,34.24528],[-118.24601,34.24527],[-118.24601,34.24526],[-118.24602,34.24526],[-118.24602,34.24525],[-118.24602,34.24524],[-118.24602,34.24523],[-118.24603,34.24523],[-118.24603,34.24522],[-118.24603,34.24521],[-118.24603,34.2452],[-118.24603,34.24519],[-118.24603,34.24518],[-118.24604,34.24517],[-118.24604,34.24516],[-118.24604,34.24515],[-118.24604,34.24514],[-118.24604,34.24513],[-118.24604,34.24512],[-118.24604,34.24511],[-118.24607,34.24518],[-118.24631,34.24522],[-118.24634,34.24523],[-118.24642,34.24504],[-118.24658,34.24466],[-118.24665,34.24449],[-118.2468,34.24446],[-118.24681,34.24446],[-118.24682,34.24446],[-118.24683,34.24446],[-118.24684,34.24446],[-118.24684,34.24445],[-118.24685,34.24445],[-118.24686,34.24445],[-118.24687,34.24445],[-118.24687,34.24444],[-118.24688,34.24444],[-118.24689,34.24444],[-118.24689,34.24443],[-118.2469,34.24443],[-118.24691,34.24443],[-118.24691,34.24442],[-118.24692,34.24442],[-118.24692,34.24441],[-118.24693,34.24441],[-118.24694,34.24441],[-118.24694,34.2444],[-118.24695,34.2444],[-118.24695,34.24439],[-118.24696,34.24439],[-118.24696,34.24438],[-118.24697,34.24438],[-118.24697,34.24437],[-118.24698,34.24437],[-118.24698,34.24436],[-118.24698,34.24435],[-118.24699,34.24435],[-118.24699,34.24434],[-118.247,34.24434],[-118.247,34.24433],[-118.247,34.24432],[-118.24701,34.24432],[-118.24701,34.24431],[-118.24701,34.2443],[-118.24702,34.2443],[-118.24702,34.24429],[-118.24702,34.24428],[-118.24702,34.24427],[-118.24702,34.24426],[-118.24702,34.24425],[-118.24702,34.24424],[-118.24702,34.24423],[-118.24702,34.24422],[-118.24702,34.24421],[-118.24702,34.2442],[-118.24702,34.24419],[-118.24702,34.24418],[-118.24702,34.24417],[-118.24702,34.24416],[-118.24702,34.24415],[-118.24702,34.24414],[-118.24702,34.24413],[-118.24702,34.24412],[-118.24702,34.24411],[-118.24702,34.2441],[-118.24702,34.24409],[-118.24702,34.24408],[-118.24703,34.24408],[-118.24703,34.24407],[-118.24703,34.24406],[-118.24703,34.24405],[-118.24703,34.24404],[-118.24704,34.24404],[-118.24704,34.24403],[-118.24704,34.24402],[-118.24724,34.24409],[-118.24751,34.24419],[-118.24772,34.24378],[-118.24848,34.24406],[-118.24849,34.24398],[-118.24858,34.24398],[-118.24859,34.24354],[-118.2486,34.24131],[-118.24861,34.23946],[-118.24862,34.23765],[-118.24864,34.23407],[-118.24865,34.23229],[-118.24866,34.2308],[-118.24868,34.22957],[-118.24868,34.22858],[-118.24869,34.2273],[-118.2487,34.22568],[-118.24871,34.22426],[-118.24873,34.22224],[-118.24859,34.22224],[-118.24845,34.22225],[-118.24755,34.22187],[-118.24736,34.22179],[-118.24664,34.22148],[-118.24655,34.22143],[-118.2465,34.22141],[-118.24577,34.22113],[-118.24447,34.22043],[-118.24434,34.22043],[-118.24435,34.2187],[-118.24403,34.2185],[-118.24394,34.2186],[-118.24374,34.21883],[-118.2436,34.21875],[-118.24355,34.21872],[-118.24347,34.21867],[-118.24348,34.21899],[-118.24348,34.21902],[-118.24348,34.21906],[-118.24234,34.21836],[-118.24195,34.21811],[-118.24192,34.2181],[-118.24173,34.21798],[-118.24151,34.21784],[-118.24147,34.21781],[-118.24129,34.2177],[-118.24107,34.21757],[-118.24086,34.21744],[-118.24065,34.2173],[-118.24041,34.21716],[-118.24041,34.21699],[-118.2401,34.21679],[-118.23997,34.21679],[-118.23996,34.21777],[-118.23949,34.21746],[-118.23955,34.2174],[-118.23955,34.21728],[-118.23955,34.21708],[-118.23955,34.21692],[-118.23955,34.21661],[-118.23933,34.21648],[-118.23931,34.21646],[-118.23912,34.21634],[-118.2389,34.21621],[-118.23868,34.21607],[-118.23848,34.21595],[-118.23847,34.21595],[-118.23803,34.21569],[-118.23781,34.21555],[-118.23759,34.21542],[-118.2376,34.21468],[-118.2376,34.21451],[-118.23522,34.21303],[-118.23525,34.21046],[-118.23526,34.20914],[-118.23516,34.20908],[-118.23501,34.20898],[-118.23487,34.2089],[-118.23474,34.20882],[-118.2346,34.20873],[-118.23447,34.20865],[-118.23434,34.20857],[-118.23421,34.20849],[-118.23408,34.20841],[-118.23394,34.20833],[-118.23381,34.20825],[-118.23374,34.2082],[-118.23368,34.20816],[-118.23359,34.20811],[-118.23354,34.20808],[-118.23341,34.208],[-118.23328,34.20792],[-118.23325,34.2079],[-118.23318,34.20788],[-118.23318,34.20797],[-118.2331,34.20799],[-118.23259,34.20812],[-118.23259,34.20826],[-118.23248,34.20828],[-118.23227,34.20834],[-118.232,34.20781],[-118.23194,34.20758],[-118.23153,34.20735],[-118.2314,34.20731],[-118.23126,34.20726],[-118.23113,34.20721],[-118.23099,34.20716],[-118.23098,34.20719],[-118.23094,34.20726],[-118.23079,34.20756],[-118.23074,34.20765],[-118.2306,34.20759],[-118.23065,34.2075],[-118.23085,34.20711],[-118.23072,34.20706],[-118.23043,34.20696],[-118.23028,34.2069],[-118.23013,34.20684],[-118.22969,34.20668],[-118.22949,34.20705],[-118.22944,34.20714],[-118.22913,34.20703],[-118.22917,34.20694],[-118.22937,34.20657],[-118.22892,34.2064],[-118.22891,34.20642],[-118.22871,34.20679],[-118.22867,34.20688],[-118.22836,34.20678],[-118.2284,34.2067],[-118.22861,34.20631],[-118.22861,34.20629],[-118.22846,34.20624],[-118.22831,34.20618],[-118.22814,34.20616],[-118.2279,34.206],[-118.22765,34.20597],[-118.2275,34.20647],[-118.22748,34.20657],[-118.22741,34.20655],[-118.22733,34.20654],[-118.22725,34.20652],[-118.22714,34.20651],[-118.22703,34.20649],[-118.22692,34.20648],[-118.22678,34.20646],[-118.22666,34.20645],[-118.22652,34.20644],[-118.22644,34.20643],[-118.22637,34.20643],[-118.22623,34.20643],[-118.2261,34.20642],[-118.22599,34.20642],[-118.22588,34.20642],[-118.22577,34.20643],[-118.22567,34.20643],[-118.2256,34.20643],[-118.22558,34.20643],[-118.2256,34.20634],[-118.22572,34.20575],[-118.22513,34.20566],[-118.2247,34.20578],[-118.22435,34.20574],[-118.22418,34.20571],[-118.22422,34.20558],[-118.22411,34.20556],[-118.22401,34.20555],[-118.22385,34.20553],[-118.22352,34.20548],[-118.2234,34.20546],[-118.22341,34.20554],[-118.22343,34.20563],[-118.22343,34.20572],[-118.22343,34.20582],[-118.22342,34.20591],[-118.22341,34.206],[-118.2233,34.20597],[-118.2226,34.20577],[-118.22251,34.20575],[-118.22241,34.20572],[-118.22231,34.20571],[-118.22221,34.20569],[-118.2221,34.20569],[-118.2221,34.20577],[-118.2221,34.20618],[-118.22185,34.20614],[-118.22116,34.20612],[-118.22073,34.20632],[-118.22028,34.20631],[-118.22028,34.20555],[-118.22028,34.20544],[-118.22028,34.20503],[-118.22018,34.20505],[-118.22011,34.20507],[-118.22,34.2051],[-118.21964,34.20519],[-118.21951,34.20523],[-118.21942,34.20526],[-118.21922,34.20533],[-118.21901,34.20539],[-118.21881,34.20545],[-118.2186,34.20549],[-118.21838,34.20554],[-118.21817,34.20558],[-118.21796,34.20561],[-118.21774,34.20563],[-118.21752,34.20565],[-118.21656,34.20573],[-118.21658,34.20587],[-118.2163,34.20604],[-118.21593,34.20615],[-118.21579,34.20619],[-118.21575,34.20619],[-118.21575,34.2062],[-118.21508,34.20639],[-118.215,34.20642],[-118.21499,34.20569],[-118.21498,34.20569],[-118.21498,34.20554],[-118.21499,34.20489],[-118.215,34.20354],[-118.2155,34.20354],[-118.21564,34.20334],[-118.21571,34.20325],[-118.21769,34.20295],[-118.21769,34.20258],[-118.21769,34.20255],[-118.21769,34.20252],[-118.21769,34.20246],[-118.2177,34.20194],[-118.2177,34.20115],[-118.21722,34.20098],[-118.21701,34.20047],[-118.21691,34.19951],[-118.2169,34.19936],[-118.21673,34.19779],[-118.21535,34.19728],[-118.21462,34.1962],[-118.21287,34.19537],[-118.2127,34.19508],[-118.21346,34.19409],[-118.21338,34.19402],[-118.21305,34.19366],[-118.21276,34.19333],[-118.21225,34.19276],[-118.2111,34.19282],[-118.21107,34.1928],[-118.21106,34.19279],[-118.2109,34.19268],[-118.21045,34.19239],[-118.2098,34.19194],[-118.20893,34.19131],[-118.20881,34.19123],[-118.20869,34.19115],[-118.20825,34.19082],[-118.20824,34.19082],[-118.20806,34.19069],[-118.20798,34.19031],[-118.20797,34.19029],[-118.20793,34.19012],[-118.2078,34.18931],[-118.20795,34.18853],[-118.20796,34.18846],[-118.20812,34.18758],[-118.20749,34.1874],[-118.2065,34.18711],[-118.20599,34.18697],[-118.20585,34.18692],[-118.20575,34.18682],[-118.20519,34.18619],[-118.20488,34.18585],[-118.20476,34.18572],[-118.20473,34.18567],[-118.20412,34.18526],[-118.20355,34.18488],[-118.20343,34.1848],[-118.20324,34.18468],[-118.20245,34.18415],[-118.20232,34.18406],[-118.20214,34.18394],[-118.20157,34.18356],[-118.20124,34.18334],[-118.20111,34.18326],[-118.20098,34.18317],[-118.2008,34.18305],[-118.20073,34.183],[-118.20031,34.18272],[-118.20028,34.1827],[-118.19993,34.18247],[-118.1991,34.18194],[-118.19875,34.1817],[-118.19835,34.18143],[-118.1982,34.18132],[-118.19799,34.18115],[-118.19793,34.1811],[-118.19781,34.181],[-118.19722,34.18054],[-118.19709,34.18044],[-118.19705,34.18041],[-118.19668,34.18011],[-118.19653,34.17999],[-118.1965,34.17997],[-118.19643,34.17991],[-118.1959,34.17998],[-118.19527,34.18006],[-118.19516,34.18008],[-118.19502,34.1801],[-118.19483,34.18012],[-118.19482,34.18012],[-118.19418,34.1802],[-118.19417,34.1802],[-118.19341,34.1803],[-118.19338,34.18031],[-118.19331,34.18032],[-118.19276,34.18039],[-118.19271,34.18039],[-118.19261,34.18041],[-118.19236,34.18044],[-118.19226,34.18023],[-118.19174,34.18027],[-118.19173,34.18028],[-118.19141,34.18021],[-118.19119,34.18016],[-118.1911,34.18014],[-118.19083,34.18008],[-118.19071,34.17994],[-118.19069,34.17993],[-118.19055,34.17977],[-118.19047,34.17967],[-118.19029,34.17948],[-118.19028,34.17946],[-118.19012,34.17927],[-118.1901,34.17925],[-118.19004,34.17919],[-118.18993,34.17926],[-118.18952,34.17908],[-118.18952,34.17906],[-118.1895,34.17902],[-118.18948,34.17898],[-118.18944,34.17893],[-118.1894,34.17887],[-118.18936,34.17881],[-118.18932,34.17876],[-118.18927,34.17872],[-118.18923,34.17869],[-118.18922,34.17868],[-118.18916,34.17863],[-118.1891,34.17859],[-118.18903,34.17854],[-118.18901,34.17853],[-118.18931,34.17835],[-118.18919,34.17822],[-118.1889,34.17788],[-118.18933,34.1769],[-118.18955,34.17641],[-118.18988,34.17566],[-118.19012,34.17514],[-118.19038,34.17456],[-118.19049,34.17429],[-118.19098,34.17319],[-118.19083,34.17229],[-118.1908,34.17216],[-118.1908,34.17214],[-118.19078,34.172],[-118.19073,34.17174],[-118.19049,34.17032],[-118.19028,34.16996],[-118.18994,34.16938],[-118.1899,34.1693],[-118.18978,34.1691],[-118.18908,34.16908],[-118.18903,34.16899],[-118.18828,34.16747],[-118.18792,34.16673],[-118.18798,34.16664],[-118.18802,34.16658],[-118.18815,34.16638],[-118.18832,34.16612],[-118.18842,34.16598],[-118.18854,34.16578],[-118.18859,34.16571],[-118.18861,34.16567],[-118.18748,34.16528],[-118.18727,34.16521],[-118.18684,34.16468],[-118.18656,34.16434],[-118.18655,34.16434],[-118.18633,34.16403],[-118.186,34.1636],[-118.18588,34.16323],[-118.18578,34.16287],[-118.18523,34.16109],[-118.18483,34.15979],[-118.18413,34.15978],[-118.18399,34.15924],[-118.18396,34.15915],[-118.18367,34.15808],[-118.183,34.1556],[-118.18167,34.1507],[-118.18167,34.15069],[-118.18152,34.15013],[-118.18147,34.14994],[-118.18172,34.14909],[-118.18504,34.14908],[-118.18663,34.14908],[-118.19002,34.14907],[-118.19003,34.14907],[-118.19021,34.14907],[-118.19033,34.14907],[-118.19041,34.14907],[-118.19047,34.14907],[-118.19112,34.14907],[-118.19818,34.14905],[-118.19818,34.14919],[-118.19817,34.15008],[-118.19816,34.15145],[-118.19816,34.15163],[-118.19889,34.15115],[-118.20085,34.15089],[-118.20104,34.15087],[-118.20271,34.15067],[-118.20326,34.15007],[-118.20358,34.14972],[-118.20423,34.1493],[-118.20491,34.14824],[-118.20496,34.14816],[-118.20541,34.14744],[-118.2057,34.14742],[-118.2058,34.14741],[-118.20599,34.14739],[-118.20629,34.14737],[-118.20656,34.14735],[-118.20678,34.14733],[-118.20701,34.14731],[-118.20728,34.14728],[-118.20752,34.14726],[-118.20771,34.14725],[-118.20794,34.14708],[-118.2081,34.14697],[-118.20817,34.14692],[-118.20833,34.14681],[-118.20852,34.14668],[-118.20875,34.14651],[-118.20876,34.14651],[-118.20916,34.14646],[-118.20937,34.14643],[-118.20938,34.14643],[-118.20939,34.14643],[-118.21009,34.14634],[-118.21048,34.14628],[-118.21094,34.14622],[-118.21095,34.14622],[-118.21161,34.14718],[-118.21324,34.14728],[-118.2162,34.14726],[-118.2168,34.14756],[-118.21913,34.14755],[-118.21919,34.14755],[-118.21945,34.14829],[-118.22065,34.14857],[-118.22086,34.14862],[-118.22104,34.14867],[-118.22202,34.14889],[-118.22249,34.14929],[-118.2225,34.14929],[-118.22346,34.14933],[-118.22413,34.14934],[-118.22433,34.14935],[-118.22452,34.14936],[-118.22459,34.14936],[-118.22478,34.14937],[-118.22487,34.14937],[-118.22499,34.14937],[-118.225,34.14937],[-118.22507,34.1494],[-118.22525,34.14946],[-118.22541,34.14951],[-118.22549,34.14954],[-118.22566,34.1496],[-118.22567,34.1496],[-118.22582,34.14965],[-118.2259,34.14968],[-118.22611,34.14975],[-118.22619,34.14977],[-118.22622,34.14978],[-118.22625,34.1498],[-118.22679,34.1489],[-118.22696,34.14862],[-118.22697,34.14857],[-118.22699,34.14852],[-118.227,34.14848],[-118.22701,34.14843],[-118.22702,34.14838],[-118.22703,34.14834],[-118.22703,34.14829],[-118.22704,34.14824],[-118.22705,34.14819],[-118.22705,34.14814],[-118.22705,34.1481],[-118.22705,34.14805],[-118.22706,34.148],[-118.22706,34.14795],[-118.22706,34.14791],[-118.22705,34.14786],[-118.22705,34.14781],[-118.22705,34.14776],[-118.22704,34.14772],[-118.22703,34.14762],[-118.22711,34.14765],[-118.22747,34.14776],[-118.2281,34.1467],[-118.22862,34.14688],[-118.2287,34.14673],[-118.22826,34.14644],[-118.22852,34.14601],[-118.22865,34.14579],[-118.22878,34.14589],[-118.22878,34.14585],[-118.22878,34.14565],[-118.22878,34.14552],[-118.22878,34.14538],[-118.22878,34.14524],[-118.22878,34.14511],[-118.22878,34.14497],[-118.22878,34.14483],[-118.22878,34.14469],[-118.22878,34.14456],[-118.22878,34.14453],[-118.22878,34.14437],[-118.22877,34.14354],[-118.22877,34.14288],[-118.22877,34.14285],[-118.2288,34.14269],[-118.2288,34.14266],[-118.2288,34.1422],[-118.2288,34.14179],[-118.2288,34.14175],[-118.2288,34.14161],[-118.2288,34.14155],[-118.2288,34.14147],[-118.2288,34.14146],[-118.2288,34.14134],[-118.22879,34.1412],[-118.22879,34.14106],[-118.22879,34.14102],[-118.22879,34.14092],[-118.22879,34.14079],[-118.22879,34.14078],[-118.22879,34.14065],[-118.22879,34.14046],[-118.22879,34.14013],[-118.22879,34.13964],[-118.22879,34.1394],[-118.22879,34.13932],[-118.22879,34.13917],[-118.22878,34.13909],[-118.22884,34.13909],[-118.22911,34.13908],[-118.22915,34.13908],[-118.22915,34.139],[-118.22915,34.13863],[-118.22914,34.13836],[-118.22914,34.13809],[-118.22902,34.13809],[-118.22789,34.1381],[-118.22789,34.13778],[-118.22792,34.13641],[-118.22792,34.13616],[-118.22792,34.13603],[-118.22793,34.13578],[-118.22793,34.13561],[-118.22798,34.13561],[-118.22832,34.13561],[-118.22856,34.13561],[-118.22865,34.13561],[-118.23027,34.13561],[-118.23038,34.13561],[-118.23074,34.1356],[-118.23111,34.1356],[-118.23121,34.1356],[-118.23146,34.1356],[-118.23178,34.1356],[-118.23372,34.13561],[-118.23372,34.13553],[-118.23372,34.13545],[-118.23372,34.13539],[-118.23372,34.13532],[-118.23372,34.13498],[-118.23372,34.13485],[-118.23372,34.13451],[-118.23374,34.13451],[-118.23435,34.13451],[-118.23476,34.13451],[-118.23508,34.1345],[-118.23542,34.1345],[-118.23563,34.1345],[-118.23572,34.1345],[-118.23575,34.1345],[-118.23595,34.1345],[-118.23615,34.1345],[-118.23629,34.1345],[-118.23632,34.13434],[-118.23641,34.13394],[-118.23646,34.13374],[-118.2365,34.13358],[-118.23656,34.1333],[-118.23662,34.13272],[-118.23661,34.13263],[-118.23643,34.13148],[-118.23642,34.13141],[-118.2364,34.13128],[-118.23637,34.13107],[-118.23634,34.13088],[-118.23634,34.13087],[-118.23631,34.13066],[-118.23628,34.13046],[-118.23625,34.13026],[-118.23621,34.13002],[-118.23618,34.1298],[-118.23614,34.12954],[-118.23612,34.12942],[-118.23605,34.12896],[-118.23604,34.12887],[-118.23603,34.12884],[-118.23599,34.12877],[-118.23595,34.12869],[-118.23593,34.12866],[-118.23554,34.128],[-118.23532,34.1276],[-118.23527,34.12705],[-118.23524,34.12672],[-118.236,34.12662],[-118.23615,34.1266],[-118.23647,34.12656],[-118.2369,34.1265],[-118.23714,34.12647],[-118.2378,34.12638],[-118.23832,34.1263],[-118.23843,34.12629],[-118.23855,34.12627],[-118.23871,34.12625],[-118.23887,34.12623],[-118.23932,34.12617],[-118.23949,34.12614],[-118.23966,34.12612],[-118.23997,34.12608],[-118.24037,34.12602],[-118.24063,34.12599],[-118.25053,34.12463],[-118.25114,34.12454],[-118.25128,34.12452],[-118.2528,34.12431],[-118.25288,34.1243],[-118.25307,34.12438],[-118.25326,34.12445],[-118.25365,34.1233],[-118.25343,34.1231],[-118.25332,34.123],[-118.25321,34.12289],[-118.25311,34.12279],[-118.25297,34.12267],[-118.25287,34.12257],[-118.25279,34.1225],[-118.25276,34.12246],[-118.2527,34.12241],[-118.25269,34.1224],[-118.25265,34.12236],[-118.25254,34.12226],[-118.25248,34.1222],[-118.25243,34.12215],[-118.25232,34.12205],[-118.25218,34.12192],[-118.25208,34.12182],[-118.25197,34.12172],[-118.25186,34.12161],[-118.25175,34.12151],[-118.25164,34.12141],[-118.25153,34.1213],[-118.2514,34.12119],[-118.25128,34.12108],[-118.25118,34.12098],[-118.25114,34.12094],[-118.2515,34.12069],[-118.25163,34.12059],[-118.25166,34.12057],[-118.25205,34.12031],[-118.25243,34.12005],[-118.25261,34.11992],[-118.25279,34.1198],[-118.25319,34.11953],[-118.25354,34.11929],[-118.25403,34.11895],[-118.25413,34.11888],[-118.25418,34.11885],[-118.25428,34.11877],[-118.25441,34.11888],[-118.25451,34.11896],[-118.25462,34.11906],[-118.2547,34.11913],[-118.25482,34.11923],[-118.25493,34.11933],[-118.25504,34.11943],[-118.25514,34.11951],[-118.25523,34.11958],[-118.2553,34.11965],[-118.25539,34.11973],[-118.25546,34.11978],[-118.25555,34.11986],[-118.25565,34.11995],[-118.25579,34.12006],[-118.25584,34.12012],[-118.25594,34.1202],[-118.25599,34.12024],[-118.25607,34.12032],[-118.25617,34.1204],[-118.25621,34.12044],[-118.2563,34.12052],[-118.25639,34.1206],[-118.25645,34.12065],[-118.25654,34.12074],[-118.25664,34.12082],[-118.25676,34.12094],[-118.2569,34.12107],[-118.25708,34.12123],[-118.25711,34.12126],[-118.25719,34.12134],[-118.25727,34.12141],[-118.25731,34.12145],[-118.25738,34.12152],[-118.25739,34.12153],[-118.2574,34.12153],[-118.2574,34.12154],[-118.25741,34.12154],[-118.25741,34.12155],[-118.25742,34.12155],[-118.25742,34.12156],[-118.25743,34.12156],[-118.25744,34.12157],[-118.25744,34.12158],[-118.25745,34.12158],[-118.25745,34.12159],[-118.25746,34.12159],[-118.25746,34.1216],[-118.25747,34.1216],[-118.25747,34.12161],[-118.25748,34.12161],[-118.25749,34.12162],[-118.2575,34.12163],[-118.25751,34.12164],[-118.25751,34.12165],[-118.25752,34.12165],[-118.25753,34.12165],[-118.25753,34.12166],[-118.25754,34.12167],[-118.25755,34.12168],[-118.25756,34.12169],[-118.25757,34.1217],[-118.25758,34.1217],[-118.25758,34.12171],[-118.25759,34.12172],[-118.2576,34.12172],[-118.2576,34.12173],[-118.25761,34.12174],[-118.25762,34.12175],[-118.25763,34.12175],[-118.25763,34.12176],[-118.25764,34.12177],[-118.25765,34.12177],[-118.25765,34.12178],[-118.25766,34.12178],[-118.25766,34.12179],[-118.25767,34.12179],[-118.25767,34.1218],[-118.25768,34.1218],[-118.25768,34.12181],[-118.25769,34.12182],[-118.2577,34.12182],[-118.2577,34.12183],[-118.25771,34.12183],[-118.25771,34.12184],[-118.25772,34.12184],[-118.25772,34.12185],[-118.25773,34.12185],[-118.25773,34.12186],[-118.25774,34.12186],[-118.25774,34.12187],[-118.25775,34.12187],[-118.25775,34.12188],[-118.25776,34.12188],[-118.25776,34.12189],[-118.25777,34.12189],[-118.25777,34.1219],[-118.25778,34.1219],[-118.25778,34.12191],[-118.25779,34.12191],[-118.25779,34.12192],[-118.2578,34.12192],[-118.2578,34.12193],[-118.25781,34.12193],[-118.25781,34.12194],[-118.25782,34.12194],[-118.25782,34.12195],[-118.25783,34.12195],[-118.25783,34.12196],[-118.25784,34.12196],[-118.25784,34.12197],[-118.25785,34.12197],[-118.25785,34.12198],[-118.25786,34.12198],[-118.25786,34.12199],[-118.25787,34.12199],[-118.25787,34.122],[-118.25788,34.122],[-118.25788,34.12201],[-118.25789,34.12201],[-118.25789,34.12202],[-118.2579,34.12202],[-118.2579,34.12203],[-118.25791,34.12203],[-118.25791,34.12204],[-118.25792,34.12204],[-118.25792,34.12205],[-118.25793,34.12205],[-118.25793,34.12206],[-118.25794,34.12206],[-118.25794,34.12207],[-118.25795,34.12207],[-118.25795,34.12208],[-118.25796,34.12208],[-118.25796,34.12209],[-118.25797,34.12209],[-118.25797,34.1221],[-118.25798,34.1221],[-118.25798,34.12211],[-118.25799,34.12211],[-118.25799,34.12212],[-118.258,34.12212],[-118.258,34.12213],[-118.25801,34.12213],[-118.25801,34.12214],[-118.25802,34.12214],[-118.25802,34.12215],[-118.25803,34.12215],[-118.25803,34.12216],[-118.25804,34.12216],[-118.25804,34.12217],[-118.25805,34.12217],[-118.25805,34.12218],[-118.25806,34.12218],[-118.25806,34.12219],[-118.25807,34.12219],[-118.25807,34.1222],[-118.25808,34.1222],[-118.25808,34.12221],[-118.25809,34.12221],[-118.25809,34.12222],[-118.2581,34.12222],[-118.2581,34.12223],[-118.25811,34.12223],[-118.25811,34.12224],[-118.25812,34.12224],[-118.25812,34.12225],[-118.25813,34.12225],[-118.25813,34.12226],[-118.25814,34.12226],[-118.25814,34.12227],[-118.25815,34.12227],[-118.25815,34.12228],[-118.25816,34.12228],[-118.25816,34.12229],[-118.25817,34.1223],[-118.25818,34.12231],[-118.25819,34.12232],[-118.2582,34.12232],[-118.2582,34.12233],[-118.25821,34.12233],[-118.25821,34.12234],[-118.25822,34.12235],[-118.25823,34.12235],[-118.25823,34.12236],[-118.25824,34.12237],[-118.25825,34.12238],[-118.25826,34.12239],[-118.25827,34.1224],[-118.25827,34.12241],[-118.25828,34.12241],[-118.25829,34.12242],[-118.2583,34.12243],[-118.25831,34.12244],[-118.25832,34.12245],[-118.25832,34.12246],[-118.25833,34.12246],[-118.25833,34.12247],[-118.25834,34.12247],[-118.25834,34.12248],[-118.25835,34.12248],[-118.25836,34.12249],[-118.25836,34.1225],[-118.25837,34.1225],[-118.25838,34.12251],[-118.25838,34.12252],[-118.25839,34.12252],[-118.25839,34.12253],[-118.2584,34.12253],[-118.2584,34.12254],[-118.25841,34.12255],[-118.25842,34.12256],[-118.25843,34.12256],[-118.25843,34.12257],[-118.25844,34.12258],[-118.25845,34.12259],[-118.25846,34.1226],[-118.25847,34.12261],[-118.25848,34.12262],[-118.25849,34.12263],[-118.25849,34.12264],[-118.2585,34.12264],[-118.2585,34.12265],[-118.25851,34.12265],[-118.25852,34.12266],[-118.25853,34.12267],[-118.25853,34.12268],[-118.25854,34.12268],[-118.25854,34.12269],[-118.25855,34.1227],[-118.25856,34.12271],[-118.25857,34.12272],[-118.25858,34.12273],[-118.25859,34.12274],[-118.2586,34.12275],[-118.25861,34.12276],[-118.25861,34.12277],[-118.25862,34.12277],[-118.25862,34.12278],[-118.25863,34.12278],[-118.25864,34.12279],[-118.25864,34.1228],[-118.25865,34.1228],[-118.25865,34.12281],[-118.25866,34.12281],[-118.25866,34.12282],[-118.25867,34.12282],[-118.25867,34.12283],[-118.25868,34.12284],[-118.25869,34.12285],[-118.2587,34.12286],[-118.25871,34.12287],[-118.25872,34.12288],[-118.25873,34.12289],[-118.25873,34.1229],[-118.25874,34.1229],[-118.25875,34.12291],[-118.25876,34.12292],[-118.25876,34.12293],[-118.25877,34.12293],[-118.25877,34.12294],[-118.25878,34.12294],[-118.25878,34.12295],[-118.25879,34.12296],[-118.2588,34.12297],[-118.25881,34.12298],[-118.25882,34.12299],[-118.25883,34.123],[-118.25884,34.12301],[-118.25884,34.12302],[-118.25885,34.12302],[-118.25885,34.12303],[-118.25886,34.12303],[-118.25887,34.12304],[-118.25887,34.12305],[-118.25888,34.12305],[-118.25888,34.12306],[-118.25889,34.12306],[-118.25889,34.12307],[-118.2589,34.12308],[-118.25891,34.12309],[-118.25892,34.1231],[-118.25892,34.12311],[-118.25893,34.12311],[-118.25893,34.12312],[-118.25894,34.12312],[-118.25895,34.12313],[-118.25895,34.12314],[-118.25896,34.12314],[-118.25896,34.12315],[-118.25897,34.12315],[-118.25897,34.12316],[-118.25898,34.12317],[-118.25899,34.12318],[-118.259,34.12319],[-118.25901,34.1232],[-118.25902,34.12321],[-118.25903,34.12322],[-118.25903,34.12323],[-118.25904,34.12323],[-118.25904,34.12324],[-118.25905,34.12324],[-118.25905,34.12325],[-118.25906,34.12326],[-118.25907,34.12327],[-118.25908,34.12328],[-118.25908,34.12329],[-118.25909,34.12329],[-118.2591,34.1233],[-118.2591,34.12331],[-118.25911,34.12331],[-118.25911,34.12332],[-118.25912,34.12332],[-118.25912,34.12333],[-118.25913,34.12333],[-118.25913,34.12334],[-118.25914,34.12335],[-118.25915,34.12336],[-118.25916,34.12337],[-118.25916,34.12338],[-118.25917,34.12338],[-118.25918,34.12339],[-118.25918,34.1234],[-118.25919,34.1234],[-118.25919,34.12341],[-118.2592,34.12341],[-118.2592,34.12342],[-118.25921,34.12343],[-118.25922,34.12344],[-118.25923,34.12345],[-118.25923,34.12346],[-118.25924,34.12346],[-118.25924,34.12347],[-118.25925,34.12347],[-118.25925,34.12348],[-118.25926,34.12349],[-118.25927,34.12349],[-118.25927,34.1235],[-118.25928,34.1235],[-118.25928,34.12351],[-118.25929,34.12352],[-118.2593,34.12353],[-118.25931,34.12354],[-118.25931,34.12355],[-118.25932,34.12355],[-118.25932,34.12356],[-118.25933,34.12356],[-118.25933,34.12357],[-118.25934,34.12358],[-118.25935,34.12359],[-118.25935,34.1236],[-118.25936,34.1236],[-118.25937,34.12361],[-118.25938,34.12362],[-118.25938,34.12363],[-118.25939,34.12363],[-118.25939,34.12364],[-118.2594,34.12364],[-118.2594,34.12365],[-118.25941,34.12366],[-118.25942,34.12367],[-118.25943,34.12368],[-118.25943,34.12369],[-118.25944,34.12369],[-118.25944,34.1237],[-118.25945,34.12371],[-118.25946,34.12371],[-118.25946,34.12372],[-118.25947,34.12372],[-118.25947,34.12373],[-118.25947,34.12374],[-118.25948,34.12374],[-118.25949,34.12375],[-118.2595,34.12376],[-118.2595,34.12377],[-118.25951,34.12377],[-118.25951,34.12378],[-118.25952,34.12378],[-118.25952,34.12379],[-118.25953,34.1238],[-118.25954,34.12381],[-118.25954,34.12382],[-118.25955,34.12382],[-118.25955,34.12383],[-118.25956,34.12383],[-118.25956,34.12384],[-118.25957,34.12385],[-118.25958,34.12386],[-118.25959,34.12386],[-118.25959,34.12387],[-118.2596,34.12388],[-118.2596,34.12389],[-118.25961,34.12389],[-118.25962,34.1239],[-118.25962,34.12391],[-118.25963,34.12391],[-118.25963,34.12392],[-118.25964,34.12393],[-118.25965,34.12394],[-118.25966,34.12395],[-118.25966,34.12396],[-118.25967,34.12396],[-118.25967,34.12397],[-118.25968,34.12398],[-118.25969,34.12399],[-118.2597,34.124],[-118.2597,34.12401],[-118.25971,34.12401],[-118.25971,34.12402],[-118.25972,34.12402],[-118.25972,34.12403],[-118.25973,34.12404],[-118.25974,34.12405],[-118.25975,34.12406],[-118.25975,34.12407],[-118.25976,34.12407],[-118.25977,34.12408],[-118.25977,34.12409],[-118.25978,34.12409],[-118.25978,34.1241],[-118.25979,34.12411],[-118.25979,34.12412],[-118.2598,34.12412],[-118.25981,34.12413],[-118.25981,34.12414],[-118.25982,34.12414],[-118.25982,34.12415],[-118.25983,34.12415],[-118.25983,34.12416],[-118.25984,34.12417],[-118.25985,34.12418],[-118.25986,34.12419],[-118.25986,34.1242],[-118.25987,34.1242],[-118.25987,34.12421],[-118.25988,34.12421],[-118.25988,34.12422],[-118.25989,34.12423],[-118.2599,34.12424],[-118.2599,34.12425],[-118.25991,34.12425],[-118.25991,34.12426],[-118.25992,34.12427],[-118.25993,34.12428],[-118.25994,34.12429],[-118.25994,34.1243],[-118.25995,34.1243],[-118.25995,34.12431],[-118.25996,34.12432],[-118.25997,34.12433],[-118.25998,34.12434],[-118.25998,34.12435],[-118.25999,34.12435],[-118.25999,34.12436],[-118.26,34.12436],[-118.26,34.12437],[-118.26001,34.12438],[-118.26002,34.12439],[-118.26003,34.1244],[-118.26003,34.12441],[-118.26004,34.12441],[-118.26004,34.12442],[-118.26005,34.12443],[-118.26006,34.12444],[-118.26006,34.12445],[-118.26007,34.12445],[-118.26007,34.12446],[-118.26008,34.12446],[-118.26008,34.12447],[-118.26009,34.12448],[-118.2601,34.12449],[-118.2601,34.1245],[-118.26011,34.1245],[-118.26011,34.12451],[-118.26012,34.12451],[-118.26012,34.12452],[-118.26013,34.12453],[-118.26014,34.12454],[-118.26015,34.12455],[-118.26015,34.12456],[-118.26016,34.12456],[-118.26016,34.12457],[-118.26017,34.12458],[-118.26018,34.12459],[-118.26019,34.1246],[-118.26019,34.12461],[-118.2602,34.12461],[-118.2602,34.12462],[-118.26021,34.12463],[-118.26022,34.12464],[-118.26022,34.12465],[-118.26023,34.12465],[-118.26023,34.12466],[-118.26024,34.12466],[-118.26024,34.12467],[-118.26025,34.12468],[-118.26026,34.12469],[-118.26026,34.1247],[-118.26027,34.1247],[-118.26027,34.12471],[-118.26028,34.12471],[-118.26028,34.12472],[-118.26029,34.12473],[-118.2603,34.12474],[-118.26031,34.12475],[-118.26031,34.12476],[-118.26032,34.12476],[-118.26032,34.12477],[-118.26033,34.12478],[-118.26034,34.12479],[-118.26035,34.1248],[-118.26035,34.12481],[-118.26036,34.12481],[-118.26036,34.12482],[-118.26037,34.12483],[-118.26037,34.12484],[-118.26038,34.12485],[-118.26039,34.12486],[-118.2604,34.12486],[-118.2604,34.12487],[-118.26041,34.12488],[-118.26041,34.12489],[-118.26042,34.1249],[-118.26043,34.12491],[-118.26043,34.12492],[-118.26044,34.12492],[-118.26044,34.12493],[-118.26045,34.12493],[-118.26084,34.12544],[-118.26118,34.12592],[-118.26152,34.12639],[-118.26184,34.12687],[-118.262,34.12712],[-118.26223,34.12748],[-118.26253,34.12797],[-118.26269,34.12823],[-118.26284,34.12849],[-118.26305,34.12887],[-118.2632,34.12914],[-118.26335,34.12942],[-118.26365,34.13001],[-118.26448,34.13165],[-118.26463,34.13193],[-118.26503,34.1327],[-118.26536,34.13334],[-118.26542,34.13346],[-118.26546,34.13353],[-118.26552,34.13364],[-118.26567,34.13394],[-118.26574,34.13406],[-118.26582,34.13422],[-118.26588,34.13435],[-118.26594,34.13447],[-118.266,34.13459],[-118.26601,34.1346],[-118.26607,34.13473],[-118.26614,34.13485],[-118.2662,34.13498],[-118.26627,34.1351],[-118.2663,34.13517],[-118.26633,34.13523],[-118.2664,34.13536],[-118.26646,34.13548],[-118.26653,34.13561],[-118.26657,34.13569],[-118.26659,34.13574],[-118.26666,34.13586],[-118.26672,34.13599],[-118.26674,34.13602],[-118.26678,34.13611],[-118.26682,34.13618],[-118.26685,34.13624],[-118.26691,34.13637],[-118.26698,34.13648],[-118.26698,34.13649],[-118.26705,34.13662],[-118.26711,34.13674],[-118.26718,34.13687],[-118.26723,34.13695],[-118.26725,34.137],[-118.26727,34.13704],[-118.26735,34.13718],[-118.26736,34.13721],[-118.26758,34.13761],[-118.26826,34.13895],[-118.26843,34.13928],[-118.26944,34.14125],[-118.26947,34.14132],[-118.26975,34.14185],[-118.26987,34.14209],[-118.26995,34.14223],[-118.27009,34.14248],[-118.27033,34.14292],[-118.27042,34.14309],[-118.27109,34.14444],[-118.27114,34.14454],[-118.27117,34.1446],[-118.27224,34.14669],[-118.27233,34.14686],[-118.27336,34.14884],[-118.27391,34.14993],[-118.27539,34.15286],[-118.27555,34.15315],[-118.2756,34.15324],[-118.27586,34.15323],[-118.27626,34.15323],[-118.27717,34.15323],[-118.27719,34.15323],[-118.27753,34.15322],[-118.27795,34.15322],[-118.27803,34.15322],[-118.27813,34.15322],[-118.27829,34.15322],[-118.27848,34.15322],[-118.27888,34.15322],[-118.27892,34.15322],[-118.27899,34.15322],[-118.279,34.15328],[-118.27903,34.15346],[-118.27903,34.15347],[-118.27904,34.15351],[-118.27908,34.15374],[-118.2791,34.15387],[-118.27916,34.15423],[-118.27928,34.15498],[-118.27929,34.15504],[-118.2793,34.15511],[-118.27943,34.15523],[-118.27944,34.15524],[-118.27962,34.15541],[-118.27991,34.1557],[-118.28013,34.15591],[-118.2803,34.15608],[-118.28038,34.15615],[-118.28057,34.15634],[-118.28207,34.15665],[-118.28224,34.15669],[-118.28228,34.1567],[-118.28237,34.15672],[-118.28269,34.15678],[-118.28334,34.15665],[-118.28335,34.15665],[-118.28403,34.15651],[-118.28415,34.15648],[-118.28586,34.15613],[-118.28644,34.15601],[-118.28797,34.15568],[-118.28887,34.15569],[-118.2891,34.15569],[-118.28926,34.15569],[-118.28948,34.1557],[-118.28958,34.1557],[-118.28979,34.1557],[-118.28998,34.1557],[-118.29029,34.1557],[-118.29056,34.1557],[-118.29145,34.15571],[-118.29189,34.15606],[-118.29238,34.15643],[-118.29242,34.15647],[-118.29544,34.15882],[-118.29545,34.15882],[-118.29613,34.15884],[-118.2967,34.15886],[-118.29713,34.15887],[-118.29737,34.15887],[-118.29745,34.15888],[-118.29761,34.15873],[-118.29799,34.1584],[-118.2981,34.15829],[-118.29887,34.15761],[-118.30022,34.15792],[-118.30313,34.15857],[-118.30315,34.15858],[-118.30354,34.15866],[-118.30356,34.15867],[-118.30402,34.15877],[-118.30404,34.15877],[-118.30433,34.15884],[-118.30435,34.15885],[-118.30437,34.15885],[-118.30455,34.15898],[-118.30456,34.15899],[-118.30474,34.15913],[-118.30486,34.15921],[-118.30499,34.15931],[-118.30526,34.15951],[-118.30533,34.15956],[-118.30622,34.16021],[-118.30635,34.16031],[-118.30671,34.16058],[-118.30707,34.16084],[-118.30718,34.16091],[-118.30726,34.16096],[-118.30736,34.16099],[-118.30786,34.16116],[-118.30781,34.1612],[-118.3078,34.16122],[-118.30765,34.16136],[-118.30762,34.16138],[-118.30759,34.16141],[-118.30757,34.16143],[-118.30756,34.16144],[-118.3073,34.16168],[-118.30729,34.16169],[-118.30727,34.16171],[-118.30717,34.1618],[-118.30691,34.16204],[-118.30662,34.16232],[-118.30651,34.16242],[-118.3064,34.16252],[-118.3063,34.16262],[-118.30618,34.16273],[-118.30608,34.16283],[-118.30597,34.16293],[-118.30586,34.16303],[-118.30575,34.16313],[-118.30563,34.16325],[-118.30551,34.16336],[-118.30539,34.16347],[-118.30492,34.16391],[-118.30487,34.16396],[-118.30481,34.16402],[-118.30462,34.16419],[-118.30442,34.16441],[-118.30438,34.16445],[-118.30413,34.16469],[-118.30407,34.16474],[-118.30397,34.16484],[-118.30386,34.16495],[-118.30375,34.16505],[-118.30364,34.16515],[-118.30353,34.16526],[-118.30343,34.16536],[-118.30332,34.16546],[-118.30321,34.16556],[-118.30311,34.16566],[-118.30299,34.16577],[-118.30289,34.16587],[-118.30278,34.16597],[-118.30267,34.16607],[-118.30256,34.16618],[-118.30244,34.16629],[-118.30238,34.16635],[-118.30216,34.16656],[-118.30204,34.16667],[-118.30186,34.16685],[-118.30169,34.16701],[-118.3016,34.1671],[-118.30151,34.16717],[-118.30142,34.16726],[-118.30133,34.16734],[-118.30116,34.16751],[-118.30102,34.16764],[-118.30091,34.16774],[-118.30083,34.16781],[-118.30076,34.16789],[-118.30063,34.16801],[-118.30048,34.16814],[-118.30037,34.16824],[-118.30031,34.1683],[-118.30029,34.16832],[-118.30026,34.16835],[-118.30023,34.16838],[-118.30011,34.16849],[-118.29994,34.16866],[-118.29972,34.16887],[-118.29958,34.169],[-118.29916,34.16941],[-118.29838,34.17015],[-118.29837,34.17016],[-118.29824,34.17028],[-118.29815,34.17037],[-118.29772,34.17077],[-118.29762,34.17087],[-118.29754,34.17095],[-118.29753,34.17095],[-118.29743,34.17106],[-118.29742,34.17106],[-118.29698,34.17148],[-118.29697,34.17148],[-118.2969,34.17155],[-118.29729,34.17183],[-118.29732,34.17186],[-118.29741,34.17192],[-118.29743,34.17193],[-118.29758,34.17204],[-118.2976,34.17205],[-118.29768,34.17212],[-118.2977,34.17213],[-118.29783,34.17222],[-118.29784,34.17223],[-118.29795,34.17231],[-118.29798,34.17233],[-118.2981,34.17242],[-118.29812,34.17244],[-118.2982,34.17249],[-118.29822,34.17251],[-118.29837,34.17262],[-118.2984,34.17263],[-118.29859,34.17277],[-118.29861,34.17279],[-118.29868,34.17284],[-118.29881,34.17293],[-118.29883,34.17295],[-118.29891,34.17301],[-118.29893,34.17302],[-118.2991,34.17314],[-118.29913,34.17316],[-118.29915,34.17318],[-118.29934,34.17332],[-118.29901,34.17363],[-118.2965,34.17601],[-118.29641,34.17609],[-118.29639,34.17611],[-118.29781,34.17715],[-118.29772,34.17723],[-118.2976,34.17735],[-118.29746,34.17748],[-118.29721,34.17772],[-118.29711,34.17782],[-118.297,34.17791],[-118.2969,34.17802],[-118.29679,34.17811],[-118.29669,34.17821],[-118.29658,34.17832],[-118.29647,34.17842],[-118.29637,34.17852],[-118.29627,34.17861],[-118.29595,34.17892],[-118.29584,34.17902],[-118.2958,34.17905],[-118.2955,34.17934],[-118.29546,34.17937],[-118.29536,34.17946],[-118.29523,34.17958],[-118.29522,34.17959],[-118.29512,34.17968],[-118.29511,34.17969],[-118.2951,34.1797],[-118.29509,34.17971],[-118.29501,34.17979],[-118.295,34.1798],[-118.29497,34.17983],[-118.29496,34.17984],[-118.2949,34.17989],[-118.29489,34.1799],[-118.29484,34.17995],[-118.29483,34.17996],[-118.2948,34.17999],[-118.29479,34.18],[-118.29471,34.18007],[-118.2947,34.18008],[-118.29469,34.1801],[-118.29467,34.18011],[-118.29458,34.1802],[-118.29457,34.18021],[-118.29447,34.1803],[-118.29446,34.18031],[-118.29436,34.18041],[-118.29435,34.18042],[-118.29434,34.18043],[-118.29433,34.18044],[-118.29425,34.18051],[-118.29424,34.18052],[-118.29421,34.18055],[-118.2942,34.18056],[-118.29414,34.18062],[-118.29413,34.18062],[-118.29408,34.18067],[-118.29407,34.18068],[-118.29403,34.18071],[-118.29402,34.18073],[-118.29395,34.1808],[-118.29394,34.18081],[-118.29392,34.18082],[-118.29391,34.18083],[-118.29382,34.18092],[-118.29381,34.18093],[-118.29376,34.18098],[-118.29371,34.18102],[-118.2937,34.18103],[-118.2936,34.18113],[-118.29359,34.18114],[-118.29358,34.18115],[-118.29357,34.18116],[-118.29349,34.18123],[-118.29348,34.18124],[-118.29345,34.18127],[-118.29344,34.18128],[-118.29338,34.18133],[-118.29337,34.18134],[-118.29332,34.1814],[-118.29331,34.1814],[-118.29328,34.18144],[-118.29327,34.18144],[-118.29319,34.18151],[-118.29318,34.18153],[-118.29305,34.18165],[-118.29304,34.18166],[-118.29292,34.18178],[-118.29291,34.18179],[-118.29282,34.18186],[-118.29282,34.18187],[-118.29271,34.18197],[-118.29256,34.18212],[-118.29242,34.18225],[-118.29232,34.18235],[-118.2922,34.18245],[-118.29209,34.18256],[-118.29198,34.18267],[-118.29197,34.18268],[-118.29187,34.18277],[-118.29177,34.18287],[-118.29166,34.18297],[-118.29155,34.18308],[-118.29142,34.1832],[-118.29132,34.18329],[-118.2912,34.18341],[-118.29112,34.18348],[-118.29103,34.18357],[-118.29094,34.18365],[-118.29085,34.18373],[-118.29061,34.18397],[-118.29048,34.18409],[-118.29037,34.1842],[-118.29026,34.1843],[-118.29016,34.18441],[-118.29005,34.18451],[-118.28994,34.18461],[-118.29006,34.18468],[-118.29002,34.18473],[-118.28941,34.18556],[-118.28883,34.18636],[-118.2882,34.18722],[-118.28787,34.18767],[-118.28772,34.18761],[-118.28767,34.18759],[-118.28756,34.18754],[-118.28745,34.1875],[-118.28739,34.18747],[-118.28723,34.18741],[-118.28702,34.18732],[-118.28679,34.18723],[-118.28676,34.18721],[-118.28673,34.1872],[-118.28651,34.18711],[-118.2865,34.18711],[-118.28629,34.18702],[-118.28606,34.18692],[-118.28584,34.18683],[-118.28562,34.18674],[-118.2854,34.18665],[-118.28522,34.18658],[-118.28477,34.18639],[-118.28456,34.1863],[-118.2845,34.18628],[-118.28435,34.18622],[-118.2842,34.18615],[-118.2839,34.18603],[-118.28358,34.1859],[-118.28349,34.18586],[-118.28309,34.1864],[-118.28284,34.18677],[-118.2826,34.18711],[-118.2824,34.18738],[-118.28214,34.18774],[-118.28187,34.18811],[-118.28177,34.18825],[-118.28168,34.18838],[-118.28162,34.18845],[-118.28126,34.18895],[-118.28049,34.19001],[-118.28005,34.19062],[-118.27999,34.1907],[-118.28001,34.19262],[-118.28001,34.19266],[-118.28006,34.1999],[-118.28007,34.20205],[-118.28007,34.20258],[-118.28008,34.20327],[-118.28008,34.20397],[-118.28009,34.20518],[-118.28011,34.20747],[-118.28387,34.21165],[-118.28652,34.2146],[-118.29279,34.22166],[-118.29173,34.22167],[-118.29037,34.22168],[-118.28522,34.22172],[-118.28406,34.22172],[-118.28286,34.22173],[-118.27752,34.22177],[-118.2774,34.22177],[-118.27724,34.22178],[-118.27555,34.22179],[-118.27523,34.22179],[-118.27406,34.2218],[-118.27149,34.22182],[-118.2679,34.22184],[-118.2672,34.22185],[-118.26688,34.22185],[-118.26688,34.22204],[-118.26688,34.22252],[-118.26687,34.22302],[-118.26687,34.22394],[-118.26686,34.22487],[-118.26686,34.22552],[-118.26685,34.22622],[-118.26684,34.22734],[-118.26684,34.22774],[-118.26684,34.22785],[-118.26684,34.2281],[-118.26683,34.22944],[-118.26682,34.22994],[-118.26682,34.23063],[-118.26682,34.23069],[-118.26682,34.23081],[-118.26681,34.23165],[-118.26681,34.23202],[-118.26681,34.23204],[-118.26681,34.23229],[-118.26681,34.23267],[-118.26681,34.23305],[-118.2668,34.23345],[-118.2668,34.23359],[-118.2668,34.23386],[-118.2668,34.23387],[-118.26679,34.23415],[-118.26679,34.23426],[-118.26679,34.23428],[-118.26679,34.23446],[-118.26679,34.23459],[-118.26679,34.23469],[-118.26679,34.23487],[-118.26679,34.23504],[-118.26679,34.23524],[-118.26679,34.23533],[-118.26679,34.23549],[-118.26679,34.23568],[-118.26678,34.23587],[-118.26678,34.23597],[-118.26678,34.23624],[-118.26678,34.23669],[-118.26677,34.23686],[-118.26677,34.23707],[-118.26677,34.23709],[-118.26677,34.23712],[-118.26677,34.23714],[-118.26677,34.23717],[-118.26677,34.23718],[-118.26677,34.2372],[-118.26677,34.23722],[-118.26677,34.23749],[-118.26677,34.23775],[-118.26677,34.23778],[-118.26677,34.23779],[-118.26676,34.23808],[-118.26676,34.23809],[-118.26676,34.2383],[-118.26676,34.23854],[-118.26676,34.23877],[-118.26675,34.23898],[-118.26675,34.23904],[-118.26674,34.23998],[-118.26674,34.24012],[-118.26674,34.24024],[-118.26674,34.24039],[-118.26674,34.24047],[-118.26674,34.24063],[-118.26673,34.2408],[-118.26604,34.24036],[-118.26603,34.24098],[-118.26603,34.24165],[-118.26602,34.24278],[-118.26601,34.24394],[-118.26603,34.24464],[-118.26606,34.2462],[-118.26609,34.24777],[-118.26619,34.24777],[-118.2667,34.24777],[-118.2667,34.24791],[-118.2667,34.24806],[-118.2667,34.24819],[-118.2667,34.24834],[-118.26671,34.2485],[-118.2667,34.2486],[-118.2667,34.24873],[-118.2667,34.24887],[-118.2667,34.24893],[-118.2667,34.24914],[-118.2667,34.24942],[-118.2667,34.24959],[-118.2667,34.24983],[-118.2667,34.24986],[-118.26669,34.25024],[-118.26668,34.25038],[-118.26667,34.25077],[-118.26607,34.25055],[-118.26596,34.25051],[-118.26591,34.25049],[-118.2653,34.25026],[-118.2653,34.25036],[-118.26527,34.25238],[-118.26397,34.25236],[-118.26172,34.25234],[-118.26085,34.25233],[-118.26042,34.25231],[-118.25984,34.25231],[-118.25853,34.25229],[-118.25836,34.25229],[-118.25727,34.25227],[-118.25697,34.25227],[-118.2569,34.25227],[-118.25651,34.25227],[-118.25651,34.25265],[-118.25651,34.25275],[-118.25652,34.25324],[-118.25652,34.25365],[-118.25653,34.25439],[-118.25656,34.25669]]]},"properties":{"CITYNAME":"Glendale"}}]}