{"type":"FeatureCollection","features":[{"type":"Feature","geometry":{"type":"Point","coordinates":[-118.26152,34.143766]},"properties":{"NAME":"Fire Station 21","ADDRESS":"421 Oak Street","sta_no":" 21"}},{"type":"Feature","geometry":{"type":"Point","coordinates":[-118.252439,34.131948]},"properties":{"NAME":"Fire Station 22","ADDRESS":"1201 S. Glendale Ave.","sta_no":" 22"}},{"type":"Feature","geometry":{"type":"Point","coordinates":[-118.199848,34.173835]},"properties":{"NAME":"Fire Station 23","ADDRESS":"3303 E. Chevy Chase Dr.","sta_no":" 23"}},{"type":"Feature","geometry":{"type":"Point","coordinates":[-118.228535,34.173285]},"properties":{"NAME":"Fire Station 24","ADDRESS":"1734 Canada Blvd.","sta_no":" 24"}},{"type":"Feature","geometry":{"type":"Point","coordinates":[-118.237071,34.151264]},"properties":{"NAME":"Fire Station 25","ADDRESS":"353 N. Chevy Chase Dr.","sta_no":" 25"}},{"type":"Feature","geometry":{"type":"Point","coordinates":[-118.255465,34.162468]},"properties":{"NAME":"Fire Station 26","ADDRESS":"1145 N. Brand Blvd.","sta_no":" 26"}},{"type":"Feature","geometry":{"type":"Point","coordinates":[-118.289094,34.172234]},"properties":{"NAME":"Fire Station 27","ADDRESS":"1127 Western Ave.","sta_no":" 27"}},{"type":"Feature","geometry":{"type":"Point","coordinates":[-118.252542,34.230194]},"properties":{"NAME":"Fire Station 28","ADDRESS":"4410 New York Ave.","sta_no":" 28"}},{"type":"Feature","geometry":{"type":"Point","coordinates":[-118.232896,34.207562]},"properties":{"NAME":"Fire Station 29","ADDRESS":"2465 Honolulu Ave.","sta_no":" 29"}}]}