{"type":"FeatureCollection","features":[{"type":"Feature","geometry":{"type":"Point","coordinates":[-118.216252,34.204549]},"properties":{"NAME":"USC Verdugo Hills Hospital","ST_NUM":1812,"ST_DIR":" ","ST_NAME":"Verdugo","ST_TYPE":"Blvd"}},{"type":"Feature","geometry":{"type":"Point","coordinates":[-118.230246,34.150868]},"properties":{"NAME":"Glendale Adventist Medical Center","ST_NUM":1509,"ST_DIR":null,"ST_NAME":"Wilson Terrace","ST_TYPE":null}},{"type":"Feature","geometry":{"type":"Point","coordinates":[-118.257216,34.127936]},"properties":{"NAME":"Glendale Memorial Hospital and Health Center","ST_NUM":1420,"ST_DIR":"S","ST_NAME":"Central","ST_TYPE":"Ave"}}]}