{"type":"FeatureCollection","features":[{"type":"Feature","geometry":{"type":"Point","coordinates":[-118.229344,34.166547]},"properties":{"SCHOOL":"Glendale Community College","ADDRESS":"1500 N. Verdugo Rd.","School_typ":"Community College"}},{"type":"Feature","geometry":{"type":"Point","coordinates":[-118.245989,34.154047]},"properties":{"SCHOOL":"R.D. White Elementary","ADDRESS":"744 East Doran Street","School_typ":"Elementary"}},{"type":"Feature","geometry":{"type":"Point","coordinates":[-118.239356,34.147047]},"properties":{"SCHOOL":"John Marshall Elementary","ADDRESS":"1201 East Broadway","School_typ":"Elementary"}},{"type":"Feature","geometry":{"type":"Point","coordinates":[-118.238992,34.135452]},"properties":{"SCHOOL":"John Muir Elementary","ADDRESS":"912 S Chevy Chase Drive","School_typ":"Elementary"}},{"type":"Feature","geometry":{"type":"Point","coordinates":[-118.248955,34.13533]},"properties":{"SCHOOL":"Horace Mann Elementary","ADDRESS":"501 East Acacia Avenue","School_typ":"Elementary"}},{"type":"Feature","geometry":{"type":"Point","coordinates":[-118.265,34.140378]},"properties":{"SCHOOL":"Thomas Edison Elementary","ADDRESS":"435 South Pacific Ave","School_typ":"Elementary"}},{"type":"Feature","geometry":{"type":"Point","coordinates":[-118.262128,34.152986]},"properties":{"SCHOOL":"Columbus Elementary","ADDRESS":"425 West Milford","School_typ":"Elementary"}},{"type":"Feature","geometry":{"type":"Point","coordinates":[-118.272517,34.165139]},"properties":{"SCHOOL":"Mark Keppel Elementary","ADDRESS":"730 Glenwood Road","School_typ":"Elementary"}},{"type":"Feature","geometry":{"type":"Point","coordinates":[-118.286975,34.169615]},"properties":{"SCHOOL":"Thomas Jefferson Elementary","ADDRESS":"1540 Fifth Street","School_typ":"Elementary"}},{"type":"Feature","geometry":{"type":"Point","coordinates":[-118.286221,34.180192]},"properties":{"SCHOOL":"Balboa Elementary","ADDRESS":"1844 Bel Aire Drive","School_typ":"Elementary"}},{"type":"Feature","geometry":{"type":"Point","coordinates":[-118.269625,34.166526]},"properties":{"SCHOOL":"Herbert Hoover High School","ADDRESS":"651 Glenwood Road","School_typ":"High School"}},{"type":"Feature","geometry":{"type":"Point","coordinates":[-118.270866,34.164853]},"properties":{"SCHOOL":"Eleanor J. Toll Middle School","ADDRESS":"700 Glenwood Road","School_typ":"Middle School"}},{"type":"Feature","geometry":{"type":"Point","coordinates":[-118.29708,34.161497]},"properties":{"SCHOOL":"Benjamin Franklin Elementary","ADDRESS":"1610 Lake Street","School_typ":"Elementary"}},{"type":"Feature","geometry":{"type":"Point","coordinates":[-118.251101,34.149148]},"properties":{"SCHOOL":"Allan F. Daily High School","ADDRESS":"220 N. Kenwood Street","School_typ":"High School"}},{"type":"Feature","geometry":{"type":"Point","coordinates":[-118.253263,34.134103]},"properties":{"SCHOOL":"Theodore Roosevelt Middle School","ADDRESS":"222 East Acacia Avenue","School_typ":"Middle School"}},{"type":"Feature","geometry":{"type":"Point","coordinates":[-118.233425,34.145358]},"properties":{"SCHOOL":"Glendale High School","ADDRESS":"1440 East Broadway","School_typ":"High School"}},{"type":"Feature","geometry":{"type":"Point","coordinates":[-118.238737,34.15582]},"properties":{"SCHOOL":"Woodrow Wilson Middle School","ADDRESS":"1221 Monterey Road","School_typ":"Middle School"}},{"type":"Feature","geometry":{"type":"Point","coordinates":[-118.22153,34.151645]},"properties":{"SCHOOL":"Glenoaks Elementary","ADDRESS":"2015 East Glenoaks Blvd","School_typ":"Elementary"}},{"type":"Feature","geometry":{"type":"Point","coordinates":[-118.226984,34.173702]},"properties":{"SCHOOL":"Verdugo Woodlands Elementary","ADDRESS":"1751 North Verdugo Road","School_typ":"Elementary"}},{"type":"Feature","geometry":{"type":"Point","coordinates":[-118.231941,34.199757]},"properties":{"SCHOOL":"Fremont Elementary","ADDRESS":"3320 Las Palmas Avenue","School_typ":"Elementary"}},{"type":"Feature","geometry":{"type":"Point","coordinates":[-118.252754,34.227938]},"properties":{"SCHOOL":"Lincoln Elementary","ADDRESS":"4310 New York Avenue","School_typ":"Elementary"}},{"type":"Feature","geometry":{"type":"Point","coordinates":[-118.257796,34.239992]},"properties":{"SCHOOL":"Dunsmore Elementary","ADDRESS":"4717 Dunsmore Avenue","School_typ":"Elementary"}},{"type":"Feature","geometry":{"type":"Point","coordinates":[-118.253923,34.237239]},"properties":{"SCHOOL":"Anderson W. Clark Magnet High School","ADDRESS":"4747 New York Avenue","School_typ":"High School"}},{"type":"Feature","geometry":{"type":"Point","coordinates":[-118.254328,34.12506]},"properties":{"SCHOOL":"Cerritos Elementary","ADDRESS":"120 East Cerritos Ave","School_typ":"Elementary"}},{"type":"Feature","geometry":{"type":"Point","coordinates":[-118.250303,34.239211]},"properties":{"SCHOOL":"Valley View Elementary","ADDRESS":"4900 Maryland Avenue","School_typ":"Elementary"}},{"type":"Feature","geometry":{"type":"Point","coordinates":[-118.227737,34.164164]},"properties":{"SCHOOL":"College View School","ADDRESS":"1700 E. Mountain Street","School_typ":"High School"}},{"type":"Feature","geometry":{"type":"Point","coordinates":[-118.263355,34.14021]},"properties":{"SCHOOL":"Pacific Ave Education Center","ADDRESS":"440 W Lomita Ave","School_typ":"Elementary"}}]}