{"type":"FeatureCollection","features":[{"type":"Feature","geometry":{"type":"Polygon","coordinates":[[[-118.25502,34.13714],[-118.25497,34.13352],[-118.2505,34.13355],[-118.2498,34.13367],[-118.24772,34.1337],[-118.24697,34.13379],[-118.24174,34.1338],[-118.24175,34.13602],[-118.24988,34.136],[-118.24991,34.13715],[-118.25489,34.13715],[-118.25489,34.13838],[-118.25502,34.13836],[-118.25502,34.13714]]]},"properties":{"geoid":"06037302504","name":"Census Tract 3025.04","neighborhood":"Mariposa"}},{"type":"Feature","geometry":{"type":"Polygon","coordinates":[[[-118.2489,34.15471],[-118.24888,34.15177],[-118.24509,34.1518],[-118.23654,34.1517],[-118.23747,34.15492],[-118.24184,34.15617],[-118.23982,34.15876],[-118.24051,34.15932],[-118.24089,34.15992],[-118.24395,34.15885],[-118.24592,34.15796],[-118.24681,34.15774],[-118.2468,34.15475],[-118.2489,34.15471]]]},"properties":{"geoid":"06037301902","name":"Census Tract 3019.02","neighborhood":"City Center"}},{"type":"Feature","geometry":{"type":"Polygon","coordinates":[[[-118.25515,34.15866],[-118.25507,34.15174],[-118.24888,34.15177],[-118.2489,34.15471],[-118.2468,34.15475],[-118.24681,34.15774],[-118.24749,34.15765],[-118.24993,34.1576],[-118.2509,34.15767],[-118.25515,34.15866]]]},"properties":{"geoid":"06037301901","name":"Census Tract 3019.01","neighborhood":"City Center"}},{"type":"Feature","geometry":{"type":"Polygon","coordinates":[[[-118.2668,34.2311],[-118.26681,34.23068],[-118.26552,34.22999],[-118.2654,34.22963],[-118.26517,34.22935],[-118.26472,34.22901],[-118.26149,34.22803],[-118.2603,34.22746],[-118.2591,34.22666],[-118.25877,34.22634],[-118.25859,34.22601],[-118.25821,34.22488],[-118.25782,34.22425],[-118.25714,34.22386],[-118.25587,34.22358],[-118.25526,34.22308],[-118.25458,34.22213],[-118.25117,34.21869],[-118.25091,34.21832],[-118.24844,34.21572],[-118.24781,34.21631],[-118.2483,34.21663],[-118.2486,34.21695],[-118.24877,34.21759],[-118.24864,34.22957],[-118.26673,34.2408],[-118.2668,34.2311]]]},"properties":{"geoid":"06037300400","name":"Census Tract 3004","neighborhood":"Crescenta Highlands"}},{"type":"Feature","geometry":{"type":"Polygon","coordinates":[[[-118.29276,34.22165],[-118.28952,34.21798],[-118.28701,34.2176],[-118.28231,34.2146],[-118.27961,34.2133],[-118.27271,34.2089],[-118.25918,34.1985],[-118.25575,34.1923],[-118.25084,34.1891],[-118.2461,34.1804],[-118.24048,34.17811],[-118.23972,34.17742],[-118.23864,34.17704],[-118.23846,34.17674],[-118.23832,34.1761],[-118.23793,34.17573],[-118.23761,34.17559],[-118.23718,34.17555],[-118.2369,34.17562],[-118.236,34.17641],[-118.23559,34.17651],[-118.2348,34.17614],[-118.23395,34.17614],[-118.23369,34.17604],[-118.23358,34.17584],[-118.23349,34.17509],[-118.23289,34.17429],[-118.23261,34.1741],[-118.23216,34.1741],[-118.23166,34.17438],[-118.23131,34.17444],[-118.22981,34.17437],[-118.22796,34.17444],[-118.22764,34.17452],[-118.22727,34.17434],[-118.22716,34.17437],[-118.22673,34.17573],[-118.22638,34.17945],[-118.22661,34.18353],[-118.22696,34.1863],[-118.22745,34.18959],[-118.22781,34.19051],[-118.23171,34.19641],[-118.23237,34.19719],[-118.23414,34.19829],[-118.23468,34.19878],[-118.23668,34.20154],[-118.23752,34.20289],[-118.23972,34.20516],[-118.24018,34.20587],[-118.24053,34.20669],[-118.24196,34.20864],[-118.24844,34.21572],[-118.25091,34.21832],[-118.25117,34.21869],[-118.25458,34.22213],[-118.25526,34.22308],[-118.25587,34.22358],[-118.25714,34.22386],[-118.25749,34.224],[-118.25798,34.22441],[-118.25845,34.22547],[-118.25859,34.22601],[-118.25877,34.22634],[-118.2591,34.22666],[-118.2603,34.22746],[-118.26149,34.22803],[-118.26472,34.22901],[-118.26517,34.22935],[-118.2654,34.22963],[-118.26552,34.22999],[-118.26681,34.23068],[-118.26687,34.22185],[-118.29276,34.22165]]]},"properties":{"geoid":"06037300701","name":"Census Tract 3007.01","neighborhood":"Verdugo Mountains"}},{"type":"Feature","geometry":{"type":"Polygon","coordinates":[[[-118.26627,34.16952],[-118.26491,34.16307],[-118.26107,34.16369],[-118.25516,34.16367],[-118.25515,34.16674],[-118.25684,34.16674],[-118.25685,34.16847],[-118.26622,34.16962],[-118.26627,34.16952]]]},"properties":{"geoid":"06037301203","name":"Census Tract 3012.03","neighborhood":"Verdugo Viejo"}},{"type":"Feature","geometry":{"type":"Polygon","coordinates":[[[-118.22533,34.14953],[-118.22497,34.14936],[-118.22245,34.14925],[-118.22199,34.14886],[-118.21944,34.14828],[-118.21918,34.14751],[-118.21679,34.14753],[-118.2162,34.14722],[-118.2132,34.14727],[-118.21161,34.14718],[-118.21097,34.14622],[-118.20877,34.14651],[-118.20772,34.14725],[-118.20543,34.14743],[-118.20423,34.14928],[-118.20357,34.14969],[-118.2027,34.15063],[-118.19892,34.15115],[-118.19819,34.15163],[-118.1982,34.14905],[-118.18183,34.14906],[-118.18158,34.14991],[-118.18416,34.15973],[-118.18478,34.15977],[-118.18584,34.16353],[-118.18719,34.16521],[-118.18858,34.1657],[-118.18868,34.16517],[-118.18882,34.16491],[-118.18915,34.16469],[-118.18917,34.16453],[-118.18903,34.16427],[-118.18981,34.16441],[-118.18999,34.16413],[-118.18999,34.16383],[-118.1903,34.16375],[-118.1905,34.16351],[-118.19432,34.16178],[-118.1952,34.16162],[-118.19875,34.16177],[-118.19975,34.1616],[-118.20025,34.16142],[-118.2014,34.16078],[-118.20167,34.16045],[-118.20197,34.15946],[-118.20224,34.15923],[-118.20254,34.15914],[-118.20399,34.1592],[-118.20547,34.15892],[-118.20592,34.15851],[-118.20615,34.15776],[-118.20653,34.15747],[-118.20727,34.15742],[-118.2081,34.15795],[-118.20849,34.15803],[-118.20888,34.15792],[-118.20904,34.15774],[-118.20962,34.15761],[-118.21045,34.15763],[-118.21115,34.15728],[-118.21315,34.15529],[-118.21433,34.1549],[-118.21546,34.15476],[-118.217,34.15474],[-118.21853,34.15446],[-118.22089,34.15356],[-118.22227,34.15337],[-118.2223,34.15319],[-118.22244,34.15309],[-118.22295,34.15304],[-118.22331,34.15316],[-118.22349,34.15314],[-118.22361,34.15182],[-118.22457,34.15212],[-118.22533,34.14953]]]},"properties":{"geoid":"06037300902","name":"Census Tract 3009.02","neighborhood":"Glenoaks Canyon"}},{"type":"Feature","geometry":{"type":"Polygon","coordinates":[[[-118.24878,34.21784],[-118.24874,34.2173],[-118.2486,34.21695],[-118.2483,34.21663],[-118.24781,34.21631],[-118.24844,34.21572],[-118.24449,34.21141],[-118.24436,34.21201],[-118.24435,34.21474],[-118.24425,34.21473],[-118.24012,34.21214],[-118.23998,34.21211],[-118.23997,34.21264],[-118.23523,34.20974],[-118.2352,34.21303],[-118.23767,34.21456],[-118.23758,34.21467],[-118.23757,34.21541],[-118.23953,34.2166],[-118.23953,34.21752],[-118.23978,34.21767],[-118.23996,34.21768],[-118.23996,34.21679],[-118.24009,34.21679],[-118.2404,34.21698],[-118.2404,34.21715],[-118.24347,34.21907],[-118.24346,34.21867],[-118.24373,34.21883],[-118.24403,34.2185],[-118.24435,34.21871],[-118.24433,34.22025],[-118.24546,34.22094],[-118.24844,34.22224],[-118.24875,34.22224],[-118.24878,34.21784]]]},"properties":{"geoid":"06037300601","name":"Census Tract 3006.01","neighborhood":"Montrose"}},{"type":"Feature","geometry":{"type":"Polygon","coordinates":[[[-118.24181,34.15621],[-118.24154,34.15607],[-118.23966,34.1555],[-118.23747,34.15492],[-118.23673,34.15234],[-118.23478,34.1509],[-118.23235,34.14933],[-118.23031,34.14826],[-118.22779,34.1472],[-118.22745,34.14776],[-118.227,34.14763],[-118.22694,34.14861],[-118.22623,34.14979],[-118.22534,34.14949],[-118.22414,34.15386],[-118.22403,34.15519],[-118.22416,34.15616],[-118.22502,34.15875],[-118.22532,34.15992],[-118.22545,34.16075],[-118.22537,34.1622],[-118.22474,34.16428],[-118.22654,34.16446],[-118.22875,34.16511],[-118.22958,34.16503],[-118.23103,34.16473],[-118.23206,34.16429],[-118.23271,34.1638],[-118.23301,34.16409],[-118.23213,34.16508],[-118.23306,34.16566],[-118.23408,34.16437],[-118.236,34.16224],[-118.23812,34.16094],[-118.24089,34.15992],[-118.24051,34.15932],[-118.23982,34.15876],[-118.24181,34.15621]]]},"properties":{"geoid":"06037301000","name":"Census Tract 3010","neighborhood":"Woodbury"}},{"type":"Feature","geometry":{"type":"Polygon","coordinates":[[[-118.25716,34.12152],[-118.25729,34.12145],[-118.25426,34.11876],[-118.25113,34.12095],[-118.25364,34.1233],[-118.25331,34.12432],[-118.25347,34.12413],[-118.25248,34.13006],[-118.24999,34.12932],[-118.24887,34.12912],[-118.24876,34.13265],[-118.24905,34.13265],[-118.24905,34.13368],[-118.2498,34.13367],[-118.2505,34.13355],[-118.25497,34.13352],[-118.25494,34.12659],[-118.25505,34.12432],[-118.25563,34.12308],[-118.25611,34.12249],[-118.25716,34.12152]]]},"properties":{"geoid":"06037302505","name":"Census Tract 3025.05","neighborhood":"Tropico"}},{"type":"Feature","geometry":{"type":"Polygon","coordinates":[[[-118.25345,34.1242],[-118.25347,34.12413],[-118.25326,34.12445],[-118.25286,34.1243],[-118.23878,34.12623],[-118.24229,34.13241],[-118.2423,34.13264],[-118.24208,34.13264],[-118.24148,34.13312],[-118.2417,34.1335],[-118.24174,34.1338],[-118.24697,34.13379],[-118.24772,34.1337],[-118.24905,34.13368],[-118.24905,34.13265],[-118.24876,34.13265],[-118.24887,34.12912],[-118.24999,34.12932],[-118.25248,34.13006],[-118.25345,34.1242]]]},"properties":{"geoid":"06037302506","name":"Census Tract 3025.06","neighborhood":"Adams Hill"}},{"type":"Feature","geometry":{"type":"Polygon","coordinates":[[[-118.26669,34.24793],[-118.26669,34.24777],[-118.26604,34.24777],[-118.26602,34.24036],[-118.24864,34.22957],[-118.24853,34.24396],[-118.24839,34.24405],[-118.24769,34.24379],[-118.24747,34.24419],[-118.24701,34.24402],[-118.24698,34.24424],[-118.24661,34.2445],[-118.2463,34.24524],[-118.24603,34.2452],[-118.24599,34.24512],[-118.24562,34.24596],[-118.24566,34.246],[-118.24528,34.24637],[-118.2445,34.24598],[-118.24412,34.24593],[-118.24373,34.24652],[-118.24375,34.24668],[-118.24364,34.24671],[-118.24347,34.24659],[-118.24337,34.25231],[-118.23874,34.25226],[-118.23849,34.26707],[-118.25669,34.26719],[-118.2565,34.25227],[-118.26526,34.25238],[-118.2653,34.25027],[-118.26667,34.25078],[-118.26669,34.24793]]]},"properties":{"geoid":"06037300301","name":"Census Tract 3003.01","neighborhood":"San Gabriel Mountains"}},{"type":"Feature","geometry":{"type":"Polygon","coordinates":[[[-118.2806,34.16762],[-118.28068,34.16736],[-118.26517,34.16426],[-118.26625,34.16929],[-118.26622,34.16962],[-118.26809,34.16987],[-118.2703,34.17073],[-118.27918,34.17249],[-118.2806,34.16762]]]},"properties":{"geoid":"06037301205","name":"Census Tract 3012.05","neighborhood":"Glenwood"}},{"type":"Feature","geometry":{"type":"Polygon","coordinates":[[[-118.25507,34.15174],[-118.25506,34.14627],[-118.24715,34.14635],[-118.2453,34.15085],[-118.24475,34.15179],[-118.25507,34.15174]]]},"properties":{"geoid":"06037302002","name":"Census Tract 3020.02","neighborhood":"City Center"}},{"type":"Feature","geometry":{"type":"Polygon","coordinates":[[[-118.23306,34.16566],[-118.23213,34.16508],[-118.23301,34.16409],[-118.23271,34.1638],[-118.23206,34.16429],[-118.23103,34.16473],[-118.22958,34.16503],[-118.22875,34.16511],[-118.22654,34.16446],[-118.22391,34.16419],[-118.22313,34.16463],[-118.22216,34.16589],[-118.22004,34.16664],[-118.21988,34.16661],[-118.21926,34.16616],[-118.21911,34.16584],[-118.2172,34.16602],[-118.21522,34.16658],[-118.21423,34.16711],[-118.21279,34.16773],[-118.21243,34.16818],[-118.2124,34.16855],[-118.21252,34.16887],[-118.21268,34.16908],[-118.21401,34.1702],[-118.21532,34.17224],[-118.21534,34.17287],[-118.21496,34.17384],[-118.21492,34.17415],[-118.21506,34.17469],[-118.21562,34.17561],[-118.21567,34.17613],[-118.21556,34.17658],[-118.21472,34.17777],[-118.21323,34.17862],[-118.21298,34.17885],[-118.21275,34.17925],[-118.21266,34.18017],[-118.21251,34.18041],[-118.21208,34.18065],[-118.2111,34.18071],[-118.21059,34.18101],[-118.20992,34.18247],[-118.20995,34.18291],[-118.21017,34.18326],[-118.20984,34.18355],[-118.20924,34.1845],[-118.20895,34.1847],[-118.20817,34.18492],[-118.20821,34.18547],[-118.20798,34.18585],[-118.20747,34.18614],[-118.20658,34.18648],[-118.20599,34.18696],[-118.2081,34.18757],[-118.20778,34.1893],[-118.20793,34.19028],[-118.20808,34.19066],[-118.21101,34.19276],[-118.21216,34.1927],[-118.21344,34.19409],[-118.21264,34.19506],[-118.21281,34.19534],[-118.21459,34.19618],[-118.21534,34.19727],[-118.21672,34.19779],[-118.217,34.20046],[-118.21721,34.20098],[-118.2177,34.20115],[-118.21768,34.20295],[-118.2157,34.20324],[-118.21548,34.20354],[-118.21501,34.20354],[-118.215,34.2064],[-118.21628,34.20604],[-118.2166,34.20584],[-118.21658,34.20571],[-118.21835,34.20554],[-118.22027,34.20503],[-118.22026,34.20631],[-118.22072,34.20631],[-118.22114,34.20612],[-118.22213,34.20619],[-118.22211,34.20568],[-118.22339,34.20599],[-118.22339,34.20549],[-118.22345,34.20548],[-118.22418,34.2056],[-118.22416,34.2057],[-118.22469,34.20577],[-118.2249,34.20571],[-118.2251,34.20523],[-118.22608,34.20368],[-118.22603,34.20366],[-118.22878,34.19964],[-118.22919,34.19816],[-118.22953,34.19651],[-118.22769,34.19238],[-118.22795,34.19271],[-118.22798,34.19192],[-118.22825,34.19119],[-118.22771,34.19032],[-118.22745,34.18959],[-118.22661,34.18353],[-118.22638,34.17945],[-118.22673,34.17573],[-118.22718,34.1743],[-118.22829,34.17144],[-118.22925,34.16966],[-118.2301,34.1684],[-118.23263,34.16621],[-118.23306,34.16566]]]},"properties":{"geoid":"06037300800","name":"Census Tract 3008","neighborhood":"Verdugo Woodlands"}},{"type":"Feature","geometry":{"type":"Polygon","coordinates":[[[-118.28134,34.16515],[-118.28139,34.16499],[-118.27683,34.16172],[-118.27572,34.16115],[-118.27407,34.16047],[-118.27193,34.15997],[-118.26407,34.15935],[-118.26517,34.16426],[-118.28068,34.16736],[-118.28134,34.16515]]]},"properties":{"geoid":"06037301206","name":"Census Tract 3012.06","neighborhood":"Glenwood"}},{"type":"Feature","geometry":{"type":"Polygon","coordinates":[[[-118.25516,34.16521],[-118.25515,34.1587],[-118.25187,34.15784],[-118.2509,34.15767],[-118.24993,34.1576],[-118.24749,34.15765],[-118.24634,34.15782],[-118.24592,34.15796],[-118.24395,34.15885],[-118.23812,34.16094],[-118.236,34.16224],[-118.23408,34.16437],[-118.23306,34.16566],[-118.23444,34.16652],[-118.2357,34.16645],[-118.23611,34.16635],[-118.2366,34.16608],[-118.23701,34.16568],[-118.23717,34.16547],[-118.23757,34.16449],[-118.2381,34.16381],[-118.2387,34.1635],[-118.23898,34.16346],[-118.23929,34.16347],[-118.23976,34.16367],[-118.24059,34.1643],[-118.24185,34.16452],[-118.24337,34.16507],[-118.24386,34.16512],[-118.24488,34.16498],[-118.24554,34.16502],[-118.24712,34.1655],[-118.24817,34.16567],[-118.24865,34.16591],[-118.24919,34.16648],[-118.24971,34.16673],[-118.25515,34.16674],[-118.25516,34.16521]]]},"properties":{"geoid":"06037301100","name":"Census Tract 3011","neighborhood":"Rossmoyne"}},{"type":"Feature","geometry":{"type":"Polygon","coordinates":[[[-118.26491,34.16307],[-118.26407,34.15935],[-118.26257,34.1593],[-118.2575,34.15936],[-118.25514,34.1592],[-118.25516,34.16367],[-118.26107,34.16369],[-118.26491,34.16307]]]},"properties":{"geoid":"06037301204","name":"Census Tract 3012.04","neighborhood":"Verdugo Viejo"}},{"type":"Feature","geometry":{"type":"Polygon","coordinates":[[[-118.27918,34.17249],[-118.2703,34.17073],[-118.26847,34.16999],[-118.26765,34.16978],[-118.26104,34.169],[-118.26112,34.16953],[-118.26113,34.1708],[-118.26195,34.17112],[-118.26282,34.17124],[-118.26312,34.17142],[-118.26336,34.17171],[-118.26426,34.17202],[-118.26486,34.17233],[-118.26645,34.1733],[-118.26753,34.17406],[-118.26884,34.17459],[-118.26796,34.1764],[-118.2672,34.17705],[-118.26744,34.17716],[-118.26807,34.17694],[-118.26846,34.17699],[-118.26854,34.17724],[-118.26835,34.17802],[-118.26931,34.17831],[-118.26981,34.17831],[-118.27001,34.17921],[-118.26861,34.18071],[-118.26901,34.1821],[-118.26911,34.1839],[-118.27141,34.1823],[-118.27161,34.18111],[-118.27346,34.18021],[-118.27387,34.17981],[-118.2751,34.17972],[-118.27511,34.18022],[-118.27684,34.18031],[-118.27695,34.18021],[-118.27918,34.17249]]]},"properties":{"geoid":"06037301300","name":"Census Tract 3013","neighborhood":"Glenwood"}},{"type":"Feature","geometry":{"type":"Polygon","coordinates":[[[-118.22547,34.16131],[-118.22532,34.15992],[-118.22502,34.15875],[-118.22416,34.15616],[-118.22405,34.15549],[-118.22403,34.15477],[-118.22414,34.15386],[-118.22457,34.15212],[-118.22361,34.15182],[-118.22353,34.15307],[-118.2234,34.15318],[-118.22305,34.15305],[-118.22244,34.15309],[-118.2223,34.15319],[-118.22227,34.15337],[-118.22089,34.15356],[-118.21853,34.15446],[-118.217,34.15474],[-118.21546,34.15476],[-118.21433,34.1549],[-118.21315,34.15529],[-118.21115,34.15728],[-118.21045,34.15763],[-118.20962,34.15761],[-118.20904,34.15774],[-118.20888,34.15792],[-118.20849,34.15803],[-118.2081,34.15795],[-118.20727,34.15742],[-118.20677,34.15741],[-118.20653,34.15747],[-118.20615,34.15776],[-118.20592,34.15851],[-118.20547,34.15892],[-118.20399,34.1592],[-118.20239,34.15916],[-118.20197,34.15946],[-118.20167,34.16045],[-118.2014,34.16078],[-118.20025,34.16142],[-118.19975,34.1616],[-118.19875,34.16177],[-118.1952,34.16162],[-118.19478,34.16165],[-118.19347,34.16212],[-118.19098,34.16325],[-118.1905,34.16351],[-118.1903,34.16375],[-118.18999,34.16383],[-118.18999,34.16413],[-118.18981,34.16441],[-118.18903,34.16427],[-118.18917,34.16453],[-118.18915,34.16469],[-118.18882,34.16491],[-118.18868,34.16517],[-118.18858,34.1657],[-118.18791,34.16672],[-118.18907,34.16908],[-118.18976,34.16909],[-118.19048,34.17032],[-118.19097,34.1732],[-118.18888,34.17788],[-118.18929,34.17834],[-118.18892,34.17856],[-118.18953,34.17908],[-118.18992,34.17925],[-118.19004,34.17919],[-118.19082,34.18008],[-118.19173,34.18027],[-118.19224,34.18022],[-118.19236,34.18045],[-118.19644,34.17989],[-118.1971,34.1805],[-118.1993,34.18211],[-118.20472,34.18567],[-118.20582,34.18692],[-118.20599,34.18696],[-118.20658,34.18648],[-118.20747,34.18614],[-118.20798,34.18585],[-118.20821,34.18547],[-118.20817,34.18492],[-118.20895,34.1847],[-118.20924,34.1845],[-118.20984,34.18355],[-118.21017,34.18326],[-118.20995,34.18291],[-118.20992,34.18247],[-118.21059,34.18101],[-118.2111,34.18071],[-118.21208,34.18065],[-118.21251,34.18041],[-118.21266,34.18017],[-118.21275,34.17925],[-118.21298,34.17885],[-118.21323,34.17862],[-118.21472,34.17777],[-118.21556,34.17658],[-118.21567,34.17613],[-118.21562,34.17561],[-118.21506,34.17469],[-118.21492,34.17415],[-118.21496,34.17384],[-118.21534,34.17287],[-118.21532,34.17224],[-118.21401,34.1702],[-118.21268,34.16908],[-118.21245,34.16875],[-118.21243,34.1682],[-118.21261,34.16789],[-118.21299,34.16762],[-118.21423,34.16711],[-118.21522,34.16658],[-118.2172,34.16602],[-118.21911,34.16584],[-118.21926,34.16616],[-118.21988,34.16661],[-118.22004,34.16664],[-118.22216,34.16589],[-118.22313,34.16463],[-118.22391,34.16419],[-118.22474,34.16428],[-118.22521,34.16285],[-118.22547,34.16131]]]},"properties":{"geoid":"06037300901","name":"Census Tract 3009.01","neighborhood":"Chevy Chase"}},{"type":"Feature","geometry":{"type":"Polygon","coordinates":[[[-118.26981,34.14199],[-118.26811,34.13868],[-118.26797,34.13873],[-118.26758,34.13863],[-118.26711,34.1387],[-118.26439,34.13871],[-118.26438,34.13761],[-118.25785,34.13769],[-118.25785,34.13806],[-118.25502,34.13836],[-118.25504,34.14259],[-118.26926,34.14246],[-118.26951,34.14242],[-118.26929,34.14196],[-118.26981,34.14199]]]},"properties":{"geoid":"06037302302","name":"Census Tract 3023.02","neighborhood":"Pacific-Edison"}},{"type":"Feature","geometry":{"type":"Polygon","coordinates":[[[-118.25504,34.14259],[-118.25502,34.13836],[-118.25098,34.13877],[-118.25086,34.13903],[-118.24177,34.13902],[-118.24177,34.14264],[-118.2467,34.14268],[-118.25504,34.14259]]]},"properties":{"geoid":"06037302202","name":"Census Tract 3022.02","neighborhood":"Mariposa"}},{"type":"Feature","geometry":{"type":"Polygon","coordinates":[[[-118.28952,34.21798],[-118.2801,34.20746],[-118.27996,34.19046],[-118.27951,34.18967],[-118.27651,34.18701],[-118.27783,34.1837],[-118.27897,34.18174],[-118.27695,34.18021],[-118.27684,34.18031],[-118.27511,34.18022],[-118.2751,34.17972],[-118.27387,34.17981],[-118.27346,34.18021],[-118.27161,34.18111],[-118.27141,34.1823],[-118.26911,34.1839],[-118.26901,34.1821],[-118.26861,34.18071],[-118.27001,34.17921],[-118.26981,34.17831],[-118.26931,34.17831],[-118.26835,34.17802],[-118.26854,34.17724],[-118.26846,34.17699],[-118.26807,34.17694],[-118.26744,34.17716],[-118.2672,34.17705],[-118.26796,34.1764],[-118.26884,34.17459],[-118.26753,34.17406],[-118.26645,34.1733],[-118.26486,34.17233],[-118.26426,34.17202],[-118.26336,34.17171],[-118.26312,34.17142],[-118.26282,34.17124],[-118.26195,34.17112],[-118.26113,34.1708],[-118.26112,34.16953],[-118.26104,34.169],[-118.25685,34.16847],[-118.25684,34.16674],[-118.24971,34.16673],[-118.24919,34.16648],[-118.24865,34.16591],[-118.24817,34.16567],[-118.24712,34.1655],[-118.24554,34.16502],[-118.24488,34.16498],[-118.24386,34.16512],[-118.24337,34.16507],[-118.24185,34.16452],[-118.24059,34.1643],[-118.23976,34.16367],[-118.23929,34.16347],[-118.23898,34.16346],[-118.2387,34.1635],[-118.2381,34.16381],[-118.23757,34.16449],[-118.23717,34.16547],[-118.23681,34.16591],[-118.23632,34.16625],[-118.2357,34.16645],[-118.23444,34.16652],[-118.23306,34.16566],[-118.23263,34.16621],[-118.2301,34.1684],[-118.22925,34.16966],[-118.22829,34.17144],[-118.22716,34.17437],[-118.22727,34.17434],[-118.22764,34.17452],[-118.22796,34.17444],[-118.22981,34.17437],[-118.23131,34.17444],[-118.23166,34.17438],[-118.23216,34.1741],[-118.23261,34.1741],[-118.23289,34.17429],[-118.23349,34.17509],[-118.23358,34.17584],[-118.23369,34.17604],[-118.23395,34.17614],[-118.2348,34.17614],[-118.23559,34.17651],[-118.236,34.17641],[-118.2369,34.17562],[-118.23718,34.17555],[-118.23761,34.17559],[-118.23793,34.17573],[-118.23832,34.1761],[-118.23846,34.17674],[-118.23864,34.17704],[-118.23972,34.17742],[-118.24048,34.17811],[-118.2461,34.1804],[-118.25084,34.1891],[-118.25575,34.1923],[-118.25918,34.1985],[-118.27271,34.2089],[-118.27961,34.2133],[-118.28231,34.2146],[-118.28701,34.2176],[-118.28952,34.21798]]]},"properties":{"geoid":"06037300702","name":"Census Tract 3007.02","neighborhood":"Verdugo Mountains"}},{"type":"Feature","geometry":{"type":"Polygon","coordinates":[[[-118.24708,34.14657],[-118.24715,34.14635],[-118.24181,34.14625],[-118.24182,34.15174],[-118.24475,34.15179],[-118.2452,34.15109],[-118.24708,34.14657]]]},"properties":{"geoid":"06037302003","name":"Census Tract 3020.03","neighborhood":"Citrus Grove"}},{"type":"Feature","geometry":{"type":"Polygon","coordinates":[[[-118.29292,34.18177],[-118.29298,34.18171],[-118.28131,34.17319],[-118.28069,34.17278],[-118.27918,34.17249],[-118.27695,34.18021],[-118.27897,34.18174],[-118.27783,34.1837],[-118.27651,34.18701],[-118.27951,34.18967],[-118.27996,34.19046],[-118.27998,34.1907],[-118.2835,34.18585],[-118.28781,34.18766],[-118.28827,34.18715],[-118.29009,34.18462],[-118.29173,34.18289],[-118.29292,34.18177]]]},"properties":{"geoid":"06037301400","name":"Census Tract 3014","neighborhood":"El Miradero"}},{"type":"Feature","geometry":{"type":"Polygon","coordinates":[[[-118.2954,34.17941],[-118.28037,34.16845],[-118.27918,34.17249],[-118.28069,34.17278],[-118.28131,34.17319],[-118.29298,34.18171],[-118.2954,34.17941]]]},"properties":{"geoid":"06037301501","name":"Census Tract 3015.01","neighborhood":"Grandview"}},{"type":"Feature","geometry":{"type":"Polygon","coordinates":[[[-118.24181,34.14625],[-118.24177,34.13902],[-118.23734,34.139],[-118.23357,34.13988],[-118.23357,34.14103],[-118.23501,34.14618],[-118.24181,34.14625]]]},"properties":{"geoid":"06037302103","name":"Census Tract 3021.03","neighborhood":"Somerset"}},{"type":"Feature","geometry":{"type":"Polygon","coordinates":[[[-118.24182,34.15174],[-118.24181,34.14625],[-118.23501,34.14618],[-118.23654,34.1517],[-118.24182,34.15174]]]},"properties":{"geoid":"06037302004","name":"Census Tract 3020.04","neighborhood":"Citrus Grove"}},{"type":"Feature","geometry":{"type":"Polygon","coordinates":[[[-118.26797,34.13873],[-118.26811,34.13868],[-118.26347,34.12967],[-118.26234,34.12768],[-118.26107,34.12577],[-118.25961,34.12391],[-118.25759,34.12173],[-118.25729,34.12145],[-118.25716,34.12152],[-118.25611,34.12249],[-118.25563,34.12308],[-118.25514,34.12404],[-118.25501,34.12456],[-118.25494,34.12734],[-118.25502,34.13836],[-118.25785,34.13806],[-118.25785,34.13769],[-118.26438,34.13761],[-118.26439,34.13871],[-118.26711,34.1387],[-118.26758,34.13863],[-118.26797,34.13873]]]},"properties":{"geoid":"06037302401","name":"Census Tract 3024.01","neighborhood":"Tropico"}},{"type":"Feature","geometry":{"type":"Polygon","coordinates":[[[-118.25489,34.13838],[-118.25489,34.13715],[-118.24991,34.13715],[-118.24988,34.136],[-118.24175,34.13602],[-118.24177,34.13902],[-118.25086,34.13903],[-118.25098,34.13877],[-118.25489,34.13838]]]},"properties":{"geoid":"06037302503","name":"Census Tract 3025.03","neighborhood":"Mariposa"}},{"type":"Feature","geometry":{"type":"Polygon","coordinates":[[[-118.2646,34.15524],[-118.26455,34.15159],[-118.25507,34.15174],[-118.25514,34.1592],[-118.2575,34.15936],[-118.26257,34.1593],[-118.26407,34.15935],[-118.26406,34.15753],[-118.26456,34.15581],[-118.2646,34.15524]]]},"properties":{"geoid":"06037301801","name":"Census Tract 3018.01","neighborhood":"Vineyard"}},{"type":"Feature","geometry":{"type":"Polygon","coordinates":[[[-118.26455,34.15159],[-118.26452,34.1474],[-118.26426,34.14681],[-118.2577,34.14687],[-118.25713,34.14674],[-118.25587,34.14626],[-118.25506,34.14627],[-118.25507,34.15174],[-118.26455,34.15159]]]},"properties":{"geoid":"06037301802","name":"Census Tract 3018.02","neighborhood":"Vineyard"}},{"type":"Feature","geometry":{"type":"Polygon","coordinates":[[[-118.29779,34.17715],[-118.29639,34.17612],[-118.29652,34.17598],[-118.29631,34.17583],[-118.28139,34.16499],[-118.28037,34.16845],[-118.2954,34.17941],[-118.29779,34.17715]]]},"properties":{"geoid":"06037301502","name":"Census Tract 3015.02","neighborhood":"Grandview"}},{"type":"Feature","geometry":{"type":"Polygon","coordinates":[[[-118.30077,34.16784],[-118.29531,34.16385],[-118.29452,34.16318],[-118.29372,34.16229],[-118.29341,34.16184],[-118.2907,34.1573],[-118.2899,34.15624],[-118.2894,34.15575],[-118.28747,34.15577],[-118.28278,34.15681],[-118.2805,34.15633],[-118.27932,34.15513],[-118.27898,34.1532],[-118.2754,34.15317],[-118.27661,34.15513],[-118.27771,34.15664],[-118.27857,34.15766],[-118.28065,34.15971],[-118.28282,34.16146],[-118.28243,34.16181],[-118.28225,34.16216],[-118.28139,34.16499],[-118.29652,34.17598],[-118.29933,34.17331],[-118.29687,34.17153],[-118.30077,34.16784]]]},"properties":{"geoid":"06037301601","name":"Census Tract 3016.01","neighborhood":"Grand Central"}},{"type":"Feature","geometry":{"type":"Polygon","coordinates":[[[-118.28275,34.16154],[-118.28282,34.16146],[-118.28065,34.15971],[-118.27857,34.15766],[-118.27771,34.15664],[-118.27661,34.15513],[-118.27569,34.15367],[-118.26694,34.15568],[-118.26449,34.1561],[-118.26406,34.15753],[-118.26407,34.15935],[-118.27193,34.15997],[-118.27407,34.16047],[-118.27572,34.16115],[-118.27683,34.16172],[-118.28139,34.16499],[-118.28225,34.16216],[-118.28243,34.16181],[-118.28275,34.16154]]]},"properties":{"geoid":"06037301701","name":"Census Tract 3017.01","neighborhood":"Pelanconi"}},{"type":"Feature","geometry":{"type":"Polygon","coordinates":[[[-118.30781,34.16114],[-118.30725,34.16096],[-118.30433,34.15884],[-118.30283,34.1585],[-118.30282,34.15859],[-118.29883,34.15768],[-118.29742,34.15887],[-118.2956,34.1588],[-118.29154,34.15578],[-118.2894,34.15575],[-118.2899,34.15624],[-118.2907,34.1573],[-118.29341,34.16184],[-118.29372,34.16229],[-118.29452,34.16318],[-118.29531,34.16385],[-118.30077,34.16784],[-118.30781,34.16114]]]},"properties":{"geoid":"06037301602","name":"Census Tract 3016.02","neighborhood":"Riverside Rancho"}},{"type":"Feature","geometry":{"type":"Polygon","coordinates":[[[-118.27588,34.15316],[-118.27601,34.15316],[-118.27455,34.15034],[-118.27382,34.14961],[-118.27373,34.14961],[-118.27227,34.14676],[-118.26426,34.14681],[-118.26452,34.1474],[-118.2646,34.15486],[-118.26458,34.15562],[-118.26449,34.1561],[-118.26694,34.15568],[-118.27569,34.15367],[-118.2754,34.15317],[-118.27588,34.15316]]]},"properties":{"geoid":"06037301702","name":"Census Tract 3017.02","neighborhood":"Vineyard"}},{"type":"Feature","geometry":{"type":"Polygon","coordinates":[[[-118.24446,34.21151],[-118.24449,34.21141],[-118.24196,34.20864],[-118.24108,34.20751],[-118.24053,34.20669],[-118.24018,34.20587],[-118.23972,34.20516],[-118.23752,34.20289],[-118.23668,34.20154],[-118.23468,34.19878],[-118.23414,34.19829],[-118.23282,34.19752],[-118.23208,34.19689],[-118.22825,34.19119],[-118.22798,34.19192],[-118.22795,34.19271],[-118.22769,34.19238],[-118.22953,34.19651],[-118.22919,34.19816],[-118.22878,34.19964],[-118.22603,34.20366],[-118.22608,34.20368],[-118.2251,34.20523],[-118.2249,34.20571],[-118.22512,34.20564],[-118.22573,34.20574],[-118.22562,34.20643],[-118.2268,34.20643],[-118.22745,34.20655],[-118.22761,34.20598],[-118.22793,34.20603],[-118.22861,34.20628],[-118.22835,34.20678],[-118.22865,34.20688],[-118.22891,34.20639],[-118.22936,34.20656],[-118.22911,34.20704],[-118.22942,34.20715],[-118.22967,34.20667],[-118.23084,34.2071],[-118.23059,34.20758],[-118.23073,34.20764],[-118.23097,34.20714],[-118.23152,34.20734],[-118.23194,34.20757],[-118.23225,34.20833],[-118.23257,34.20825],[-118.23257,34.20812],[-118.23301,34.208],[-118.23301,34.20792],[-118.23315,34.20794],[-118.23315,34.20783],[-118.23524,34.20914],[-118.23523,34.20974],[-118.23997,34.21264],[-118.23998,34.21211],[-118.24012,34.21214],[-118.24425,34.21473],[-118.24435,34.21474],[-118.24436,34.21201],[-118.24446,34.21151]]]},"properties":{"geoid":"06037300602","name":"Census Tract 3006.02","neighborhood":"Sparr Heights"}},{"type":"Feature","geometry":{"type":"Polygon","coordinates":[[[-118.2423,34.13264],[-118.24229,34.13241],[-118.24216,34.13215],[-118.23878,34.12623],[-118.23524,34.12672],[-118.23531,34.1276],[-118.23602,34.12883],[-118.23661,34.13271],[-118.23627,34.1345],[-118.23361,34.13451],[-118.2336,34.1356],[-118.22792,34.1356],[-118.22788,34.13808],[-118.22915,34.13808],[-118.22916,34.13907],[-118.22878,34.13907],[-118.22879,34.14025],[-118.23356,34.14026],[-118.23357,34.13988],[-118.23734,34.139],[-118.24177,34.13902],[-118.24174,34.13373],[-118.2417,34.1335],[-118.24148,34.13312],[-118.24208,34.13264],[-118.2423,34.13264]]]},"properties":{"geoid":"06037302102","name":"Census Tract 3021.02","neighborhood":"Adams Hill"}},{"type":"Feature","geometry":{"type":"Polygon","coordinates":[[[-118.23673,34.15234],[-118.23368,34.14149],[-118.23357,34.14103],[-118.23356,34.14026],[-118.22879,34.14025],[-118.22877,34.14603],[-118.22858,34.14588],[-118.22824,34.14645],[-118.22868,34.14673],[-118.2286,34.14689],[-118.22808,34.14672],[-118.22779,34.1472],[-118.23031,34.14826],[-118.23235,34.14933],[-118.23478,34.1509],[-118.23673,34.15234]]]},"properties":{"geoid":"06037302104","name":"Census Tract 3021.04","neighborhood":"Citrus Grove"}},{"type":"Feature","geometry":{"type":"Polygon","coordinates":[[[-118.25506,34.14627],[-118.25504,34.14259],[-118.2467,34.14268],[-118.24177,34.14264],[-118.24181,34.14625],[-118.24639,34.14635],[-118.25506,34.14627]]]},"properties":{"geoid":"06037302201","name":"Census Tract 3022.01","neighborhood":"City Center"}},{"type":"Feature","geometry":{"type":"Polygon","coordinates":[[[-118.2721,34.14675],[-118.27227,34.14676],[-118.26981,34.14199],[-118.26929,34.14196],[-118.26951,34.14242],[-118.26926,34.14246],[-118.25504,34.14259],[-118.25506,34.14627],[-118.25587,34.14626],[-118.25713,34.14674],[-118.2577,34.14687],[-118.2721,34.14675]]]},"properties":{"geoid":"06037302301","name":"Census Tract 3023.01","neighborhood":"Moorpark"}}]}