{"type":"FeatureCollection","features":[{"type":"Feature","geometry":{"type":"Polygon","coordinates":[[[-118.23479,34.2202],[-118.23472,34.22042],[-118.23504,34.2205],[-118.23504,34.22093],[-118.23515,34.22118],[-118.23521,34.21483],[-118.23539,34.21485],[-118.2356,34.21463],[-118.23714,34.21558],[-118.23715,34.21514],[-118.23932,34.21647],[-118.23935,34.21605],[-118.23985,34.21636],[-118.23985,34.2161],[-118.23999,34.21601],[-118.23999,34.21271],[-118.23986,34.21241],[-118.23986,34.21199],[-118.23943,34.21172],[-118.23953,34.21161],[-118.23986,34.21181],[-118.23976,34.21112],[-118.23948,34.21095],[-118.23974,34.21066],[-118.23946,34.21048],[-118.23976,34.21015],[-118.2398,34.21001],[-118.23967,34.20992],[-118.23989,34.20967],[-118.23938,34.20933],[-118.23961,34.20907],[-118.23573,34.20767],[-118.2357,34.20774],[-118.2354,34.20763],[-118.2354,34.20793],[-118.23482,34.20763],[-118.23482,34.20734],[-118.23208,34.20634],[-118.23205,34.20639],[-118.22863,34.2051],[-118.22843,34.20548],[-118.22772,34.20531],[-118.2278,34.20498],[-118.22685,34.20484],[-118.22669,34.20529],[-118.22676,34.2048],[-118.22715,34.20409],[-118.22703,34.20413],[-118.22689,34.2044],[-118.22643,34.20423],[-118.22658,34.20396],[-118.22554,34.20359],[-118.22533,34.2039],[-118.22384,34.20336],[-118.22391,34.20322],[-118.22405,34.20323],[-118.22406,34.20302],[-118.22344,34.20296],[-118.2232,34.20297],[-118.22315,34.2031],[-118.22256,34.20303],[-118.22256,34.20332],[-118.22214,34.20328],[-118.22213,34.20472],[-118.22029,34.20491],[-118.22029,34.20631],[-118.22074,34.20632],[-118.22117,34.20613],[-118.22211,34.20619],[-118.22209,34.20812],[-118.2227,34.20857],[-118.22271,34.20947],[-118.22312,34.2105],[-118.22272,34.21053],[-118.22206,34.21037],[-118.22204,34.21212],[-118.22241,34.21197],[-118.22224,34.21186],[-118.2223,34.21177],[-118.2228,34.21166],[-118.2229,34.21188],[-118.22204,34.21217],[-118.22203,34.21291],[-118.22514,34.21384],[-118.22507,34.21411],[-118.22576,34.21414],[-118.22577,34.21404],[-118.2264,34.21423],[-118.22638,34.2163],[-118.22679,34.2163],[-118.22679,34.21651],[-118.22736,34.21652],[-118.22736,34.21679],[-118.22776,34.21679],[-118.22775,34.21701],[-118.22839,34.21701],[-118.22839,34.21741],[-118.22885,34.21759],[-118.22886,34.21731],[-118.22981,34.21732],[-118.2298,34.21791],[-118.23043,34.21827],[-118.23069,34.21831],[-118.23081,34.21812],[-118.23121,34.21818],[-118.23121,34.21779],[-118.23157,34.21801],[-118.23156,34.21813],[-118.2315,34.21809],[-118.2315,34.21852],[-118.23158,34.21845],[-118.23171,34.21854],[-118.23189,34.21835],[-118.23189,34.21861],[-118.23289,34.21921],[-118.23289,34.21942],[-118.23339,34.21942],[-118.23339,34.21957],[-118.23422,34.22005],[-118.23422,34.21967],[-118.23483,34.22005],[-118.23479,34.2202]]]},"properties":{"zip":"91020","share_in_city":0.3,"neighborhoods":["Montrose"]}},{"type":"Feature","geometry":{"type":"Polygon","coordinates":[[[-118.26608,34.19204],[-118.26609,34.19275],[-118.28035,34.19262],[-118.28034,34.19088],[-118.28,34.1907],[-118.28352,34.18586],[-118.28479,34.18638],[-118.28492,34.18632],[-118.28548,34.18656],[-118.28589,34.18678],[-118.28585,34.18684],[-118.28784,34.18773],[-118.28975,34.18513],[-118.29001,34.18468],[-118.29065,34.18411],[-118.29052,34.18402],[-118.29119,34.18339],[-118.29134,34.1835],[-118.29146,34.18339],[-118.29133,34.1833],[-118.29293,34.18179],[-118.29294,34.18156],[-118.2936,34.18094],[-118.29369,34.181],[-118.2938,34.1809],[-118.29371,34.18083],[-118.29525,34.17938],[-118.29544,34.1794],[-118.29793,34.17705],[-118.2965,34.17603],[-118.29902,34.17362],[-118.29865,34.17334],[-118.29893,34.173],[-118.29783,34.17222],[-118.2992,34.17093],[-118.29814,34.17035],[-118.29961,34.16891],[-118.29994,34.16866],[-118.3002,34.16885],[-118.30049,34.16857],[-118.30023,34.16838],[-118.30045,34.16816],[-118.30072,34.16835],[-118.30086,34.16822],[-118.30059,34.16803],[-118.30416,34.16472],[-118.30439,34.16489],[-118.30438,34.16451],[-118.30453,34.1643],[-118.30692,34.16205],[-118.30706,34.16179],[-118.30733,34.16167],[-118.30788,34.16115],[-118.30708,34.16084],[-118.30438,34.15885],[-118.29882,34.15767],[-118.29756,34.15859],[-118.29728,34.15872],[-118.29669,34.1586],[-118.29549,34.15859],[-118.29157,34.15555],[-118.28744,34.15555],[-118.28248,34.15666],[-118.28134,34.15644],[-118.28072,34.15616],[-118.28024,34.15585],[-118.27846,34.15732],[-118.27851,34.15765],[-118.28046,34.15961],[-118.28272,34.16143],[-118.28201,34.16251],[-118.28112,34.16565],[-118.28077,34.16539],[-118.28025,34.16719],[-118.28066,34.16727],[-118.2805,34.16781],[-118.28004,34.16775],[-118.2795,34.16962],[-118.27994,34.16971],[-118.2798,34.17016],[-118.27941,34.17008],[-118.27886,34.17194],[-118.27895,34.17196],[-118.27891,34.17209],[-118.27922,34.17215],[-118.27903,34.17281],[-118.27872,34.17274],[-118.27867,34.17292],[-118.27835,34.17285],[-118.27829,34.17306],[-118.27843,34.17309],[-118.27829,34.17355],[-118.27756,34.1734],[-118.27748,34.17366],[-118.27774,34.17371],[-118.27736,34.17506],[-118.2772,34.17503],[-118.27711,34.17534],[-118.27767,34.17545],[-118.27748,34.17605],[-118.27748,34.17636],[-118.2773,34.17636],[-118.27729,34.17664],[-118.27705,34.17664],[-118.27705,34.17731],[-118.27731,34.17731],[-118.27711,34.17797],[-118.27691,34.17797],[-118.27686,34.17814],[-118.2768,34.17814],[-118.27676,34.17903],[-118.27649,34.17903],[-118.27647,34.17993],[-118.27618,34.18032],[-118.27507,34.18032],[-118.2751,34.17972],[-118.27486,34.17978],[-118.27475,34.17959],[-118.27407,34.17978],[-118.27347,34.18038],[-118.27182,34.18112],[-118.2717,34.18133],[-118.27163,34.18231],[-118.27137,34.18267],[-118.27093,34.18283],[-118.27004,34.18345],[-118.26991,34.18362],[-118.2692,34.1839],[-118.26895,34.18392],[-118.26872,34.18451],[-118.26597,34.183],[-118.26608,34.19204]]]},"properties":{"zip":"91201","share_in_city":0.99,"neighborhoods":["Grandview","El Miradero","Grand Central"]}},{"type":"Feature","geometry":{"type":"Polygon","coordinates":[[[-118.26857,34.18442],[-118.26872,34.18451],[-118.26895,34.18392],[-118.2692,34.1839],[-118.26991,34.18362],[-118.27004,34.18345],[-118.27093,34.18283],[-118.27137,34.18267],[-118.27163,34.18231],[-118.2717,34.18133],[-118.27182,34.18112],[-118.27347,34.18038],[-118.27407,34.17978],[-118.27475,34.17959],[-118.27486,34.17978],[-118.2751,34.17972],[-118.27507,34.18032],[-118.27618,34.18032],[-118.27647,34.17993],[-118.27649,34.17903],[-118.27676,34.17903],[-118.2768,34.17814],[-118.27686,34.17814],[-118.27691,34.17797],[-118.27711,34.17797],[-118.27731,34.17731],[-118.27705,34.17731],[-118.27705,34.17664],[-118.27729,34.17664],[-118.2773,34.17636],[-118.27748,34.17636],[-118.27748,34.17605],[-118.27767,34.17545],[-118.27711,34.17534],[-118.2772,34.17503],[-118.27736,34.17506],[-118.27774,34.17371],[-118.27748,34.17366],[-118.27756,34.1734],[-118.27829,34.17355],[-118.27843,34.17309],[-118.27829,34.17306],[-118.27835,34.17285],[-118.27867,34.17292],[-118.27872,34.17274],[-118.27903,34.17281],[-118.27922,34.17215],[-118.27891,34.17209],[-118.27895,34.17196],[-118.27886,34.17194],[-118.27941,34.17008],[-118.2798,34.17016],[-118.27994,34.16971],[-118.2795,34.16962],[-118.28004,34.16775],[-118.2805,34.16781],[-118.28066,34.16727],[-118.28025,34.16719],[-118.28077,34.16539],[-118.28112,34.16565],[-118.28201,34.16251],[-118.28272,34.16143],[-118.28046,34.15961],[-118.27851,34.15765],[-118.27846,34.15732],[-118.28024,34.15585],[-118.27969,34.15532],[-118.2793,34.1547],[-118.27915,34.15383],[-118.27985,34.15337],[-118.27992,34.15323],[-118.27987,34.15293],[-118.27582,34.15385],[-118.27629,34.15466],[-118.27595,34.15466],[-118.2759,34.15483],[-118.27605,34.15504],[-118.26993,34.15736],[-118.26944,34.15759],[-118.26944,34.15766],[-118.26928,34.15766],[-118.26678,34.15862],[-118.26476,34.15908],[-118.26306,34.15922],[-118.26153,34.15917],[-118.26153,34.159],[-118.26133,34.159],[-118.26133,34.15919],[-118.26068,34.15919],[-118.26124,34.15925],[-118.25781,34.1593],[-118.25587,34.15912],[-118.25509,34.1589],[-118.25509,34.1593],[-118.25487,34.15948],[-118.25488,34.15972],[-118.25465,34.15972],[-118.25465,34.16036],[-118.25434,34.16036],[-118.25434,34.16082],[-118.25406,34.16082],[-118.25406,34.16137],[-118.25438,34.16137],[-118.25436,34.1636],[-118.25444,34.1636],[-118.25444,34.16501],[-118.2549,34.16501],[-118.25491,34.1655],[-118.25444,34.1655],[-118.25444,34.16668],[-118.25487,34.16668],[-118.25486,34.16734],[-118.25443,34.16734],[-118.25443,34.16753],[-118.25397,34.16755],[-118.25443,34.16756],[-118.25443,34.1677],[-118.25504,34.1677],[-118.25504,34.16799],[-118.25498,34.16863],[-118.25428,34.16853],[-118.2543,34.16995],[-118.25407,34.17009],[-118.2538,34.17046],[-118.25369,34.17087],[-118.25413,34.17112],[-118.25436,34.17082],[-118.2547,34.17104],[-118.25469,34.17181],[-118.25478,34.17181],[-118.25466,34.17198],[-118.25479,34.17214],[-118.25461,34.1723],[-118.25494,34.1725],[-118.25546,34.1725],[-118.25612,34.17179],[-118.25661,34.17254],[-118.25718,34.1731],[-118.25672,34.17346],[-118.2568,34.17352],[-118.25784,34.17356],[-118.25797,34.1737],[-118.25782,34.17383],[-118.25799,34.17395],[-118.25801,34.17437],[-118.25828,34.17467],[-118.25816,34.17503],[-118.25793,34.17538],[-118.25772,34.17556],[-118.25757,34.17556],[-118.25745,34.17576],[-118.25766,34.17599],[-118.25636,34.17688],[-118.25585,34.17749],[-118.25656,34.17922],[-118.2583,34.1788],[-118.26857,34.18442]]]},"properties":{"zip":"91202","share_in_city":1.0,"neighborhoods":["Glenwood","Verdugo Viejo","Brockmont"]}},{"type":"Feature","geometry":{"type":"Polygon","coordinates":[[[-118.25509,34.1589],[-118.25587,34.15912],[-118.25781,34.1593],[-118.26124,34.15925],[-118.26068,34.15919],[-118.26133,34.15919],[-118.26133,34.159],[-118.26153,34.159],[-118.26153,34.15917],[-118.26326,34.15922],[-118.26542,34.15896],[-118.26678,34.15862],[-118.26928,34.15766],[-118.26944,34.15766],[-118.26944,34.15759],[-118.26993,34.15736],[-118.27605,34.15504],[-118.2759,34.15483],[-118.27595,34.15466],[-118.27629,34.15466],[-118.27546,34.15324],[-118.27213,34.14677],[-118.27114,34.14677],[-118.27104,34.14692],[-118.27105,34.14734],[-118.26709,34.14743],[-118.26709,34.14751],[-118.26673,34.14752],[-118.26673,34.1479],[-118.26641,34.14791],[-118.26641,34.14752],[-118.26608,34.14752],[-118.26609,34.14693],[-118.26576,34.14692],[-118.26577,34.14744],[-118.26528,34.14744],[-118.26527,34.14731],[-118.26444,34.14731],[-118.26445,34.14739],[-118.26196,34.1474],[-118.26196,34.14717],[-118.26103,34.14711],[-118.26103,34.14695],[-118.26054,34.14696],[-118.26054,34.14741],[-118.25855,34.14743],[-118.25848,34.14697],[-118.25776,34.14698],[-118.25776,34.14739],[-118.25573,34.14744],[-118.25573,34.14639],[-118.25452,34.14641],[-118.25453,34.14818],[-118.25435,34.14818],[-118.25441,34.15081],[-118.2539,34.15081],[-118.25392,34.15167],[-118.25437,34.15168],[-118.25436,34.15308],[-118.25391,34.15309],[-118.25392,34.15559],[-118.25439,34.15559],[-118.25439,34.15573],[-118.25393,34.15573],[-118.25393,34.1569],[-118.2535,34.15691],[-118.2535,34.15738],[-118.25489,34.15736],[-118.25488,34.15883],[-118.25509,34.1589]]]},"properties":{"zip":"91203","share_in_city":1.0,"neighborhoods":["Vineyard","City Center","Fremont Park"]}},{"type":"Feature","geometry":{"type":"Polygon","coordinates":[[[-118.26609,34.14693],[-118.26608,34.14752],[-118.26641,34.14752],[-118.26641,34.14791],[-118.26673,34.1479],[-118.26673,34.14752],[-118.26709,34.14751],[-118.26709,34.14743],[-118.27105,34.14734],[-118.27104,34.14692],[-118.27114,34.14677],[-118.27213,34.14677],[-118.26337,34.12966],[-118.26193,34.12721],[-118.26014,34.12467],[-118.25833,34.12267],[-118.25728,34.1216],[-118.25584,34.1203],[-118.25417,34.11886],[-118.25404,34.11895],[-118.25374,34.1187],[-118.25162,34.12017],[-118.25186,34.12036],[-118.25141,34.12065],[-118.25185,34.12109],[-118.25154,34.12132],[-118.25383,34.12349],[-118.25388,34.12334],[-118.25423,34.12358],[-118.25413,34.12382],[-118.25418,34.12411],[-118.25478,34.12404],[-118.25469,34.12476],[-118.2547,34.12568],[-118.25421,34.12568],[-118.2542,34.12881],[-118.25411,34.12881],[-118.25412,34.12929],[-118.25432,34.12929],[-118.25432,34.12976],[-118.25471,34.12978],[-118.25474,34.13059],[-118.25472,34.13101],[-118.25423,34.13101],[-118.2542,34.13218],[-118.25439,34.13218],[-118.25439,34.1327],[-118.25422,34.1327],[-118.25427,34.13485],[-118.25402,34.13485],[-118.25408,34.13579],[-118.25476,34.13579],[-118.25477,34.13625],[-118.25428,34.13625],[-118.25428,34.13639],[-118.2543,34.13666],[-118.25477,34.13666],[-118.25477,34.13722],[-118.25427,34.13722],[-118.25427,34.13781],[-118.25443,34.13777],[-118.25445,34.1385],[-118.25407,34.13854],[-118.25407,34.13875],[-118.25424,34.13874],[-118.25424,34.13901],[-118.2544,34.13899],[-118.2544,34.13913],[-118.25456,34.13911],[-118.25457,34.1401],[-118.25447,34.14012],[-118.25447,34.14059],[-118.25454,34.14059],[-118.25454,34.14167],[-118.25444,34.14167],[-118.25438,34.1427],[-118.25438,34.14403],[-118.25453,34.14403],[-118.25453,34.14454],[-118.25437,34.14454],[-118.25438,34.14525],[-118.25445,34.14587],[-118.25472,34.14591],[-118.2544,34.14591],[-118.2544,34.14619],[-118.25452,34.14618],[-118.25452,34.14641],[-118.25573,34.14639],[-118.25573,34.14744],[-118.25776,34.14739],[-118.25776,34.14698],[-118.25848,34.14697],[-118.25855,34.14743],[-118.26054,34.14741],[-118.26054,34.14696],[-118.26103,34.14695],[-118.26103,34.14711],[-118.26196,34.14717],[-118.26196,34.1474],[-118.26445,34.14739],[-118.26444,34.14731],[-118.26527,34.14731],[-118.26528,34.14744],[-118.26577,34.14744],[-118.26576,34.14692],[-118.26609,34.14693]],[[-118.25791,34.14685],[-118.25746,34.14682],[-118.25684,34.14663],[-118.25637,34.14646],[-118.25628,34.14626],[-118.25611,34.14621],[-118.25574,34.14617],[-118.25572,34.14628],[-118.25502,34.1463],[-118.25502,34.14575],[-118.25573,34.14577],[-118.25573,34.14549],[-118.2558,34.14548],[-118.2558,34.14521],[-118.2551,34.14521],[-118.25509,34.14266],[-118.26072,34.1427],[-118.26076,34.14612],[-118.26116,34.14656],[-118.26117,34.1467],[-118.25815,34.14675],[-118.25791,34.14685]]]},"properties":{"zip":"91204","share_in_city":0.99,"neighborhoods":["Pacific-Edison","Tropico","Moorpark"]}},{"type":"Feature","geometry":{"type":"Polygon","coordinates":[[[-118.23871,34.14728],[-118.23951,34.14729],[-118.23951,34.14634],[-118.24022,34.14635],[-118.24022,34.14674],[-118.24173,34.14676],[-118.24173,34.14664],[-118.24246,34.14665],[-118.24246,34.14651],[-118.24376,34.14654],[-118.24376,34.14666],[-118.24388,34.14666],[-118.24388,34.14638],[-118.24444,34.14639],[-118.24444,34.14666],[-118.24524,34.14667],[-118.24522,34.14643],[-118.24569,34.14645],[-118.24569,34.14676],[-118.24635,34.14677],[-118.24638,34.14668],[-118.24683,34.1468],[-118.24697,34.14646],[-118.24898,34.14648],[-118.24896,34.14677],[-118.25002,34.14676],[-118.25071,34.14673],[-118.25071,34.14645],[-118.25147,34.14645],[-118.25148,34.14705],[-118.25253,34.14704],[-118.25253,34.14675],[-118.25364,34.14678],[-118.25363,34.14641],[-118.25398,34.14641],[-118.25399,34.14681],[-118.25452,34.14681],[-118.25452,34.14618],[-118.2544,34.14619],[-118.2544,34.14591],[-118.25472,34.14591],[-118.25445,34.14587],[-118.25438,34.14525],[-118.25437,34.14454],[-118.25453,34.14454],[-118.25453,34.14403],[-118.25438,34.14403],[-118.25438,34.1427],[-118.25444,34.14167],[-118.25454,34.14167],[-118.25454,34.14059],[-118.25447,34.14059],[-118.25447,34.14012],[-118.25457,34.1401],[-118.25456,34.13911],[-118.2544,34.13913],[-118.2544,34.13899],[-118.25424,34.13901],[-118.25424,34.13874],[-118.25407,34.13875],[-118.25407,34.13854],[-118.25445,34.1385],[-118.25443,34.13777],[-118.25427,34.13781],[-118.25427,34.13722],[-118.25477,34.13722],[-118.25477,34.13666],[-118.2543,34.13666],[-118.25428,34.13639],[-118.25428,34.13625],[-118.25477,34.13625],[-118.25476,34.13579],[-118.25408,34.13579],[-118.25402,34.13485],[-118.25427,34.13485],[-118.25422,34.1327],[-118.25439,34.1327],[-118.25439,34.13218],[-118.2542,34.13218],[-118.25423,34.13101],[-118.25472,34.13101],[-118.25474,34.13087],[-118.25471,34.12978],[-118.25432,34.12976],[-118.25432,34.12929],[-118.25412,34.12929],[-118.25411,34.12881],[-118.2542,34.12881],[-118.25421,34.12568],[-118.2547,34.12568],[-118.25469,34.12476],[-118.25478,34.12404],[-118.25418,34.12411],[-118.25413,34.12382],[-118.25423,34.12358],[-118.25388,34.12334],[-118.25383,34.12349],[-118.25345,34.12311],[-118.25289,34.12351],[-118.25161,34.12231],[-118.25109,34.12268],[-118.24841,34.12043],[-118.24686,34.11889],[-118.24184,34.12269],[-118.24182,34.12281],[-118.24129,34.12322],[-118.24053,34.12255],[-118.23964,34.12202],[-118.2394,34.12175],[-118.23924,34.12137],[-118.23824,34.12117],[-118.23814,34.12085],[-118.23756,34.1203],[-118.23679,34.12011],[-118.23624,34.11987],[-118.23611,34.11987],[-118.23601,34.11998],[-118.23576,34.11985],[-118.2354,34.11987],[-118.23536,34.11979],[-118.23503,34.11986],[-118.23424,34.12024],[-118.23364,34.12033],[-118.23345,34.12041],[-118.23323,34.12065],[-118.23299,34.12074],[-118.23194,34.12097],[-118.23196,34.12114],[-118.23167,34.12123],[-118.23172,34.12131],[-118.23165,34.12139],[-118.23101,34.12125],[-118.23101,34.12201],[-118.23146,34.12258],[-118.23157,34.12252],[-118.23191,34.12269],[-118.23247,34.1227],[-118.23297,34.12243],[-118.23308,34.12251],[-118.2332,34.12241],[-118.23353,34.12237],[-118.23378,34.12258],[-118.23389,34.12324],[-118.23418,34.12359],[-118.23431,34.12362],[-118.23446,34.12399],[-118.23492,34.12356],[-118.23505,34.12352],[-118.23553,34.12396],[-118.2358,34.124],[-118.23624,34.12393],[-118.23634,34.12404],[-118.23743,34.12437],[-118.23882,34.12543],[-118.23875,34.12594],[-118.23861,34.12598],[-118.23877,34.12625],[-118.23526,34.12673],[-118.23534,34.12761],[-118.23604,34.12884],[-118.23657,34.13219],[-118.23663,34.13285],[-118.23655,34.13353],[-118.2363,34.13451],[-118.23361,34.13451],[-118.23362,34.13562],[-118.22866,34.13561],[-118.22836,34.13677],[-118.22901,34.13676],[-118.22911,34.13754],[-118.22945,34.13754],[-118.22949,34.13799],[-118.22916,34.13836],[-118.22924,34.1395],[-118.22903,34.1395],[-118.22895,34.14065],[-118.2288,34.14065],[-118.2288,34.14106],[-118.22869,34.14147],[-118.22881,34.14147],[-118.2288,34.14604],[-118.2296,34.14664],[-118.22979,34.14661],[-118.23014,34.14636],[-118.23017,34.14656],[-118.23149,34.14698],[-118.23149,34.14711],[-118.23169,34.14711],[-118.23168,34.1467],[-118.23534,34.1467],[-118.23536,34.14678],[-118.23669,34.14678],[-118.23669,34.14669],[-118.237,34.14676],[-118.237,34.14665],[-118.23784,34.14665],[-118.23784,34.14671],[-118.23837,34.14671],[-118.23836,34.14699],[-118.23871,34.14699],[-118.23871,34.14728]]]},"properties":{"zip":"91205","share_in_city":0.85,"neighborhoods":["Mariposa","Adams Hill","Citrus Grove"]}},{"type":"Feature","geometry":{"type":"Polygon","coordinates":[[[-118.20654,34.18713],[-118.20719,34.18731],[-118.20716,34.18739],[-118.20731,34.18751],[-118.2075,34.1874],[-118.2077,34.18679],[-118.20834,34.18636],[-118.20851,34.18593],[-118.20909,34.18568],[-118.20914,34.18525],[-118.20943,34.18527],[-118.20973,34.18501],[-118.20982,34.18446],[-118.21033,34.18364],[-118.21023,34.18349],[-118.21111,34.18349],[-118.21112,34.18293],[-118.21709,34.18197],[-118.21821,34.18193],[-118.21847,34.18156],[-118.21773,34.18084],[-118.21785,34.18069],[-118.21815,34.1807],[-118.21796,34.18053],[-118.21817,34.18011],[-118.21535,34.17756],[-118.21491,34.17749],[-118.21547,34.17668],[-118.21563,34.17611],[-118.21553,34.17555],[-118.21503,34.17471],[-118.21491,34.17427],[-118.21492,34.17392],[-118.21531,34.17283],[-118.21518,34.17203],[-118.21397,34.17027],[-118.21248,34.16895],[-118.21233,34.16853],[-118.21234,34.16771],[-118.21075,34.16716],[-118.21058,34.16688],[-118.21074,34.16658],[-118.21098,34.16638],[-118.21139,34.16629],[-118.21142,34.1662],[-118.21153,34.16624],[-118.21221,34.16593],[-118.21267,34.16593],[-118.21295,34.16577],[-118.21316,34.16597],[-118.213,34.16558],[-118.21261,34.16579],[-118.21235,34.16579],[-118.21253,34.16563],[-118.21249,34.16545],[-118.21228,34.1656],[-118.21155,34.16582],[-118.21129,34.16535],[-118.21135,34.16505],[-118.21114,34.16474],[-118.21151,34.16475],[-118.2115,34.16485],[-118.21183,34.16497],[-118.21191,34.16493],[-118.21166,34.16462],[-118.21165,34.16443],[-118.21128,34.1638],[-118.21148,34.16346],[-118.21162,34.16344],[-118.21194,34.16318],[-118.2122,34.16324],[-118.21245,34.16316],[-118.21255,34.16302],[-118.21241,34.16296],[-118.21246,34.16272],[-118.21266,34.16275],[-118.21277,34.16245],[-118.21301,34.16265],[-118.21322,34.16258],[-118.21333,34.16297],[-118.21344,34.16302],[-118.21989,34.16077],[-118.22319,34.16376],[-118.22405,34.16375],[-118.2239,34.16407],[-118.22368,34.16408],[-118.22392,34.16423],[-118.22673,34.16452],[-118.2287,34.16511],[-118.22968,34.16503],[-118.23108,34.16476],[-118.23143,34.16477],[-118.23218,34.16508],[-118.23329,34.16582],[-118.23461,34.16406],[-118.23607,34.16252],[-118.2366,34.16208],[-118.23809,34.16117],[-118.23904,34.16072],[-118.24419,34.15897],[-118.24623,34.15802],[-118.24696,34.15783],[-118.24694,34.15763],[-118.24766,34.15758],[-118.25029,34.15767],[-118.25028,34.1578],[-118.25215,34.15791],[-118.25215,34.15806],[-118.2526,34.15805],[-118.2526,34.15821],[-118.25488,34.15883],[-118.25489,34.15736],[-118.2535,34.15738],[-118.2535,34.15691],[-118.25393,34.1569],[-118.25393,34.15573],[-118.25439,34.15573],[-118.25439,34.15559],[-118.25392,34.15559],[-118.25391,34.15309],[-118.25436,34.15308],[-118.25437,34.15168],[-118.25392,34.15167],[-118.2539,34.15081],[-118.25441,34.15081],[-118.25435,34.14818],[-118.25453,34.14818],[-118.25452,34.14681],[-118.25399,34.14681],[-118.25398,34.14641],[-118.25363,34.14641],[-118.25364,34.14678],[-118.25253,34.14675],[-118.25253,34.14704],[-118.25148,34.14705],[-118.25147,34.14645],[-118.25071,34.14645],[-118.25071,34.14673],[-118.25002,34.14676],[-118.24896,34.14677],[-118.24898,34.14648],[-118.24697,34.14646],[-118.24683,34.1468],[-118.24638,34.14668],[-118.24635,34.14677],[-118.24569,34.14676],[-118.24569,34.14645],[-118.24522,34.14643],[-118.24524,34.14667],[-118.24444,34.14666],[-118.24444,34.14639],[-118.24388,34.14638],[-118.24388,34.14666],[-118.24376,34.14666],[-118.24376,34.14654],[-118.24246,34.14651],[-118.24246,34.14665],[-118.24173,34.14664],[-118.24173,34.14676],[-118.24022,34.14674],[-118.24022,34.14635],[-118.23951,34.14634],[-118.23951,34.14729],[-118.23871,34.14728],[-118.23871,34.14699],[-118.23836,34.14699],[-118.23837,34.14671],[-118.23784,34.14671],[-118.23784,34.14665],[-118.237,34.14665],[-118.237,34.14676],[-118.23669,34.14669],[-118.23669,34.14678],[-118.23536,34.14678],[-118.23534,34.1467],[-118.23168,34.1467],[-118.23169,34.14711],[-118.23149,34.14711],[-118.23149,34.14698],[-118.23017,34.14656],[-118.23014,34.14636],[-118.22979,34.14661],[-118.2296,34.14664],[-118.22862,34.14797],[-118.22709,34.14746],[-118.22714,34.14763],[-118.22705,34.14836],[-118.22675,34.14924],[-118.22419,34.14851],[-118.22377,34.14757],[-118.22318,34.14694],[-118.22217,34.14638],[-118.22024,34.1458],[-118.21963,34.14568],[-118.21943,34.14576],[-118.21723,34.14547],[-118.21642,34.14618],[-118.21522,34.14611],[-118.21488,34.14536],[-118.21405,34.14539],[-118.21363,34.14532],[-118.21342,34.14577],[-118.2131,34.14579],[-118.21292,34.14542],[-118.21214,34.14554],[-118.21193,34.14585],[-118.21173,34.14584],[-118.21145,34.14546],[-118.21114,34.14621],[-118.20877,34.14652],[-118.20772,34.14725],[-118.20543,34.14745],[-118.20424,34.14931],[-118.2036,34.14972],[-118.20272,34.15067],[-118.1989,34.15116],[-118.19817,34.15164],[-118.19819,34.14905],[-118.18186,34.14907],[-118.18161,34.14992],[-118.18379,34.15824],[-118.1848,34.15978],[-118.18586,34.16354],[-118.18721,34.16522],[-118.18861,34.16571],[-118.18793,34.16673],[-118.18909,34.16909],[-118.18979,34.1691],[-118.1905,34.17033],[-118.19079,34.172],[-118.19064,34.17401],[-118.18891,34.17789],[-118.18932,34.17835],[-118.18898,34.17857],[-118.18941,34.17886],[-118.18954,34.17908],[-118.18994,34.17926],[-118.19006,34.17919],[-118.19084,34.18009],[-118.19175,34.18028],[-118.19227,34.18023],[-118.19238,34.18046],[-118.19645,34.17992],[-118.19782,34.18101],[-118.19797,34.18037],[-118.19812,34.18025],[-118.19908,34.18022],[-118.199,34.18049],[-118.19904,34.18095],[-118.19822,34.18097],[-118.19801,34.18115],[-118.1995,34.18219],[-118.20033,34.1825],[-118.20072,34.18275],[-118.20128,34.18288],[-118.20172,34.18366],[-118.20474,34.18568],[-118.20586,34.18693],[-118.20654,34.18713]]]},"properties":{"zip":"91206","share_in_city":0.98,"neighborhoods":["Chevy Chase","Scholl Canyon","Glenoaks Canyon"]}},{"type":"Feature","geometry":{"type":"Polygon","coordinates":[[[-118.25751,34.19819],[-118.25755,34.20011],[-118.26193,34.20008],[-118.26178,34.19276],[-118.26609,34.19275],[-118.26597,34.183],[-118.2583,34.1788],[-118.25656,34.17922],[-118.25585,34.17749],[-118.25636,34.17688],[-118.25766,34.17599],[-118.25745,34.17576],[-118.25757,34.17556],[-118.25772,34.17556],[-118.25793,34.17538],[-118.25816,34.17503],[-118.25828,34.17467],[-118.25801,34.17437],[-118.25799,34.17395],[-118.25782,34.17385],[-118.25797,34.1737],[-118.25784,34.17356],[-118.2568,34.17352],[-118.25672,34.17346],[-118.25718,34.1731],[-118.25661,34.17254],[-118.25612,34.17179],[-118.25546,34.1725],[-118.25485,34.17246],[-118.25461,34.1723],[-118.25479,34.17214],[-118.25466,34.17198],[-118.25478,34.17181],[-118.25469,34.17181],[-118.2547,34.17104],[-118.25436,34.17082],[-118.25413,34.17112],[-118.25369,34.17087],[-118.2538,34.17046],[-118.25407,34.17009],[-118.2543,34.16995],[-118.25428,34.16853],[-118.25498,34.16863],[-118.25504,34.1677],[-118.25443,34.1677],[-118.25443,34.16756],[-118.25397,34.16753],[-118.25443,34.16753],[-118.25443,34.16734],[-118.25486,34.16734],[-118.25487,34.16668],[-118.25444,34.16668],[-118.25444,34.1655],[-118.25491,34.1655],[-118.2549,34.16501],[-118.25444,34.16501],[-118.25444,34.1636],[-118.25436,34.1636],[-118.25438,34.16137],[-118.25406,34.16137],[-118.25406,34.16082],[-118.25434,34.16082],[-118.25434,34.16036],[-118.25465,34.16036],[-118.25465,34.15972],[-118.25488,34.15972],[-118.25487,34.15948],[-118.25509,34.1593],[-118.25509,34.1589],[-118.2526,34.15821],[-118.2526,34.15805],[-118.25215,34.15806],[-118.25215,34.15791],[-118.25028,34.1578],[-118.25029,34.15767],[-118.24766,34.15758],[-118.24694,34.15763],[-118.24696,34.15783],[-118.24623,34.15802],[-118.24419,34.15897],[-118.23904,34.16072],[-118.2384,34.161],[-118.2366,34.16208],[-118.23607,34.16252],[-118.23461,34.16406],[-118.23294,34.16621],[-118.23117,34.16766],[-118.23196,34.16836],[-118.23189,34.16868],[-118.23208,34.16903],[-118.23168,34.16954],[-118.23227,34.16985],[-118.23209,34.17169],[-118.23188,34.17164],[-118.23199,34.17208],[-118.23215,34.17234],[-118.23231,34.1723],[-118.23294,34.17349],[-118.23368,34.17365],[-118.23398,34.17446],[-118.23402,34.17501],[-118.23448,34.1755],[-118.23479,34.17537],[-118.23502,34.17562],[-118.23557,34.17588],[-118.23622,34.17568],[-118.23649,34.17587],[-118.23668,34.1757],[-118.23796,34.17641],[-118.23832,34.1773],[-118.23967,34.17748],[-118.2397,34.1799],[-118.24177,34.18048],[-118.24207,34.18048],[-118.24214,34.18058],[-118.24297,34.18079],[-118.24361,34.18203],[-118.24284,34.18264],[-118.24505,34.185],[-118.24399,34.18505],[-118.24347,34.1855],[-118.24237,34.1856],[-118.24203,34.1867],[-118.24109,34.18541],[-118.2405,34.18522],[-118.23969,34.18458],[-118.23973,34.19289],[-118.241,34.19288],[-118.24105,34.19304],[-118.24171,34.19265],[-118.24207,34.1923],[-118.24199,34.19219],[-118.24351,34.19142],[-118.24401,34.19136],[-118.24407,34.19155],[-118.24354,34.1917],[-118.24292,34.19221],[-118.24264,34.19255],[-118.24254,34.19288],[-118.25075,34.19288],[-118.25736,34.19279],[-118.25751,34.19819]]]},"properties":{"zip":"91207","share_in_city":1.0,"neighborhoods":["Verdugo Mountains","Rossmoyne","Greenbriar"]}},{"type":"Feature","geometry":{"type":"Polygon","coordinates":[[[-118.25513,34.21675],[-118.25562,34.21665],[-118.25653,34.21856],[-118.25608,34.21871],[-118.2557,34.2192],[-118.25582,34.21951],[-118.25677,34.21907],[-118.25806,34.22176],[-118.25828,34.2219],[-118.27524,34.22179],[-118.27514,34.21548],[-118.276,34.21495],[-118.27592,34.21455],[-118.2867,34.21461],[-118.28052,34.20747],[-118.27513,34.20745],[-118.27499,34.19266],[-118.26178,34.19276],[-118.26193,34.20008],[-118.25755,34.20011],[-118.25736,34.19279],[-118.25075,34.19288],[-118.24254,34.19288],[-118.24264,34.19255],[-118.24292,34.19221],[-118.24354,34.1917],[-118.24407,34.19155],[-118.24401,34.19136],[-118.24351,34.19142],[-118.24199,34.19219],[-118.24207,34.1923],[-118.24171,34.19265],[-118.24105,34.19304],[-118.241,34.19288],[-118.23973,34.19289],[-118.23969,34.18458],[-118.2405,34.18522],[-118.24109,34.18541],[-118.24203,34.1867],[-118.24237,34.1856],[-118.24347,34.1855],[-118.24399,34.18505],[-118.24505,34.185],[-118.24284,34.18264],[-118.24361,34.18203],[-118.24297,34.18079],[-118.24214,34.18058],[-118.24207,34.18048],[-118.24177,34.18048],[-118.2397,34.1799],[-118.23967,34.17748],[-118.23832,34.1773],[-118.23796,34.17641],[-118.23668,34.1757],[-118.23649,34.17587],[-118.23622,34.17568],[-118.23557,34.17588],[-118.23502,34.17562],[-118.23479,34.17537],[-118.23448,34.1755],[-118.23402,34.17501],[-118.23398,34.17446],[-118.23368,34.17365],[-118.23294,34.17349],[-118.23231,34.1723],[-118.23215,34.17234],[-118.23199,34.17208],[-118.23188,34.17164],[-118.23209,34.17169],[-118.23227,34.16985],[-118.23168,34.16954],[-118.23208,34.16903],[-118.23189,34.16868],[-118.23196,34.16836],[-118.23117,34.16766],[-118.23263,34.16651],[-118.23329,34.16582],[-118.23218,34.16508],[-118.23143,34.16477],[-118.23108,34.16476],[-118.22968,34.16503],[-118.2287,34.16511],[-118.22673,34.16452],[-118.22392,34.16423],[-118.22368,34.16408],[-118.2239,34.16407],[-118.22405,34.16375],[-118.22319,34.16376],[-118.21989,34.16077],[-118.21344,34.16302],[-118.21333,34.16297],[-118.21322,34.16258],[-118.21301,34.16265],[-118.21277,34.16245],[-118.21266,34.16275],[-118.21246,34.16272],[-118.21241,34.16296],[-118.21255,34.16302],[-118.21245,34.16316],[-118.2122,34.16324],[-118.21194,34.16318],[-118.21162,34.16344],[-118.21148,34.16346],[-118.21128,34.1638],[-118.21165,34.16443],[-118.21166,34.16462],[-118.21191,34.16493],[-118.21183,34.16497],[-118.2115,34.16485],[-118.21151,34.16475],[-118.21114,34.16474],[-118.21135,34.16505],[-118.21129,34.16535],[-118.21155,34.16582],[-118.21228,34.1656],[-118.21249,34.16545],[-118.21253,34.16563],[-118.21235,34.16579],[-118.21261,34.16579],[-118.213,34.16558],[-118.21316,34.16597],[-118.21295,34.16577],[-118.21267,34.16593],[-118.21221,34.16593],[-118.21153,34.16624],[-118.21142,34.1662],[-118.21139,34.16629],[-118.21098,34.16638],[-118.21074,34.16658],[-118.21058,34.16688],[-118.21075,34.16716],[-118.21234,34.16771],[-118.21233,34.16853],[-118.21248,34.16895],[-118.21397,34.17027],[-118.21518,34.17203],[-118.21531,34.17283],[-118.21492,34.17392],[-118.21491,34.17427],[-118.21503,34.17471],[-118.21553,34.17555],[-118.21563,34.17611],[-118.21547,34.17668],[-118.21491,34.17749],[-118.21535,34.17756],[-118.21817,34.18011],[-118.21796,34.18053],[-118.21815,34.1807],[-118.21785,34.18069],[-118.21773,34.18084],[-118.21847,34.18156],[-118.21821,34.18193],[-118.21709,34.18197],[-118.21112,34.18293],[-118.21111,34.18349],[-118.21023,34.18349],[-118.21033,34.18364],[-118.20982,34.18446],[-118.20973,34.18501],[-118.20943,34.18527],[-118.20914,34.18525],[-118.20909,34.18568],[-118.20851,34.18593],[-118.20834,34.18636],[-118.2077,34.18679],[-118.20746,34.18739],[-118.2074,34.18776],[-118.20774,34.18781],[-118.20806,34.18799],[-118.20781,34.18931],[-118.20804,34.19062],[-118.21103,34.19277],[-118.21219,34.19271],[-118.21347,34.1941],[-118.21267,34.19507],[-118.21283,34.19535],[-118.21462,34.1962],[-118.21536,34.19728],[-118.21675,34.1978],[-118.2195,34.19733],[-118.21918,34.19873],[-118.2185,34.20087],[-118.21867,34.20095],[-118.21831,34.20142],[-118.21832,34.2018],[-118.21788,34.20249],[-118.21751,34.20263],[-118.21709,34.20305],[-118.21572,34.20325],[-118.21551,34.20355],[-118.21501,34.20355],[-118.21499,34.20556],[-118.21506,34.20567],[-118.21796,34.20547],[-118.22062,34.20485],[-118.22213,34.20472],[-118.22214,34.20328],[-118.22256,34.20332],[-118.22256,34.20303],[-118.22315,34.2031],[-118.2232,34.20297],[-118.22344,34.20296],[-118.22406,34.20302],[-118.22405,34.20323],[-118.22391,34.20322],[-118.22384,34.20336],[-118.22533,34.2039],[-118.22554,34.20359],[-118.22658,34.20396],[-118.22643,34.20423],[-118.22689,34.2044],[-118.22703,34.20413],[-118.22715,34.20409],[-118.22676,34.2048],[-118.22669,34.20529],[-118.22685,34.20484],[-118.2278,34.20498],[-118.22772,34.20531],[-118.22843,34.20548],[-118.22863,34.2051],[-118.23205,34.20639],[-118.23208,34.20634],[-118.23482,34.20734],[-118.23482,34.20763],[-118.2354,34.20793],[-118.2354,34.20763],[-118.2357,34.20774],[-118.23573,34.20767],[-118.23961,34.20907],[-118.23938,34.20933],[-118.23989,34.20967],[-118.23967,34.20992],[-118.2398,34.21001],[-118.23976,34.21015],[-118.23946,34.21048],[-118.23974,34.21066],[-118.23948,34.21095],[-118.23976,34.21112],[-118.23986,34.21154],[-118.24015,34.21174],[-118.24056,34.21118],[-118.24048,34.21113],[-118.24056,34.21104],[-118.24018,34.21081],[-118.24012,34.20974],[-118.24192,34.21084],[-118.24163,34.21116],[-118.24168,34.21119],[-118.24219,34.21058],[-118.24219,34.21002],[-118.24413,34.21074],[-118.24855,34.21552],[-118.24829,34.21577],[-118.24804,34.2155],[-118.2476,34.216],[-118.24819,34.21638],[-118.24851,34.21602],[-118.24839,34.21588],[-118.24866,34.21563],[-118.25139,34.21861],[-118.25142,34.21873],[-118.25154,34.21877],[-118.25184,34.21909],[-118.253,34.21731],[-118.25347,34.21708],[-118.25513,34.21675]]]},"properties":{"zip":"91208","share_in_city":1.0,"neighborhoods":["Verdugo Mountains","Verdugo Woodlands","Oakmont"]}},{"type":"Feature","geometry":{"type":"Polygon","coordinates":[[[-118.25637,34.14646],[-118.25727,34.14678],[-118.25769,34.14685],[-118.25815,34.14675],[-118.26116,34.14672],[-118.26116,34.14656],[-118.26076,34.14612],[-118.26072,34.14269],[-118.25509,34.14266],[-118.2551,34.14521],[-118.2558,34.14521],[-118.2558,34.14548],[-118.25573,34.14549],[-118.25573,34.14577],[-118.25502,34.14575],[-118.25502,34.1463],[-118.25572,34.14628],[-118.25574,34.14617],[-118.25597,34.14618],[-118.25628,34.14626],[-118.25637,34.14646]]]},"properties":{"zip":"91210","share_in_city":1.0,"neighborhoods":["City Center"]}},{"type":"Feature","geometry":{"type":"Polygon","coordinates":[[[-118.2385,34.27062],[-118.23849,34.27738],[-118.25663,34.26936],[-118.25671,34.26724],[-118.26544,34.26732],[-118.26532,34.25982],[-118.26532,34.25027],[-118.26609,34.25056],[-118.26609,34.25039],[-118.2667,34.25039],[-118.26672,34.24778],[-118.26728,34.24778],[-118.26728,34.24751],[-118.26698,34.24751],[-118.26698,34.24723],[-118.26721,34.24723],[-118.26722,34.24696],[-118.26702,34.24696],[-118.26695,34.24641],[-118.26672,34.24641],[-118.26673,34.24613],[-118.26695,34.24613],[-118.26695,34.24586],[-118.26729,34.24586],[-118.26729,34.24572],[-118.26703,34.24572],[-118.26703,34.24559],[-118.26695,34.24558],[-118.26695,34.24505],[-118.26725,34.24504],[-118.26725,34.24449],[-118.26679,34.24448],[-118.26679,34.24421],[-118.26717,34.24421],[-118.26717,34.24394],[-118.26687,34.24394],[-118.26687,34.24366],[-118.26696,34.24366],[-118.26696,34.24352],[-118.26674,34.24352],[-118.26674,34.24338],[-118.26614,34.24338],[-118.26614,34.24258],[-118.26689,34.24259],[-118.26708,34.24249],[-118.2675,34.24202],[-118.26625,34.24125],[-118.2665,34.24082],[-118.26639,34.24075],[-118.26895,34.23711],[-118.26939,34.23602],[-118.26838,34.2354],[-118.26838,34.23448],[-118.26806,34.23428],[-118.26808,34.23263],[-118.268,34.23238],[-118.27037,34.23394],[-118.27047,34.23382],[-118.27047,34.23281],[-118.27041,34.23274],[-118.26989,34.2326],[-118.26948,34.23259],[-118.2662,34.23174],[-118.2662,34.23109],[-118.26683,34.23081],[-118.2669,34.22186],[-118.25828,34.2219],[-118.25806,34.22176],[-118.25677,34.21907],[-118.25582,34.21951],[-118.2557,34.2192],[-118.25608,34.21871],[-118.25653,34.21856],[-118.25562,34.21665],[-118.25347,34.21708],[-118.253,34.21731],[-118.25184,34.21909],[-118.25154,34.21877],[-118.25142,34.21873],[-118.25139,34.21861],[-118.24866,34.21563],[-118.24839,34.21588],[-118.24851,34.21602],[-118.24819,34.21638],[-118.2476,34.216],[-118.24804,34.2155],[-118.24829,34.21577],[-118.24855,34.21552],[-118.24413,34.21074],[-118.24219,34.21002],[-118.24219,34.21058],[-118.24168,34.21119],[-118.24163,34.21116],[-118.24192,34.21084],[-118.24012,34.20974],[-118.24018,34.21081],[-118.24056,34.21104],[-118.24048,34.21113],[-118.24117,34.21145],[-118.24127,34.21162],[-118.24202,34.21208],[-118.24137,34.21287],[-118.24013,34.21211],[-118.24015,34.21174],[-118.23986,34.21154],[-118.23986,34.21181],[-118.23953,34.21161],[-118.23943,34.21172],[-118.23986,34.21199],[-118.23986,34.21241],[-118.23999,34.21271],[-118.23999,34.21601],[-118.23985,34.2161],[-118.23985,34.21636],[-118.23935,34.21605],[-118.23932,34.21647],[-118.23715,34.21514],[-118.23714,34.21558],[-118.2356,34.21463],[-118.23539,34.21485],[-118.23521,34.21483],[-118.23515,34.22118],[-118.23504,34.22093],[-118.23504,34.2205],[-118.23472,34.22042],[-118.23483,34.22005],[-118.23422,34.21967],[-118.23422,34.22005],[-118.23339,34.21957],[-118.23339,34.21942],[-118.23289,34.21942],[-118.23289,34.21921],[-118.23189,34.21861],[-118.23189,34.21835],[-118.22991,34.22011],[-118.22962,34.22086],[-118.22859,34.22135],[-118.22858,34.22222],[-118.22727,34.22398],[-118.22759,34.22397],[-118.22736,34.22435],[-118.22719,34.22482],[-118.22716,34.22575],[-118.22778,34.2276],[-118.22773,34.22842],[-118.228,34.22842],[-118.228,34.22851],[-118.22772,34.2285],[-118.22759,34.22862],[-118.22759,34.22941],[-118.22778,34.22941],[-118.22776,34.22993],[-118.22731,34.2295],[-118.2274,34.23049],[-118.2276,34.23093],[-118.22733,34.2315],[-118.22745,34.23296],[-118.22802,34.23332],[-118.22795,34.23369],[-118.22756,34.23394],[-118.22782,34.23394],[-118.22738,34.23436],[-118.22708,34.23483],[-118.22676,34.23483],[-118.22627,34.23543],[-118.22623,34.23621],[-118.22561,34.23693],[-118.22475,34.23759],[-118.225,34.23836],[-118.22487,34.23882],[-118.22464,34.23895],[-118.22461,34.23909],[-118.22473,34.23991],[-118.2237,34.24082],[-118.2235,34.24144],[-118.22359,34.24158],[-118.22385,34.24166],[-118.22386,34.24175],[-118.22313,34.24195],[-118.22325,34.24195],[-118.22276,34.24275],[-118.2217,34.24274],[-118.2216,34.25179],[-118.22149,34.25179],[-118.2206,34.26639],[-118.2293,34.26707],[-118.23851,34.26707],[-118.2385,34.27062]]]},"properties":{"zip":"91214","share_in_city":0.43,"neighborhoods":["Crescenta Highlands","San Gabriel Mountains","Montrose"]}}]}